{"type": "FeatureCollection", "features": [{"type": "Feature", "properties": {"SHAPE_Length": 2351.8299078155515, "SHAPE_Area": 300606.46364693705, "OBJECTID": 19, "LNAME": "Peat", "COV_SOURCE_KEY": null}, "geometry": {"type": "Polygon", "coordinates": [[[-123.12246252170999, 49.257177498791684], [-123.12191570868505, 49.25725759839685], [-123.12118660520962, 49.257357767086305], [-123.12042715751001, 49.25747784313251], [-123.11981955846939, 49.257557997052295], [-123.11906010436616, 49.25767806411335], [-123.11872576921436, 49.25765852782624], [-123.11833041720215, 49.257539650540934], [-123.11790444207996, 49.257321402412636], [-123.1177214428405, 49.25704326350811], [-123.117568693218, 49.25670545343158], [-123.11744647615417, 49.2564272521965], [-123.11753712390973, 49.25620847636432], [-123.11768840653733, 49.25592999680576], [-123.1178092516255, 49.25563166774075], [-123.1179302847066, 49.255412860582304], [-123.11811214064198, 49.25521387056259], [-123.11814210188673, 49.25503491690429], [-123.1181717781705, 49.25473668060069], [-123.11826232465097, 49.25447814356042], [-123.11844412688373, 49.254259272700395], [-123.11859525559196, 49.25392115099404], [-123.11874642992757, 49.253602910263766], [-123.11874581001264, 49.25334446555615], [-123.11862349939588, 49.25302650481335], [-123.11834939933325, 49.25276834144212], [-123.11816641584551, 49.25249020300977], [-123.1181352702411, 49.25217214842755], [-123.1183168270348, 49.25185387709185], [-123.11852924482199, 49.251734376379204], [-123.11883291516368, 49.251654543048346], [-123.11910653329232, 49.25171390234116], [-123.11944121076411, 49.25189248086372], [-123.11989748547369, 49.252090811735215], [-123.12032308610222, 49.25216989066961], [-123.12074868946408, 49.252248968932115], [-123.12126550095037, 49.252347829377214], [-123.12181284917219, 49.25250629635472], [-123.1223602977912, 49.25270452131948], [-123.12290765208161, 49.25286298399555], [-123.12351603305757, 49.25312077966915], [-123.12394204647532, 49.25335888846547], [-123.12436806399036, 49.25359699567778], [-123.12476364946805, 49.25381525293601], [-123.12488549994447, 49.25393440333723], [-123.12497761593167, 49.25431203109731], [-123.12503949604668, 49.25474933250105], [-123.12510107581849, 49.25506735214244], [-123.12519299446235, 49.255365458527244], [-123.12546724399293, 49.25566336606732], [-123.1258631035824, 49.25598102176148], [-123.12613720996077, 49.256219287737416], [-123.12650248463738, 49.25645745237038], [-123.12680921988408, 49.25668204965037], [-123.12707703017779, 49.25688898633812], [-123.12724043623157, 49.25715222964826], [-123.12702874758831, 49.25736178578734], [-123.12661352351084, 49.25757594812366], [-123.12620801326952, 49.257718863429936], [-123.12556385582391, 49.25781034140063], [-123.1250167897983, 49.257791054310594], [-123.12434806502458, 49.25773213497323], [-123.12370928442085, 49.25749425585344], [-123.12334431136559, 49.25737536408708], [-123.12273607612711, 49.2571970888497], [-123.12246252170999, 49.257177498791684]]]}}]}