{"type": "FeatureCollection", "features": [{"type": "Feature", "geometry": {"coordinates": [[-123.11006367138832, 49.248996798278775], [-123.10999657861227, 49.25055649075061], [-123.10997315503722, 49.251560821012106], [-123.10995592433046, 49.25196336472128]], "type": "LineString"}, "properties": {"effluent_type": "Combined", "material": "blank", "geo_point_2d": {"lon": -123.11000590805511, "lat": 49.25047995213029}}}, {"type": "Feature", "geometry": {"coordinates": [[-123.11514770646541, 49.25691271259179], [-123.11510896183464, 49.25785661922608]], "type": "LineString"}, "properties": {"effluent_type": "Combined", "material": "Concrete", "geo_point_2d": {"lon": -123.11512833415003, "lat": 49.25738466590894}}}, {"type": "Feature", "geometry": {"coordinates": [[-123.11264282671057, 49.254116589376395], [-123.1126318132843, 49.254355504186115], [-123.11259352222179, 49.25531364937501]], "type": "LineString"}, "properties": {"effluent_type": "Combined", "material": "blank", "geo_point_2d": {"lon": -123.11261758900044, "lat": 49.25471509418293}}}, {"type": "Feature", "geometry": {"coordinates": [[-123.11259352222179, 49.25531364937501], [-123.11254356167018, 49.25630175983398], [-123.11253040378816, 49.256595232624626]], "type": "LineString"}, "properties": {"effluent_type": "Combined", "material": "blank", "geo_point_2d": {"lon": -123.11256131664442, "lat": 49.2559544101697}}}, {"type": "Feature", "geometry": {"coordinates": [[-123.11253040378816, 49.256595232624626], [-123.11252643026484, 49.25669112550956], [-123.11252635110107, 49.2566925738166], [-123.11252628668193, 49.25669446287496], [-123.11252629095573, 49.256696342871145], [-123.11252632271487, 49.25669822284059], [-123.11252642318736, 49.25670010274309], [-123.11252656490835, 49.25670199160066], [-123.11252674781649, 49.25670386242768], [-123.11252699945845, 49.25670574218294], [-123.112527292308, 49.25670761290286], [-123.11252762638563, 49.25670948358264], [-123.11252802917664, 49.25671135419548], [-123.11252845943262, 49.25671321578635], [-123.11252895838155, 49.2567150683151], [-123.11252949855856, 49.25671692080369], [-123.1125300799432, 49.25671876425693], [-123.11253073002081, 49.25672059864806], [-123.11253140756341, 49.256722424017184], [-123.11253215381944, 49.25672424931939], [-123.11253294126267, 49.256726056591035], [-123.112533769934, 49.25672786382254], [-123.11253465353523, 49.25672965301007], [-123.11253557834415, 49.256731433162265], [-123.11253655810339, 49.256733204265686], [-123.11253757907026, 49.25673496633377], [-123.11253865496708, 49.256736710357885], [-123.11253975834933, 49.25673845435525], [-123.11254093038376, 49.256740171300045], [-123.11254212988317, 49.25674187922288], [-123.11254338433294, 49.256743578096945], [-123.11254469371265, 49.25674525892704], [-123.1125460305369, 49.25674692173998], [-123.11254742231158, 49.25674857550415], [-123.11254885525301, 49.25675020224254], [-123.11255032940217, 49.25675181994555], [-123.11255184473859, 49.25675341961801], [-123.11255340126226, 49.256755001259855], [-123.1125549989732, 49.256756564871154], [-123.11255665161406, 49.25675811043847], [-123.11255833169953, 49.25675963798859], [-123.11256005297226, 49.256761147508115], [-123.11256181543223, 49.25676263899706], [-123.11256363280174, 49.256764103446834], [-123.11256546387312, 49.2567655498928], [-123.11256734985402, 49.25676696929957], [-123.11256926329993, 49.25676837968435], [-123.11257123163493, 49.25676975403474], [-123.11257321369226, 49.256771119376516], [-123.11257525063866, 49.25677244868389], [-123.1125773150296, 49.25677375997408], [-123.11257940686515, 49.25677505324704], [-123.1125815398675, 49.2567763194942], [-123.11258370029401, 49.25677755872894], [-123.11258590188729, 49.256778770937885], [-123.11258813090474, 49.25677995613442], [-123.11259040110943, 49.25678112330033], [-123.11259268499555, 49.256782263467215], [-123.11259501002802, 49.25678336761307], [-123.11259736250506, 49.256784453741716], [-123.11259974240622, 49.25678551285792], [-123.11260214973149, 49.25678654496171], [-123.11260458448083, 49.25678755005306], [-123.11260704663385, 49.25678851913681], [-123.11260953623143, 49.25678947020329], [-123.11261205323267, 49.25679038526216], [-123.11261458391526, 49.256791273321994], [-123.11261714202199, 49.256792134369356], [-123.11261972753232, 49.25679295940912], [-123.11262234048719, 49.256793766431606], [-123.1126249533603, 49.256794537473276], [-123.11262760737972, 49.256795272493875], [-123.11263026135826, 49.25679598952404], [-123.11263295648313, 49.25679667053319], [-123.1126356515262, 49.25679731556146], [-123.11263837399333, 49.25679793357728], [-123.11264109639912, 49.25679852460743], [-123.11264384620847, 49.25679907962996], [-123.11264660967875, 49.256799598658226], [-123.11264938683034, 49.25680009068743], [-123.11265217766326, 49.25680055571758], [-123.11265498215708, 49.256800984753475], [-123.11265780031175, 49.25680137779512], [-123.11266061840504, 49.25680174385111], [-123.11266345015919, 49.25680207391284], [-123.11266629559465, 49.2568023769755], [-123.11266914094823, 49.2568026440573], [-123.11267198621996, 49.25680287515825], [-123.11267485891567, 49.25680307924673], [-123.11267771778681, 49.256803247367756], [-123.11268059033925, 49.25680338848972], [-123.11268346280981, 49.256803493630805], [-123.11268633519843, 49.256803562791056], [-123.11293554654138, 49.256809858981434], [-123.11293990320435, 49.25680995367015], [-123.11294425999048, 49.25681010232986], [-123.11294861687927, 49.25681029596542], [-123.11295296012803, 49.256810534590244], [-123.1129573035205, 49.25681083618125], [-123.11296163325244, 49.25681117376635], [-123.11296596310763, 49.25681156532245], [-123.11297026560062, 49.25681201087644], [-123.11297456819638, 49.25681250140628], [-123.11297885717266, 49.256813045920545], [-123.1129831187663, 49.25681363543753], [-123.11298738046274, 49.25681426993034], [-123.11299161479704, 49.25681495842105], [-123.11299583549145, 49.25681569190104], [-123.11300002882375, 49.25681647937892], [-123.11300419475295, 49.256817302864334], [-123.11300834708328, 49.25681818932944], [-123.11301248575325, 49.25681911178858], [-123.11301658331848, 49.2568200882591], [-123.11302065348059, 49.256821100737156], [-123.11302471002341, 49.25682216719968], [-123.11302872544097, 49.2568232786784], [-123.113032713476, 49.256824435159814], [-123.11303667414907, 49.25682564563919], [-123.11304059367635, 49.25682689213955], [-123.11304448582112, 49.25682818364263], [-123.1130483505834, 49.25682952014849], [-123.11305216047779, 49.25683090168398], [-123.11305594298967, 49.256832328222245], [-123.11305969809855, 49.25683379076804], [-123.11306339833953, 49.25683529834352], [-123.11306705745537, 49.25683685093517], [-123.113070675446, 49.256838448543064], [-123.11307425229093, 49.256840082171976], [-123.11307778799016, 49.2568417518219], [-123.11308128258477, 49.25684347548327], [-123.11308472227044, 49.25684522618389], [-123.11308812083097, 49.256847021900796], [-123.11309146450307, 49.25684885365216], [-123.11309476702948, 49.25685072142458], [-123.11309801468806, 49.25685263422672], [-123.11310120743765, 49.25685457406814], [-123.11310434531944, 49.25685655893929], [-123.11310744203496, 49.2568585708363], [-123.11311048388265, 49.256860627763004], [-123.11311345707865, 49.256862711742514], [-123.11311638912899, 49.25686483174311], [-123.11311925252764, 49.25686697879647], [-123.11312206105843, 49.25686917087956], [-123.1131248146597, 49.25687138100682], [-123.1131274996504, 49.25687363617726], [-123.11313012971158, 49.25687590939188], [-123.11313270488436, 49.256878218641035], [-123.11313521140545, 49.256880554942995], [-123.11313766301753, 49.25688291828435], [-123.11314004599845, 49.25688531767371], [-123.11314236030711, 49.256887735120685], [-123.11314461970677, 49.256890179607055], [-123.113146796712, 49.256892651159724], [-123.1131489188082, 49.256895149751756], [-123.11315097223209, 49.256897666401464], [-123.11315297074698, 49.25690021009055], [-123.11315488684681, 49.25690277185073], [-123.1131567342949, 49.25690536066379], [-123.11315851307063, 49.256907967534495], [-123.11316022317402, 49.25691059246288], [-123.11316186462562, 49.25691324444411], [-123.11316343738432, 49.256915905487844], [-123.11316494149119, 49.25691859358444], [-123.11316636316238, 49.25692129075694], [-123.11316771616117, 49.256924005987166], [-123.113169000467, 49.25692673027985], [-123.11317021612099, 49.25692948162543], [-123.11317134931869, 49.25693223305174], [-123.11317241384396, 49.25693500253576], [-123.113173395954, 49.25693779009093], [-123.1131743093505, 49.256940577713394], [-123.1131751540745, 49.25694338339355], [-123.11317591636272, 49.25694619814969], [-123.11317659619458, 49.25694901298655], [-123.11317722109668, 49.256951845867675], [-123.11317774979963, 49.256954678843044], [-123.11317822355223, 49.25695752086744], [-123.11317860110567, 49.25696036298605], [-123.11317890996598, 49.25696321416719], [-123.11317915011261, 49.256966065415625], [-123.11317930780275, 49.256968916744825], [-123.11317939679977, 49.25697177713654], [-123.1131794033197, 49.25697462861385], [-123.1131793274037, 49.256977489167134], [-123.11317924270355, 49.25697951317385], [-123.1131737684396, 49.25712474630736]], "type": "LineString"}, "properties": {"effluent_type": "Combined", "material": "blank", "geo_point_2d": {"lon": -123.11287592956397, "lat": 49.25683619653739}}}, {"type": "Feature", "geometry": {"coordinates": [[-123.10988030712943, 49.253648125000446], [-123.1098795125682, 49.25366161858868], [-123.10988022960842, 49.25367511073927], [-123.10988259547005, 49.25368851136947], [-123.10988647253636, 49.253701730657816], [-123.10989186080847, 49.253714768604205], [-123.10989875988815, 49.25372744530434], [-123.10990703235788, 49.253739760888685], [-123.10991681563706, 49.25375171522619], [-123.10992783429015, 49.25376303872194], [-123.10994008851729, 49.253773821327606], [-123.10995371553786, 49.25378397295997], [-123.1099684405147, 49.25379349388015], [-123.10998412562955, 49.253802204314475], [-123.11000077088212, 49.25381010426259], [-123.11001837607216, 49.25381710377206], [-123.1100366665615, 49.253823293056236], [-123.11005564212955, 49.253828573167546], [-123.11007516519668, 49.25383287227497], [-123.11009523574187, 49.25383618138303], [-123.11011544150757, 49.253838500884356], [-123.1101359197113, 49.2538397406959], [-123.11015653333328, 49.253840080852534], [-123.11063807093021, 49.25384950647542]], "type": "LineString"}, "properties": {"effluent_type": "Combined", "material": "blank", "geo_point_2d": {"lon": -123.11021800572043, "lat": 49.25381599066285}}}, {"type": "Feature", "geometry": {"coordinates": [[-123.10995592433046, 49.25196336472128], [-123.10988030712943, 49.253648125000446]], "type": "LineString"}, "properties": {"effluent_type": "Combined", "material": "blank", "geo_point_2d": {"lon": -123.10991811572995, "lat": 49.252805744860865}}}, {"type": "Feature", "geometry": {"coordinates": [[-123.11063807093021, 49.25384950647542], [-123.11237649642383, 49.253881893553114], [-123.11239766281724, 49.25388358205548], [-123.11241855682547, 49.25388635024552], [-123.11243904062235, 49.253890018353204], [-123.11245911461752, 49.25389476628271], [-123.11247864078014, 49.25390032431197], [-123.11249748210076, 49.25390687247918], [-123.11251563837587, 49.25391432083256], [-123.11253283456357, 49.253922579688144], [-123.11254907066422, 49.253931649046365], [-123.11256420905448, 49.253941439089516], [-123.11257824971393, 49.253951940822766], [-123.11259119247879, 49.25396308228499], [-123.1126027622854, 49.25397476479711], [-123.1126129591332, 49.253986988359586], [-123.11262178302148, 49.25399975297275], [-123.11262923333553, 49.2540127887809], [-123.1126351728597, 49.25402618587028], [-123.11263975254951, 49.25403985414172], [-123.11264266987664, 49.254053703938155], [-123.11264407579633, 49.254067645160276], [-123.11264282671057, 49.254116589376395]], "type": "LineString"}, "properties": {"effluent_type": "Combined", "material": "blank", "geo_point_2d": {"lon": -123.11170309898151, "lat": 49.25388398032397}}}]}