{"type": "FeatureCollection", "features": [{"type": "Feature", "geometry": {"coordinates": [[-123.11714829022462, 49.24461063853218], [-123.11847661724765, 49.24474553479217], [-123.11860346578995, 49.244753995088054]], "type": "LineString"}, "properties": {"from_hundred_block": "500", "std_street": "W 29TH AV", "geo_point_2d": {"lon": -123.11787570968158, "lat": 49.24468431831881}}}, {"type": "Feature", "geometry": {"coordinates": [[-123.11002166562743, 49.24948492032214], [-123.11280904566594, 49.24953757990193]], "type": "LineString"}, "properties": {"from_hundred_block": "200", "std_street": "W 23RD AV", "geo_point_2d": {"lon": -123.11141535564668, "lat": 49.24951125011204}}}, {"type": "Feature", "geometry": {"coordinates": [[-123.1122600558609, 49.247425494951514], [-123.11438184561032, 49.247466114110004]], "type": "LineString"}, "properties": {"from_hundred_block": "400", "std_street": "W 26TH AV", "geo_point_2d": {"lon": -123.11332095073561, "lat": 49.247445804530756}}}, {"type": "Feature", "geometry": {"coordinates": [[-123.10444888762733, 49.247301409589916], [-123.10446424624391, 49.24690931154307]], "type": "LineString"}, "properties": {"from_hundred_block": "4300", "std_street": "ONTARIO ST", "geo_point_2d": {"lon": -123.10445656693562, "lat": 49.247105360566486}}}, {"type": "Feature", "geometry": {"coordinates": [[-123.11927107536975, 49.241661662305525], [-123.11929348793598, 49.241116194715666]], "type": "LineString"}, "properties": {"from_hundred_block": "4800", "std_street": "HEATHER ST", "geo_point_2d": {"lon": -123.11928228165286, "lat": 49.241388928510595}}}, {"type": "Feature", "geometry": {"coordinates": [[-123.10483381953111, 49.2522998438028], [-123.10729702652232, 49.252346561455546]], "type": "LineString"}, "properties": {"from_hundred_block": "0", "std_street": "W 20TH AV", "geo_point_2d": {"lon": -123.1060654230267, "lat": 49.25232320262917}}}, {"type": "Feature", "geometry": {"coordinates": [[-123.12396701005996, 49.25075357193427], [-123.12397473680883, 49.250667479321], [-123.12399829474681, 49.250143095245065]], "type": "LineString"}, "properties": {"from_hundred_block": "3900", "std_street": "LAUREL ST", "geo_point_2d": {"lon": -123.12398430411594, "lat": 49.25044844475564}}}, {"type": "Feature", "geometry": {"coordinates": [[-123.12751776296918, 49.24998898998987], [-123.12833213336205, 49.25000176101223]], "type": "LineString"}, "properties": {"from_hundred_block": "1000", "std_street": "LAURIER AV", "geo_point_2d": {"lon": -123.12792494816561, "lat": 49.24999537550106}}}, {"type": "Feature", "geometry": {"coordinates": [[-123.12392809040728, 49.251657355069966], [-123.1239473883154, 49.25120932714492]], "type": "LineString"}, "properties": {"from_hundred_block": "3800", "std_street": "LAUREL ST", "geo_point_2d": {"lon": -123.12393773936134, "lat": 49.25143334110744}}}, {"type": "Feature", "geometry": {"coordinates": [[-123.11599337961094, 49.256478073247145], [-123.11814900881164, 49.25651814851279]], "type": "LineString"}, "properties": {"from_hundred_block": "500", "std_street": "W 16TH AV", "geo_point_2d": {"lon": -123.11707119421129, "lat": 49.25649811087997}}}, {"type": "Feature", "geometry": {"coordinates": [[-123.10478984901786, 49.2532682014424], [-123.10725451951227, 49.25331490068699]], "type": "LineString"}, "properties": {"from_hundred_block": "0", "std_street": "W 19TH AV", "geo_point_2d": {"lon": -123.10602218426507, "lat": 49.25329155106469}}}, {"type": "Feature", "geometry": {"coordinates": [[-123.11828191789543, 49.25290221275477], [-123.12023241833279, 49.25294051599035]], "type": "LineString"}, "properties": {"from_hundred_block": "600", "std_street": "W 20TH AV", "geo_point_2d": {"lon": -123.1192571681141, "lat": 49.25292136437256}}}, {"type": "Feature", "geometry": {"coordinates": [[-123.11444606623283, 49.2553479728723], [-123.11446690982774, 49.25485318815667]], "type": "LineString"}, "properties": {"from_hundred_block": "3300", "std_street": "CAMBIE ST", "geo_point_2d": {"lon": -123.11445648803029, "lat": 49.25510058051449}}}, {"type": "Feature", "geometry": {"coordinates": [[-123.1145264841685, 49.25345220438215], [-123.11454790787839, 49.252935623487915]], "type": "LineString"}, "properties": {"from_hundred_block": "3500", "std_street": "CAMBIE ST", "geo_point_2d": {"lon": -123.11453719602343, "lat": 49.253193913935036}}}, {"type": "Feature", "geometry": {"coordinates": [[-123.11679540182085, 49.25152204961782], [-123.1168119654227, 49.25107005876073]], "type": "LineString"}, "properties": {"from_hundred_block": "3800", "std_street": "HEATHER ST", "geo_point_2d": {"lon": -123.11680368362178, "lat": 49.251296054189275}}}, {"type": "Feature", "geometry": {"coordinates": [[-123.10733631925069, 49.25146190761034], [-123.10993345610453, 49.25151114311321]], "type": "LineString"}, "properties": {"from_hundred_block": "100", "std_street": "W 21ST AV", "geo_point_2d": {"lon": -123.10863488767761, "lat": 49.251486525361784}}}, {"type": "Feature", "geometry": {"coordinates": [[-123.10972298256921, 49.25624856857552], [-123.11111649788945, 49.256274879074844]], "type": "LineString"}, "properties": {"from_hundred_block": "200", "std_street": "W 16TH AV", "geo_point_2d": {"lon": -123.11041974022932, "lat": 49.25626172382518}}}, {"type": "Feature", "geometry": {"coordinates": [[-123.11433702478634, 49.24845960975826], [-123.1143611176052, 49.24792673544538]], "type": "LineString"}, "properties": {"from_hundred_block": "4100", "std_street": "CAMBIE ST", "geo_point_2d": {"lon": -123.11434907119576, "lat": 49.248193172601816}}}, {"type": "Feature", "geometry": {"coordinates": [[-123.11655606825465, 49.247505445048965], [-123.11848540365327, 49.247539121589405]], "type": "LineString"}, "properties": {"from_hundred_block": "500", "std_street": "W 26TH AV", "geo_point_2d": {"lon": -123.11752073595396, "lat": 49.247522283319185}}}, {"type": "Feature", "geometry": {"coordinates": [[-123.11445516487599, 49.245659852679104], [-123.11447148088654, 49.24517553307179]], "type": "LineString"}, "properties": {"from_hundred_block": "4400", "std_street": "CAMBIE ST", "geo_point_2d": {"lon": -123.11446332288126, "lat": 49.24541769287545}}}, {"type": "Feature", "geometry": {"coordinates": [[-123.10440650601032, 49.24843836407991], [-123.10442033168361, 49.248068323806464]], "type": "LineString"}, "properties": {"from_hundred_block": "4100", "std_street": "ONTARIO ST", "geo_point_2d": {"lon": -123.10441341884697, "lat": 49.2482533439432}}}, {"type": "Feature", "geometry": {"coordinates": [[-123.10840759282723, 49.24628707646278], [-123.10841451806021, 49.24629351954645], [-123.10845593000951, 49.2463312246759], [-123.10849834396357, 49.24636844310666], [-123.1085417461836, 49.24640517485055], [-123.1085861091514, 49.246441401941894], [-123.10863144660755, 49.24647712436665], [-123.10867771727399, 49.246512315176815], [-123.10872492115125, 49.24654697437128], [-123.10877304448009, 49.246581092966615], [-123.10882205974158, 49.246614652997174], [-123.10887198065599, 49.24664764545363], [-123.1089227522638, 49.24668007038667], [-123.10897440198534, 49.24671190078357], [-123.10902687486082, 49.24674313669509], [-123.10908018461001, 49.2467737691119], [-123.1091343037328, 49.246803789063584], [-123.10918919098906, 49.246833187592784], [-123.10924487383805, 49.246861955677204], [-123.10930131101954, 49.246890075364284], [-123.10935848881243, 49.246917555661135], [-123.10941639343608, 49.24694437858925], [-123.10947501110954, 49.24697052617015], [-123.10953431437152, 49.24699600742404], [-123.10959427570089, 49.24702080438549], [-123.1096549088361, 49.24704491704045], [-123.10971615877581, 49.24706832744964], [-123.10977802551824, 49.24709103561211], [-123.10984049532158, 49.247113041539905], [-123.10990354064407, 49.2471343182726], [-123.10996713402359, 49.247154874830585], [-123.11003127543802, 49.247174702217805], [-123.11009593738513, 49.24719379146429]], "type": "LineString"}, "properties": {"from_hundred_block": "100", "std_street": "PEVERIL AV", "geo_point_2d": {"lon": -123.10921603511277, "lat": 49.24680552421655}}}, {"type": "Feature", "geometry": {"coordinates": [[-123.10440650601032, 49.24843836407991], [-123.1040238488168, 49.24843158503431]], "type": "LineString"}, "properties": {"from_hundred_block": "0", "std_street": "E KING EDWARD AV", "geo_point_2d": {"lon": -123.10421517741355, "lat": 49.248434974557114}}}, {"type": "Feature", "geometry": {"coordinates": [[-123.1168119654227, 49.25107005876073], [-123.1183528630962, 49.25109608788252]], "type": "LineString"}, "properties": {"from_hundred_block": "500", "std_street": "W 22ND AV", "geo_point_2d": {"lon": -123.11758241425945, "lat": 49.251083073321624}}}, {"type": "Feature", "geometry": {"coordinates": [[-123.12535000088003, 49.25025767502104], [-123.12679820823286, 49.25027802503842]], "type": "LineString"}, "properties": {"from_hundred_block": "900", "std_street": "W 23RD AV", "geo_point_2d": {"lon": -123.12607410455644, "lat": 49.25026785002973}}}, {"type": "Feature", "geometry": {"coordinates": [[-123.12043160179351, 49.2475731711099], [-123.12238123193897, 49.247604899421425]], "type": "LineString"}, "properties": {"from_hundred_block": "700", "std_street": "W 26TH AV", "geo_point_2d": {"lon": -123.12140641686625, "lat": 49.24758903526566}}}, {"type": "Feature", "geometry": {"coordinates": [[-123.1184497226112, 49.24845901948986], [-123.1203933021477, 49.2484919029644]], "type": "LineString"}, "properties": {"from_hundred_block": "600", "std_street": "W KING EDWARD AV", "geo_point_2d": {"lon": -123.11942151237946, "lat": 49.24847546122713}}}, {"type": "Feature", "geometry": {"coordinates": [[-123.1203933021477, 49.2484919029644], [-123.12234757223595, 49.248523932851114]], "type": "LineString"}, "properties": {"from_hundred_block": "700", "std_street": "W KING EDWARD AV", "geo_point_2d": {"lon": -123.12137043719183, "lat": 49.24850791790776}}}, {"type": "Feature", "geometry": {"coordinates": [[-123.11682847357439, 49.25061798696468], [-123.11684958526327, 49.250020628553735]], "type": "LineString"}, "properties": {"from_hundred_block": "3900", "std_street": "ASH ST", "geo_point_2d": {"lon": -123.11683902941883, "lat": 49.250319307759206}}}, {"type": "Feature", "geometry": {"coordinates": [[-123.12214639396932, 49.25388563331154], [-123.1245107612851, 49.25393505685236]], "type": "LineString"}, "properties": {"from_hundred_block": "800", "std_street": "W 19TH AV", "geo_point_2d": {"lon": -123.12332857762719, "lat": 49.25391034508195}}}, {"type": "Feature", "geometry": {"coordinates": [[-123.12207998357196, 49.25569282531223], [-123.12377950714021, 49.25572492900026]], "type": "LineString"}, "properties": {"from_hundred_block": "800", "std_street": "W 17TH AV", "geo_point_2d": {"lon": -123.12292974535609, "lat": 49.255708877156245}}}, {"type": "Feature", "geometry": {"coordinates": [[-123.12234757223595, 49.248523932851114], [-123.12473644542577, 49.24856301726128]], "type": "LineString"}, "properties": {"from_hundred_block": "800", "std_street": "W KING EDWARD AV", "geo_point_2d": {"lon": -123.12354200883087, "lat": 49.248543475056195}}}, {"type": "Feature", "geometry": {"coordinates": [[-123.11431388648144, 49.24897167710695], [-123.11433702478634, 49.24845960975826]], "type": "LineString"}, "properties": {"from_hundred_block": "4100", "std_street": "CAMBIE ST", "geo_point_2d": {"lon": -123.1143254556339, "lat": 49.248715643432604}}}, {"type": "Feature", "geometry": {"coordinates": [[-123.11009593738513, 49.24719379146429], [-123.11015124892997, 49.247209642311255], [-123.11021358427604, 49.2472266558115], [-123.11027635774389, 49.24724294924135], [-123.11033956935118, 49.247258531595286], [-123.11040317783537, 49.247273384921584], [-123.11046716945391, 49.2472875092327], [-123.11053153044418, 49.247300895545976], [-123.11059624708356, 49.247313552869144], [-123.11066127810912, 49.24732546325069], [-123.1107266235382, 49.24733663568527], [-123.11079225584771, 49.247347052208326], [-123.11085816131487, 49.24735672182772], [-123.11092431243654, 49.24736563557423], [-123.11099068170948, 49.24737378447858], [-123.11105726915089, 49.247381177535615], [-123.11112403351737, 49.24738780578942], [-123.11119097482612, 49.247393678234886], [-123.11125805183359, 49.247398785916204], [-123.11132526451655, 49.24740311983792], [-123.11139258541189, 49.24740668902152], [-123.11145995953589, 49.2474094845246], [-123.11152742812598, 49.247411515302545], [-123.11159493619833, 49.24741277241302], [-123.1122600558609, 49.247425494951514]], "type": "LineString"}, "properties": {"from_hundred_block": "200", "std_street": "W 26TH AV", "geo_point_2d": {"lon": -123.11117146076164, "lat": 49.24736198220593}}}, {"type": "Feature", "geometry": {"coordinates": [[-123.11454790787839, 49.252935623487915], [-123.11455885602004, 49.252482595191786]], "type": "LineString"}, "properties": {"from_hundred_block": "3600", "std_street": "CAMBIE ST", "geo_point_2d": {"lon": -123.11455338194921, "lat": 49.25270910933985}}}, {"type": "Feature", "geometry": {"coordinates": [[-123.11831881104861, 49.25199818195373], [-123.11959558433652, 49.25202296249197]], "type": "LineString"}, "properties": {"from_hundred_block": "600", "std_street": "W 21ST AV", "geo_point_2d": {"lon": -123.11895719769257, "lat": 49.25201057222285}}}, {"type": "Feature", "geometry": {"coordinates": [[-123.12677488122422, 49.25080590857106], [-123.12679820823286, 49.25027802503842]], "type": "LineString"}, "properties": {"from_hundred_block": "3900", "std_street": "OAK ST", "geo_point_2d": {"lon": -123.12678654472853, "lat": 49.25054196680474}}}, {"type": "Feature", "geometry": {"coordinates": [[-123.11941650090768, 49.25699389775977], [-123.1194336467766, 49.2565418163972]], "type": "LineString"}, "properties": {"from_hundred_block": "3200", "std_street": "HEATHER ST", "geo_point_2d": {"lon": -123.11942507384214, "lat": 49.256767857078486}}}, {"type": "Feature", "geometry": {"coordinates": [[-123.10491706504224, 49.25043868315514], [-123.10737952006063, 49.25048545369676]], "type": "LineString"}, "properties": {"from_hundred_block": "0", "std_street": "W 22ND AV", "geo_point_2d": {"lon": -123.10614829255144, "lat": 49.250462068425946}}}, {"type": "Feature", "geometry": {"coordinates": [[-123.10737952006063, 49.25048545369676], [-123.1099766184341, 49.2505342205094]], "type": "LineString"}, "properties": {"from_hundred_block": "100", "std_street": "W 22ND AV", "geo_point_2d": {"lon": -123.10867806924736, "lat": 49.25050983710308}}}, {"type": "Feature", "geometry": {"coordinates": [[-123.11438184561032, 49.247466114110004], [-123.11440379006856, 49.24700288291194]], "type": "LineString"}, "properties": {"from_hundred_block": "4200", "std_street": "CAMBIE ST", "geo_point_2d": {"lon": -123.11439281783944, "lat": 49.24723449851098}}}, {"type": "Feature", "geometry": {"coordinates": [[-123.11877961494125, 49.243795920345995], [-123.12055748619262, 49.24384156462215]], "type": "LineString"}, "properties": {"from_hundred_block": "600", "std_street": "W 30TH AV", "geo_point_2d": {"lon": -123.11966855056693, "lat": 49.24381874248407}}}, {"type": "Feature", "geometry": {"coordinates": [[-123.10752692164968, 49.24706345943712], [-123.10758723333579, 49.24710448451194], [-123.10773239183453, 49.247203215835206], [-123.10775669276413, 49.24721974439833], [-123.10783306069166, 49.2472704962027], [-123.10791075966127, 49.24732037417546], [-123.10798978961398, 49.24736935132832], [-123.10807010930951, 49.247417418701936], [-123.10815167748753, 49.247464558341775], [-123.10823450786748, 49.24751076123715], [-123.10831855916875, 49.24755600043836], [-123.10840380392916, 49.24760028496379], [-123.10849022834768, 49.24764358783807], [-123.10857777742211, 49.24768589111979], [-123.10874619117182, 49.247767265492314], [-123.10885876075992, 49.24782166158235]], "type": "LineString"}, "properties": {"from_hundred_block": "100", "std_street": "W 26TH AV", "geo_point_2d": {"lon": -123.10818054648269, "lat": 49.24746397954286}}}, {"type": "Feature", "geometry": {"coordinates": [[-123.10582792772578, 49.24557283601853], [-123.10585965013152, 49.244826184479656]], "type": "LineString"}, "properties": {"from_hundred_block": "0", "std_street": "PEVERIL AV", "geo_point_2d": {"lon": -123.10584378892865, "lat": 49.245199510249094}}}, {"type": "Feature", "geometry": {"coordinates": [[-123.11665077167092, 49.24520429679048], [-123.11674672655475, 49.24506946023402], [-123.11709471544765, 49.24464917446575], [-123.11714829022462, 49.24461063853218]], "type": "LineString"}, "properties": {"from_hundred_block": "4500", "std_street": "ASH ST", "geo_point_2d": {"lon": -123.11689050189226, "lat": 49.244898943158326}}}, {"type": "Feature", "geometry": {"coordinates": [[-123.12211139354952, 49.25478823281577], [-123.12447769081523, 49.254833859014475]], "type": "LineString"}, "properties": {"from_hundred_block": "800", "std_street": "W 18TH AV", "geo_point_2d": {"lon": -123.12329454218236, "lat": 49.25481104591512}}}, {"type": "Feature", "geometry": {"coordinates": [[-123.12670665972017, 49.25306743699706], [-123.12739282594916, 49.25307892493801]], "type": "LineString"}, "properties": {"from_hundred_block": "900", "std_street": "W 20TH AV", "geo_point_2d": {"lon": -123.12704974283466, "lat": 49.25307318096753}}}, {"type": "Feature", "geometry": {"coordinates": [[-123.12505947491557, 49.2512307247201], [-123.1273004288044, 49.25126809012314], [-123.12746567739721, 49.25132027813251]], "type": "LineString"}, "properties": {"from_hundred_block": "900", "std_street": "W 22ND AV", "geo_point_2d": {"lon": -123.12626629880442, "lat": 49.251252621059535}}}, {"type": "Feature", "geometry": {"coordinates": [[-123.12230676494649, 49.249637162688465], [-123.12469430652106, 49.24967724785712]], "type": "LineString"}, "properties": {"from_hundred_block": "800", "std_street": "W 24TH AV", "geo_point_2d": {"lon": -123.12350053573378, "lat": 49.2496572052728}}}, {"type": "Feature", "geometry": {"coordinates": [[-123.12095083699077, 49.25159812840467], [-123.12096737716702, 49.25114644281007]], "type": "LineString"}, "properties": {"from_hundred_block": "3800", "std_street": "WILLOW ST", "geo_point_2d": {"lon": -123.1209591070789, "lat": 49.251372285607374}}}, {"type": "Feature", "geometry": {"coordinates": [[-123.10487381572267, 49.251415145183756], [-123.10501734170927, 49.25141456504944], [-123.10733631925069, 49.25146190761034]], "type": "LineString"}, "properties": {"from_hundred_block": "0", "std_street": "W 21ST AV", "geo_point_2d": {"lon": -123.1061050810137, "lat": 49.25143687382254}}}, {"type": "Feature", "geometry": {"coordinates": [[-123.10725451951227, 49.25331490068699], [-123.10985113532224, 49.25336422848378]], "type": "LineString"}, "properties": {"from_hundred_block": "100", "std_street": "W 19TH AV", "geo_point_2d": {"lon": -123.10855282741724, "lat": 49.25333956458538}}}, {"type": "Feature", "geometry": {"coordinates": [[-123.10976673084129, 49.25525953873565], [-123.11255454563387, 49.2553121680887]], "type": "LineString"}, "properties": {"from_hundred_block": "200", "std_street": "W 17TH AV", "geo_point_2d": {"lon": -123.11116063823758, "lat": 49.255285853412175}}}, {"type": "Feature", "geometry": {"coordinates": [[-123.11959558433652, 49.25202296249197], [-123.11961209502824, 49.251570962325715]], "type": "LineString"}, "properties": {"from_hundred_block": "3700", "std_street": "HEATHER ST", "geo_point_2d": {"lon": -123.11960383968238, "lat": 49.25179696240885}}}, {"type": "Feature", "geometry": {"coordinates": [[-123.10637002996815, 49.24604881570386], [-123.10687738551604, 49.24649517667085]], "type": "LineString"}, "properties": {"from_hundred_block": "100", "std_street": "PEVERIL AV", "geo_point_2d": {"lon": -123.1066237077421, "lat": 49.24627199618735}}}, {"type": "Feature", "geometry": {"coordinates": [[-123.1126394057914, 49.25341637860025], [-123.1145264841685, 49.25345220438215]], "type": "LineString"}, "properties": {"from_hundred_block": "400", "std_street": "W 19TH AV", "geo_point_2d": {"lon": -123.11358294497995, "lat": 49.2534342914912}}}, {"type": "Feature", "geometry": {"coordinates": [[-123.11714829022462, 49.24461063853218], [-123.11786317367553, 49.244095878619554]], "type": "LineString"}, "properties": {"from_hundred_block": "4500", "std_street": "ASH ST", "geo_point_2d": {"lon": -123.11750573195008, "lat": 49.24435325857587}}}, {"type": "Feature", "geometry": {"coordinates": [[-123.11924970160412, 49.24218799589127], [-123.11927107536975, 49.241661662305525]], "type": "LineString"}, "properties": {"from_hundred_block": "4800", "std_street": "HEATHER ST", "geo_point_2d": {"lon": -123.11926038848694, "lat": 49.241924829098394}}}, {"type": "Feature", "geometry": {"coordinates": [[-123.11920943654238, 49.24323943699202], [-123.11923026160953, 49.242690274159216]], "type": "LineString"}, "properties": {"from_hundred_block": "4700", "std_street": "HEATHER ST", "geo_point_2d": {"lon": -123.11921984907596, "lat": 49.24296485557562}}}, {"type": "Feature", "geometry": {"coordinates": [[-123.10717070288321, 49.255210244469886], [-123.10976673084129, 49.25525953873565]], "type": "LineString"}, "properties": {"from_hundred_block": "100", "std_street": "W 17TH AV", "geo_point_2d": {"lon": -123.10846871686225, "lat": 49.25523489160277}}}, {"type": "Feature", "geometry": {"coordinates": [[-123.12454972702498, 49.25303129181675], [-123.12670665972017, 49.25306743699706]], "type": "LineString"}, "properties": {"from_hundred_block": "900", "std_street": "W 20TH AV", "geo_point_2d": {"lon": -123.12562819337258, "lat": 49.253049364406905}}}, {"type": "Feature", "geometry": {"coordinates": [[-123.11602835083484, 49.25557356893422], [-123.1181844349898, 49.25561347216893]], "type": "LineString"}, "properties": {"from_hundred_block": "500", "std_street": "W 17TH AV", "geo_point_2d": {"lon": -123.11710639291232, "lat": 49.25559352055157}}}, {"type": "Feature", "geometry": {"coordinates": [[-123.11446690982774, 49.25485318815667], [-123.11448606640678, 49.2544015821261]], "type": "LineString"}, "properties": {"from_hundred_block": "3400", "std_street": "CAMBIE ST", "geo_point_2d": {"lon": -123.11447648811726, "lat": 49.25462738514139}}}, {"type": "Feature", "geometry": {"coordinates": [[-123.11606448403178, 49.250007198483964], [-123.11608414573419, 49.249531870878755]], "type": "LineString"}, "properties": {"from_hundred_block": "4000", "std_street": "ASH ST", "geo_point_2d": {"lon": -123.11607431488298, "lat": 49.24976953468136}}}, {"type": "Feature", "geometry": {"coordinates": [[-123.1183528630962, 49.25109608788252], [-123.1196328947641, 49.251119830217235]], "type": "LineString"}, "properties": {"from_hundred_block": "600", "std_street": "W 22ND AV", "geo_point_2d": {"lon": -123.11899287893016, "lat": 49.251107959049875}}}, {"type": "Feature", "geometry": {"coordinates": [[-123.1099766184341, 49.2505342205094], [-123.11276339785417, 49.25058684578627]], "type": "LineString"}, "properties": {"from_hundred_block": "200", "std_street": "W 22ND AV", "geo_point_2d": {"lon": -123.11137000814414, "lat": 49.250560533147834}}}, {"type": "Feature", "geometry": {"coordinates": [[-123.12532673784446, 49.25077892870719], [-123.12535000088003, 49.25025767502104]], "type": "LineString"}, "properties": {"from_hundred_block": "3900", "std_street": "OAK ST", "geo_point_2d": {"lon": -123.12533836936225, "lat": 49.25051830186412}}}, {"type": "Feature", "geometry": {"coordinates": [[-123.12831799550722, 49.24770129159174], [-123.12833359537795, 49.24724189674754]], "type": "LineString"}, "properties": {"from_hundred_block": "4200", "std_street": "OSLER ST", "geo_point_2d": {"lon": -123.12832579544258, "lat": 49.24747159416964}}}, {"type": "Feature", "geometry": {"coordinates": [[-123.1204601100537, 49.24665148987342], [-123.12241499431656, 49.24668342801769]], "type": "LineString"}, "properties": {"from_hundred_block": "700", "std_street": "W 27TH AV", "geo_point_2d": {"lon": -123.12143755218513, "lat": 49.24666745894555}}}, {"type": "Feature", "geometry": {"coordinates": [[-123.11659652228113, 49.24659061608425], [-123.11661128220184, 49.24612525077596]], "type": "LineString"}, "properties": {"from_hundred_block": "4300", "std_street": "ASH ST", "geo_point_2d": {"lon": -123.11660390224148, "lat": 49.246357933430104}}}, {"type": "Feature", "geometry": {"coordinates": [[-123.11006856318356, 49.2483849480323], [-123.11221499417924, 49.24842242618477]], "type": "LineString"}, "properties": {"from_hundred_block": "200", "std_street": "W KING EDWARD AV", "geo_point_2d": {"lon": -123.11114177868139, "lat": 49.248403687108535}}}, {"type": "Feature", "geometry": {"coordinates": [[-123.10439143193054, 49.24883550808095], [-123.10440650601032, 49.24843836407991]], "type": "LineString"}, "properties": {"from_hundred_block": "4100", "std_street": "ONTARIO ST", "geo_point_2d": {"lon": -123.10439896897043, "lat": 49.24863693608043}}}, {"type": "Feature", "geometry": {"coordinates": [[-123.10954437728063, 49.24572515134943], [-123.10962671484883, 49.24579772775365], [-123.10962694888089, 49.24579793442195], [-123.10965486591479, 49.245821853240756], [-123.10968342802255, 49.24584544761186], [-123.10971259396554, 49.24586870857874], [-123.10974239122342, 49.245891636114834], [-123.10977279229712, 49.245914221250544], [-123.10980379716693, 49.245936454990186], [-123.10983537835358, 49.2459583373594], [-123.10986754955695, 49.245979850354225], [-123.10990028329766, 49.24600099400031], [-123.10993356581606, 49.246021759315056], [-123.10996741083179, 49.24604213728968], [-123.11000179088528, 49.24606213694507], [-123.1100366921767, 49.2460817313082], [-123.11007211470582, 49.24610092037861], [-123.1101080310129, 49.24611971317724], [-123.11014446851709, 49.24613808269176], [-123.11018137227904, 49.24615603796932], [-123.1102187560181, 49.24617357000116], [-123.11025660597399, 49.246190669804726], [-123.1102948946667, 49.24620733740579], [-123.11033362207563, 49.246223563808705], [-123.11037278818011, 49.246239340017816], [-123.11041236552, 49.24625467505416], [-123.11045234031472, 49.246269550940035], [-123.11049271256354, 49.24628396767502], [-123.11053345476599, 49.246297916289784], [-123.11057456694128, 49.24631140577915], [-123.11061602156886, 49.246324418178624], [-123.11065783236748, 49.24633694447945], [-123.11069997189676, 49.24634900269802], [-123.11074241263594, 49.24636057486988], [-123.11078516834388, 49.246371669976725], [-123.11082821149971, 49.24638227005417], [-123.11087151462264, 49.24639237512826], [-123.11091510517105, 49.24640197617711], [-123.1109589282248, 49.24641109124361], [-123.11100299746207, 49.24641969332864], [-123.11104727170246, 49.246427800461994], [-123.11109177838408, 49.24643539462659], [-123.1111364625463, 49.24644247587499], [-123.11118133794787, 49.246449053189025], [-123.11122637706737, 49.24645510860449], [-123.11127157992371, 49.246460651116415], [-123.11131691903584, 49.24646568075107], [-123.11136238064232, 49.24647018852636], [-123.11140796474177, 49.2464741744421], [-123.11145364387332, 49.2464776475199], [-123.11149940425524, 49.24648058978248], [-123.1115452321665, 49.24648301023821], [-123.11159112760566, 49.24648490888703], [-123.11163706307133, 49.24648627676019], [-123.11230662151836, 49.246498778854665]], "type": "LineString"}, "properties": {"from_hundred_block": "100", "std_street": "TALISMAN AV", "geo_point_2d": {"lon": -123.11086765060287, "lat": 49.24629045216402}}}, {"type": "Feature", "geometry": {"coordinates": [[-123.11255454563387, 49.2553121680887], [-123.11444606623283, 49.2553479728723]], "type": "LineString"}, "properties": {"from_hundred_block": "400", "std_street": "W 17TH AV", "geo_point_2d": {"lon": -123.11350030593334, "lat": 49.2553300704805}}}, {"type": "Feature", "geometry": {"coordinates": [[-123.12830234288808, 49.24816164894535], [-123.12831799550722, 49.24770129159174]], "type": "LineString"}, "properties": {"from_hundred_block": "4200", "std_street": "OSLER ST", "geo_point_2d": {"lon": -123.12831016919765, "lat": 49.24793147026854}}}, {"type": "Feature", "geometry": {"coordinates": [[-123.11276339785417, 49.25058684578627], [-123.1146354167087, 49.25062200983502]], "type": "LineString"}, "properties": {"from_hundred_block": "400", "std_street": "W 22ND AV", "geo_point_2d": {"lon": -123.11369940728143, "lat": 49.25060442781064}}}, {"type": "Feature", "geometry": {"coordinates": [[-123.12078029751731, 49.25611680466974], [-123.12079719952307, 49.25566574874236]], "type": "LineString"}, "properties": {"from_hundred_block": "3300", "std_street": "WILLOW ST", "geo_point_2d": {"lon": -123.1207887485202, "lat": 49.25589127670605}}}, {"type": "Feature", "geometry": {"coordinates": [[-123.1144401170223, 49.246086628477], [-123.11445516487599, 49.245659852679104]], "type": "LineString"}, "properties": {"from_hundred_block": "4400", "std_street": "CAMBIE ST", "geo_point_2d": {"lon": -123.11444764094915, "lat": 49.24587324057805}}}, {"type": "Feature", "geometry": {"coordinates": [[-123.11855847650696, 49.24572111001529], [-123.12048945971338, 49.24575416669959]], "type": "LineString"}, "properties": {"from_hundred_block": "600", "std_street": "W 28TH AV", "geo_point_2d": {"lon": -123.11952396811017, "lat": 49.24573763835744}}}, {"type": "Feature", "geometry": {"coordinates": [[-123.1145944761119, 49.25159892298833], [-123.11461342309852, 49.25114684014133]], "type": "LineString"}, "properties": {"from_hundred_block": "3700", "std_street": "CAMBIE ST", "geo_point_2d": {"lon": -123.1146039496052, "lat": 49.25137288156483}}}, {"type": "Feature", "geometry": {"coordinates": [[-123.1144040054385, 49.256336966840195], [-123.1144254144991, 49.25584270338014]], "type": "LineString"}, "properties": {"from_hundred_block": "3200", "std_street": "CAMBIE ST", "geo_point_2d": {"lon": -123.1144147099688, "lat": 49.25608983511017}}}, {"type": "Feature", "geometry": {"coordinates": [[-123.10582792772578, 49.24557283601853], [-123.10592736756314, 49.24566567465005], [-123.10637002996815, 49.24604881570386]], "type": "LineString"}, "properties": {"from_hundred_block": "0", "std_street": "PEVERIL AV", "geo_point_2d": {"lon": -123.10609759018615, "lat": 49.245812370532136}}}, {"type": "Feature", "geometry": {"coordinates": [[-123.117516976537, 49.241057666413006], [-123.11752972163974, 49.240760684528205], [-123.1174519437701, 49.24069465759297], [-123.11602410533473, 49.239413189814144]], "type": "LineString"}, "properties": {"from_hundred_block": "4900", "std_street": "CAMBIE ST", "geo_point_2d": {"lon": -123.11687187601069, "lat": 49.24019326307469}}}, {"type": "Feature", "geometry": {"coordinates": [[-123.11438046470433, 49.25689021400126], [-123.1144040054385, 49.256336966840195]], "type": "LineString"}, "properties": {"from_hundred_block": "3200", "std_street": "CAMBIE ST", "geo_point_2d": {"lon": -123.1143922350714, "lat": 49.25661359042073}}}, {"type": "Feature", "geometry": {"coordinates": [[-123.1184068493077, 49.24957234900465], [-123.12035257696996, 49.24960610350506]], "type": "LineString"}, "properties": {"from_hundred_block": "600", "std_street": "W 24TH AV", "geo_point_2d": {"lon": -123.11937971313884, "lat": 49.249589226254855}}}, {"type": "Feature", "geometry": {"coordinates": [[-123.11927107536975, 49.241661662305525], [-123.12062627455816, 49.24170801097352]], "type": "LineString"}, "properties": {"from_hundred_block": "600", "std_street": "W 32ND AV", "geo_point_2d": {"lon": -123.11994867496395, "lat": 49.24168483663952}}}, {"type": "Feature", "geometry": {"coordinates": [[-123.12079719952307, 49.25566574874236], [-123.12207997051728, 49.25569310417782]], "type": "LineString"}, "properties": {"from_hundred_block": "700", "std_street": "W 17TH AV", "geo_point_2d": {"lon": -123.12143858502017, "lat": 49.25567942646009}}}, {"type": "Feature", "geometry": {"coordinates": [[-123.12076279095209, 49.25656803210022], [-123.12078029751731, 49.25611680466974]], "type": "LineString"}, "properties": {"from_hundred_block": "3200", "std_street": "WILLOW ST", "geo_point_2d": {"lon": -123.1207715442347, "lat": 49.256342418384975}}}, {"type": "Feature", "geometry": {"coordinates": [[-123.12833213336205, 49.25000176101223], [-123.1297980258331, 49.25002473435793]], "type": "LineString"}, "properties": {"from_hundred_block": "1000", "std_street": "LAURIER AV", "geo_point_2d": {"lon": -123.12906507959758, "lat": 49.250013247685075}}}, {"type": "Feature", "geometry": {"coordinates": [[-123.12096737716702, 49.25114644281007], [-123.12098383361378, 49.25069435247998]], "type": "LineString"}, "properties": {"from_hundred_block": "3800", "std_street": "WILLOW ST", "geo_point_2d": {"lon": -123.1209756053904, "lat": 49.250920397645025}}}, {"type": "Feature", "geometry": {"coordinates": [[-123.11661128220184, 49.24612525077596], [-123.11662579185584, 49.24568791483141]], "type": "LineString"}, "properties": {"from_hundred_block": "4400", "std_street": "ASH ST", "geo_point_2d": {"lon": -123.11661853702884, "lat": 49.245906582803684}}}, {"type": "Feature", "geometry": {"coordinates": [[-123.11649447928028, 49.24900980654286], [-123.11651845706031, 49.24842612688132]], "type": "LineString"}, "properties": {"from_hundred_block": "4100", "std_street": "ASH ST", "geo_point_2d": {"lon": -123.11650646817029, "lat": 49.24871796671209}}}, {"type": "Feature", "geometry": {"coordinates": [[-123.10500969218036, 49.248300370290835], [-123.10747094361403, 49.248341688860926]], "type": "LineString"}, "properties": {"from_hundred_block": "0", "std_street": "W KING EDWARD AV", "geo_point_2d": {"lon": -123.1062403178972, "lat": 49.24832102957588}}}, {"type": "Feature", "geometry": {"coordinates": [[-123.11061747222048, 49.24520242325116], [-123.11069996154383, 49.24527496277099], [-123.11070534444849, 49.245279770063625], [-123.11071846371908, 49.24529117244444], [-123.110731884923, 49.24530242161536], [-123.11074559432083, 49.24531351758944], [-123.11075960563207, 49.245324451358194], [-123.1107739051172, 49.2453352229347], [-123.11078847903676, 49.24534583233201], [-123.11080335486987, 49.24535627952369], [-123.11081849135769, 49.245366546558714], [-123.1108339022599, 49.24537664241901], [-123.11084957381682, 49.245386558122455], [-123.11086551978813, 49.24539630265095], [-123.11088171263432, 49.24540584904514], [-123.1108981661553, 49.24541522427735], [-123.11091486655108, 49.24542440137502], [-123.11093180008203, 49.245433380351265], [-123.11094898052792, 49.245442179183186], [-123.11096638034915, 49.24545077091145], [-123.11098401330533, 49.245459164517946], [-123.11100187937616, 49.245467351007356], [-123.11101995110262, 49.24547533940121], [-123.11103822844426, 49.245483111709], [-123.11105671142106, 49.2454906769258], [-123.11107540003292, 49.24549803505154], [-123.1110942667804, 49.245505177117316], [-123.11111333914242, 49.24551210309663], [-123.1111325896195, 49.24551880402058], [-123.11115200449208, 49.24552528889753], [-123.11117159745916, 49.245531539723736], [-123.11119135482133, 49.24553757450276], [-123.11121126281866, 49.245543384252535], [-123.11123133519045, 49.245548968959774], [-123.11125154443714, 49.2455543196556], [-123.11127190429805, 49.24555943632673], [-123.11129238729377, 49.245564318999556], [-123.1113129934241, 49.24556896767401], [-123.11133372268871, 49.24557338235004], [-123.1113545750874, 49.245577563027545], [-123.11137552312046, 49.245581500737785], [-123.11139658052721, 49.24558519546743], [-123.111417733588, 49.245588656224875], [-123.1114389822823, 49.245591874014885], [-123.1114602991104, 49.24559483986868], [-123.11148169785207, 49.245597571763405], [-123.11150317846653, 49.24560005170859], [-123.11152469975495, 49.24560228873919], [-123.11154628919617, 49.245604282828644], [-123.11156793303003, 49.24560602499498], [-123.11158961751663, 49.24560751525141], [-123.11161132895656, 49.24560877160165], [-123.11163308102832, 49.24560976704676], [-123.11165484629291, 49.24561051960369], [-123.11167663846932, 49.24561102026394], [-123.11233775194162, 49.245618780856255]], "type": "LineString"}, "properties": {"from_hundred_block": "200", "std_street": "NIGEL AV", "geo_point_2d": {"lon": -123.1114412606641, "lat": 49.245525547003645}}}, {"type": "Feature", "geometry": {"coordinates": [[-123.11608414573419, 49.249531870878755], [-123.1184068493077, 49.24957234900465]], "type": "LineString"}, "properties": {"from_hundred_block": "500", "std_street": "W 24TH AV", "geo_point_2d": {"lon": -123.11724549752094, "lat": 49.2495521099417}}}, {"type": "Feature", "geometry": {"coordinates": [[-123.12224737777652, 49.25117325956394], [-123.1239473883154, 49.25120932714492]], "type": "LineString"}, "properties": {"from_hundred_block": "800", "std_street": "W 22ND AV", "geo_point_2d": {"lon": -123.12309738304596, "lat": 49.25119129335443}}}, {"type": "Feature", "geometry": {"coordinates": [[-123.12098383361378, 49.25069435247998], [-123.12101032412424, 49.25009189637181]], "type": "LineString"}, "properties": {"from_hundred_block": "3900", "std_street": "WILLOW ST", "geo_point_2d": {"lon": -123.120997078869, "lat": 49.2503931244259}}}, {"type": "Feature", "geometry": {"coordinates": [[-123.12826561332375, 49.249243051344365], [-123.12828674240743, 49.24862102572188]], "type": "LineString"}, "properties": {"from_hundred_block": "4100", "std_street": "OSLER ST", "geo_point_2d": {"lon": -123.12827617786559, "lat": 49.24893203853313}}}, {"type": "Feature", "geometry": {"coordinates": [[-123.11662579185584, 49.24568791483141], [-123.11665077167092, 49.24520429679048]], "type": "LineString"}, "properties": {"from_hundred_block": "4400", "std_street": "ASH ST", "geo_point_2d": {"lon": -123.11663828176339, "lat": 49.24544610581094}}}, {"type": "Feature", "geometry": {"coordinates": [[-123.10442033168361, 49.248068323806464], [-123.10444888762733, 49.247301409589916]], "type": "LineString"}, "properties": {"from_hundred_block": "4200", "std_street": "ONTARIO ST", "geo_point_2d": {"lon": -123.10443460965547, "lat": 49.247684866698194}}}, {"type": "Feature", "geometry": {"coordinates": [[-123.10446424624391, 49.24690931154307], [-123.1044921422957, 49.24603215217804]], "type": "LineString"}, "properties": {"from_hundred_block": "4300", "std_street": "ONTARIO ST", "geo_point_2d": {"lon": -123.1044781942698, "lat": 49.246470731860555}}}, {"type": "Feature", "geometry": {"coordinates": [[-123.11659652228113, 49.24659061608425], [-123.11852219439197, 49.246618412820986]], "type": "LineString"}, "properties": {"from_hundred_block": "500", "std_street": "W 27TH AV", "geo_point_2d": {"lon": -123.11755935833655, "lat": 49.24660451445261}}}, {"type": "Feature", "geometry": {"coordinates": [[-123.12828674240743, 49.24862102572188], [-123.12830234288808, 49.24816164894535]], "type": "LineString"}, "properties": {"from_hundred_block": "4100", "std_street": "OSLER ST", "geo_point_2d": {"lon": -123.12829454264775, "lat": 49.248391337333615}}}, {"type": "Feature", "geometry": {"coordinates": [[-123.11961209502824, 49.251570962325715], [-123.1196328947641, 49.251119830217235]], "type": "LineString"}, "properties": {"from_hundred_block": "3800", "std_street": "HEATHER ST", "geo_point_2d": {"lon": -123.11962249489616, "lat": 49.251345396271475}}}, {"type": "Feature", "geometry": {"coordinates": [[-123.11964931170702, 49.25066909839857], [-123.1196704376048, 49.25006895093325]], "type": "LineString"}, "properties": {"from_hundred_block": "3900", "std_street": "HEATHER ST", "geo_point_2d": {"lon": -123.11965987465591, "lat": 49.25036902466591}}}, {"type": "Feature", "geometry": {"coordinates": [[-123.11822217100585, 49.254709809767895], [-123.12016506219291, 49.25474870662266]], "type": "LineString"}, "properties": {"from_hundred_block": "600", "std_street": "W 18TH AV", "geo_point_2d": {"lon": -123.11919361659938, "lat": 49.254729258195276}}}, {"type": "Feature", "geometry": {"coordinates": [[-123.12447769081523, 49.254833859014475], [-123.12658788006723, 49.25487449141846]], "type": "LineString"}, "properties": {"from_hundred_block": "900", "std_street": "W 18TH AV", "geo_point_2d": {"lon": -123.12553278544125, "lat": 49.254854175216465}}}, {"type": "Feature", "geometry": {"coordinates": [[-123.12674415503632, 49.25216344780562], [-123.12676249700912, 49.25171152555883]], "type": "LineString"}, "properties": {"from_hundred_block": "3700", "std_street": "OAK ST", "geo_point_2d": {"lon": -123.12675332602272, "lat": 49.25193748668222}}}, {"type": "Feature", "geometry": {"coordinates": [[-123.1239473883154, 49.25120932714492], [-123.12396701005996, 49.25075357193427]], "type": "LineString"}, "properties": {"from_hundred_block": "3800", "std_street": "LAUREL ST", "geo_point_2d": {"lon": -123.12395719918769, "lat": 49.250981449539594}}}, {"type": "Feature", "geometry": {"coordinates": [[-123.10446424624391, 49.24690931154307], [-123.10390319542701, 49.24689992273563]], "type": "LineString"}, "properties": {"from_hundred_block": "0", "std_street": "E 27TH AV", "geo_point_2d": {"lon": -123.10418372083545, "lat": 49.24690461713935}}}, {"type": "Feature", "geometry": {"coordinates": [[-123.10581241629423, 49.24606821775127], [-123.10582792772578, 49.24557283601853]], "type": "LineString"}, "properties": {"from_hundred_block": "0", "std_street": "PEVERIL AV", "geo_point_2d": {"lon": -123.10582017201, "lat": 49.2458205268849}}}, {"type": "Feature", "geometry": {"coordinates": [[-123.11655606825465, 49.247505445048965], [-123.1165724622876, 49.24704524143459]], "type": "LineString"}, "properties": {"from_hundred_block": "4200", "std_street": "ASH ST", "geo_point_2d": {"lon": -123.11656426527114, "lat": 49.24727534324178}}}, {"type": "Feature", "geometry": {"coordinates": [[-123.10985113532224, 49.25336422848378], [-123.1126394057914, 49.25341637860025]], "type": "LineString"}, "properties": {"from_hundred_block": "200", "std_street": "W 19TH AV", "geo_point_2d": {"lon": -123.11124527055682, "lat": 49.25339030354202}}}, {"type": "Feature", "geometry": {"coordinates": [[-123.11860346578995, 49.244753995088054], [-123.12052138543201, 49.244786668854424]], "type": "LineString"}, "properties": {"from_hundred_block": "600", "std_street": "W 29TH AV", "geo_point_2d": {"lon": -123.11956242561098, "lat": 49.24477033197124}}}, {"type": "Feature", "geometry": {"coordinates": [[-123.1181844349898, 49.25561347216893], [-123.12013123557158, 49.25565178990266]], "type": "LineString"}, "properties": {"from_hundred_block": "600", "std_street": "W 17TH AV", "geo_point_2d": {"lon": -123.11915783528069, "lat": 49.255632631035795}}}, {"type": "Feature", "geometry": {"coordinates": [[-123.11465756182383, 49.250097530140025], [-123.11467966438222, 49.249572672635466]], "type": "LineString"}, "properties": {"from_hundred_block": "4000", "std_street": "CAMBIE ST", "geo_point_2d": {"lon": -123.114668613103, "lat": 49.249835101387745}}}, {"type": "Feature", "geometry": {"coordinates": [[-123.11259761909444, 49.254365846967204], [-123.11448606640678, 49.2544015821261]], "type": "LineString"}, "properties": {"from_hundred_block": "400", "std_street": "W 18TH AV", "geo_point_2d": {"lon": -123.1135418427506, "lat": 49.25438371454665}}}, {"type": "Feature", "geometry": {"coordinates": [[-123.11923026160953, 49.242690274159216], [-123.11924970160412, 49.24218799589127]], "type": "LineString"}, "properties": {"from_hundred_block": "4700", "std_street": "HEATHER ST", "geo_point_2d": {"lon": -123.11923998160682, "lat": 49.24243913502524}}}, {"type": "Feature", "geometry": {"coordinates": [[-123.10721264238187, 49.25426391742089], [-123.10980932157419, 49.2543132011263]], "type": "LineString"}, "properties": {"from_hundred_block": "100", "std_street": "W 18TH AV", "geo_point_2d": {"lon": -123.10851098197804, "lat": 49.25428855927359}}}, {"type": "Feature", "geometry": {"coordinates": [[-123.12377950714021, 49.25572492900026], [-123.12379598161102, 49.25527325238388]], "type": "LineString"}, "properties": {"from_hundred_block": "3300", "std_street": "LAUREL ST", "geo_point_2d": {"lon": -123.12378774437562, "lat": 49.25549909069207}}}, {"type": "Feature", "geometry": {"coordinates": [[-123.12096737716702, 49.25114644281007], [-123.12224737777652, 49.25117325956394]], "type": "LineString"}, "properties": {"from_hundred_block": "700", "std_street": "W 22ND AV", "geo_point_2d": {"lon": -123.12160737747178, "lat": 49.251159851187005}}}, {"type": "Feature", "geometry": {"coordinates": [[-123.12462765374065, 49.25122352740799], [-123.12505947491557, 49.2512307247201]], "type": "LineString"}, "properties": {"from_hundred_block": "900", "std_street": "W 22ND AV", "geo_point_2d": {"lon": -123.1248435643281, "lat": 49.251227126064045}}}, {"type": "Feature", "geometry": {"coordinates": [[-123.12458867783536, 49.25212760759866], [-123.12674415503632, 49.25216344780562]], "type": "LineString"}, "properties": {"from_hundred_block": "900", "std_street": "W 21ST AV", "geo_point_2d": {"lon": -123.12566641643585, "lat": 49.25214552770214}}}, {"type": "Feature", "geometry": {"coordinates": [[-123.11825362699365, 49.25380672033913], [-123.12019891234162, 49.25384448976813]], "type": "LineString"}, "properties": {"from_hundred_block": "600", "std_street": "W 19TH AV", "geo_point_2d": {"lon": -123.11922626966764, "lat": 49.25382560505363}}}, {"type": "Feature", "geometry": {"coordinates": [[-123.11280904566594, 49.24953757990193], [-123.11467966438222, 49.249572672635466]], "type": "LineString"}, "properties": {"from_hundred_block": "400", "std_street": "W 23RD AV", "geo_point_2d": {"lon": -123.11374435502408, "lat": 49.2495551262687}}}, {"type": "Feature", "geometry": {"coordinates": [[-123.10980932157419, 49.2543132011263], [-123.11259761909444, 49.254365846967204]], "type": "LineString"}, "properties": {"from_hundred_block": "200", "std_street": "W 18TH AV", "geo_point_2d": {"lon": -123.1112034703343, "lat": 49.254339524046756}}}, {"type": "Feature", "geometry": {"coordinates": [[-123.12241499431656, 49.24668342801769], [-123.12449155311512, 49.24671730692006]], "type": "LineString"}, "properties": {"from_hundred_block": "800", "std_street": "W 27TH AV", "geo_point_2d": {"lon": -123.12345327371585, "lat": 49.246700367468875}}}, {"type": "Feature", "geometry": {"coordinates": [[-123.1160847072594, 49.25196319009625], [-123.11831881104861, 49.25199818195373]], "type": "LineString"}, "properties": {"from_hundred_block": "500", "std_street": "W 21ST AV", "geo_point_2d": {"lon": -123.117201759154, "lat": 49.25198068602499}}}, {"type": "Feature", "geometry": {"coordinates": [[-123.10428513226631, 49.25140440703711], [-123.1043016031564, 49.25099770903716]], "type": "LineString"}, "properties": {"from_hundred_block": "3700", "std_street": "ONTARIO ST", "geo_point_2d": {"lon": -123.10429336771136, "lat": 49.25120105803713}}}, {"type": "Feature", "geometry": {"coordinates": [[-123.10687738551604, 49.24649517667085], [-123.10732885925452, 49.24689236539521]], "type": "LineString"}, "properties": {"from_hundred_block": "100", "std_street": "PEVERIL AV", "geo_point_2d": {"lon": -123.10710312238527, "lat": 49.24669377103303}}}, {"type": "Feature", "geometry": {"coordinates": [[-123.10509152597336, 49.24645997049999], [-123.10687738551604, 49.24649517667085]], "type": "LineString"}, "properties": {"from_hundred_block": "0", "std_street": "W 27TH AV", "geo_point_2d": {"lon": -123.1059844557447, "lat": 49.24647757358542}}}, {"type": "Feature", "geometry": {"coordinates": [[-123.10496495375223, 49.24938937337185], [-123.10742526792778, 49.24943609090834]], "type": "LineString"}, "properties": {"from_hundred_block": "0", "std_street": "W 23RD AV", "geo_point_2d": {"lon": -123.10619511084, "lat": 49.249412732140094}}}, {"type": "Feature", "geometry": {"coordinates": [[-123.11457467575896, 49.25205054788644], [-123.1145944761119, 49.25159892298833]], "type": "LineString"}, "properties": {"from_hundred_block": "3700", "std_street": "CAMBIE ST", "geo_point_2d": {"lon": -123.11458457593542, "lat": 49.25182473543738}}}, {"type": "Feature", "geometry": {"coordinates": [[-123.12035257696996, 49.24960610350506], [-123.12230676494649, 49.249637162688465]], "type": "LineString"}, "properties": {"from_hundred_block": "700", "std_street": "W 24TH AV", "geo_point_2d": {"lon": -123.12132967095823, "lat": 49.249621633096766}}}, {"type": "Feature", "geometry": {"coordinates": [[-123.12449155311512, 49.24671730692006], [-123.12450628103011, 49.24625777853497]], "type": "LineString"}, "properties": {"from_hundred_block": "4300", "std_street": "OAK ST", "geo_point_2d": {"lon": -123.12449891707261, "lat": 49.246487542727515}}}, {"type": "Feature", "geometry": {"coordinates": [[-123.10993345610453, 49.25151114311321], [-123.11272100370623, 49.2515631929919]], "type": "LineString"}, "properties": {"from_hundred_block": "200", "std_street": "W 21ST AV", "geo_point_2d": {"lon": -123.11132722990537, "lat": 49.25153716805255}}}, {"type": "Feature", "geometry": {"coordinates": [[-123.12833359537795, 49.24724189674754], [-123.12834928506138, 49.246780154008775]], "type": "LineString"}, "properties": {"from_hundred_block": "4300", "std_street": "OSLER ST", "geo_point_2d": {"lon": -123.12834144021966, "lat": 49.24701102537816}}}, {"type": "Feature", "geometry": {"coordinates": [[-123.11651845706031, 49.24842612688132], [-123.1184497226112, 49.24845901948986]], "type": "LineString"}, "properties": {"from_hundred_block": "500", "std_street": "W KING EDWARD AV", "geo_point_2d": {"lon": -123.11748408983576, "lat": 49.248442573185585}}}, {"type": "Feature", "geometry": {"coordinates": [[-123.11230662151836, 49.246498778854665], [-123.11442153943612, 49.24653791075198]], "type": "LineString"}, "properties": {"from_hundred_block": "400", "std_street": "W 27TH AV", "geo_point_2d": {"lon": -123.11336408047725, "lat": 49.24651834480332}}}, {"type": "Feature", "geometry": {"coordinates": [[-123.1165724622876, 49.24704524143459], [-123.11659652228113, 49.24659061608425]], "type": "LineString"}, "properties": {"from_hundred_block": "4300", "std_street": "ASH ST", "geo_point_2d": {"lon": -123.11658449228437, "lat": 49.24681792875941}}}, {"type": "Feature", "geometry": {"coordinates": [[-123.11111649788945, 49.256274879074844], [-123.11251009709747, 49.2563011636899]], "type": "LineString"}, "properties": {"from_hundred_block": "300", "std_street": "W 16TH AV", "geo_point_2d": {"lon": -123.11181329749346, "lat": 49.256288021382375}}}, {"type": "Feature", "geometry": {"coordinates": [[-123.11852219439197, 49.246618412820986], [-123.1204601100537, 49.24665148987342]], "type": "LineString"}, "properties": {"from_hundred_block": "600", "std_street": "W 27TH AV", "geo_point_2d": {"lon": -123.11949115222284, "lat": 49.246634951347204}}}, {"type": "Feature", "geometry": {"coordinates": [[-123.12292937500891, 49.2507342255145], [-123.12295214312336, 49.25012525137937]], "type": "LineString"}, "properties": {"from_hundred_block": "3900", "std_street": "LAUREL ST", "geo_point_2d": {"lon": -123.12294075906614, "lat": 49.25042973844694}}}, {"type": "Feature", "geometry": {"coordinates": [[-123.11639315281411, 49.25736046178724], [-123.11641162098213, 49.25693876541977]], "type": "LineString"}, "properties": {"from_hundred_block": "3100", "std_street": "W 16TH AV", "geo_point_2d": {"lon": -123.11640238689813, "lat": 49.257149613603495}}}, {"type": "Feature", "geometry": {"coordinates": [[-123.12505947491557, 49.2512307247201], [-123.12507896110249, 49.25077431281464]], "type": "LineString"}, "properties": {"from_hundred_block": "3800", "std_street": "OAK ST", "geo_point_2d": {"lon": -123.12506921800903, "lat": 49.25100251876737}}}, {"type": "Feature", "geometry": {"coordinates": [[-123.11651845706031, 49.24842612688132], [-123.1165373393103, 49.24796617270276]], "type": "LineString"}, "properties": {"from_hundred_block": "4100", "std_street": "ASH ST", "geo_point_2d": {"lon": -123.1165278981853, "lat": 49.24819614979204}}}, {"type": "Feature", "geometry": {"coordinates": [[-123.11221499417924, 49.24842242618477], [-123.11433702478634, 49.24845960975826]], "type": "LineString"}, "properties": {"from_hundred_block": "400", "std_street": "W KING EDWARD AV", "geo_point_2d": {"lon": -123.1132760094828, "lat": 49.248441017971516}}}, {"type": "Feature", "geometry": {"coordinates": [[-123.11814900881164, 49.25651814851279], [-123.1194336467766, 49.2565418163972]], "type": "LineString"}, "properties": {"from_hundred_block": "600", "std_street": "W 16TH AV", "geo_point_2d": {"lon": -123.11879132779413, "lat": 49.25652998245499}}}, {"type": "Feature", "geometry": {"coordinates": [[-123.11455885602004, 49.252482595191786], [-123.11457467575896, 49.25205054788644]], "type": "LineString"}, "properties": {"from_hundred_block": "3600", "std_street": "CAMBIE ST", "geo_point_2d": {"lon": -123.11456676588949, "lat": 49.25226657153911}}}, {"type": "Feature", "geometry": {"coordinates": [[-123.1145054691239, 49.25394959801352], [-123.1145264841685, 49.25345220438215]], "type": "LineString"}, "properties": {"from_hundred_block": "3500", "std_street": "CAMBIE ST", "geo_point_2d": {"lon": -123.1145159766462, "lat": 49.25370090119783}}}, {"type": "Feature", "geometry": {"coordinates": [[-123.1144254144991, 49.25584270338014], [-123.11444606623283, 49.2553479728723]], "type": "LineString"}, "properties": {"from_hundred_block": "3300", "std_street": "CAMBIE ST", "geo_point_2d": {"lon": -123.11443574036596, "lat": 49.25559533812622}}}, {"type": "Feature", "geometry": {"coordinates": [[-123.11602919545602, 49.253764620267766], [-123.11825362699365, 49.25380672033913]], "type": "LineString"}, "properties": {"from_hundred_block": "500", "std_street": "W 19TH AV", "geo_point_2d": {"lon": -123.11714141122485, "lat": 49.253785670303444}}}, {"type": "Feature", "geometry": {"coordinates": [[-123.12828674240743, 49.24862102572188], [-123.12916887644636, 49.24863541567637]], "type": "LineString"}, "properties": {"from_hundred_block": "1000", "std_street": "W KING EDWARD AV", "geo_point_2d": {"lon": -123.12872780942688, "lat": 49.248628220699125}}}, {"type": "Feature", "geometry": {"coordinates": [[-123.11662579185584, 49.24568791483141], [-123.11855847650696, 49.24572111001529]], "type": "LineString"}, "properties": {"from_hundred_block": "500", "std_street": "W 28TH AV", "geo_point_2d": {"lon": -123.1175921341814, "lat": 49.245704512423345}}}, {"type": "Feature", "geometry": {"coordinates": [[-123.11608414573419, 49.249531870878755], [-123.1161068416539, 49.249002919620104]], "type": "LineString"}, "properties": {"from_hundred_block": "4000", "std_street": "ASH ST", "geo_point_2d": {"lon": -123.11609549369403, "lat": 49.24926739524943}}}, {"type": "Feature", "geometry": {"coordinates": [[-123.10742526792778, 49.24943609090834], [-123.11002166562743, 49.24948492032214]], "type": "LineString"}, "properties": {"from_hundred_block": "100", "std_street": "W 23RD AV", "geo_point_2d": {"lon": -123.10872346677762, "lat": 49.24946050561525}}}, {"type": "Feature", "geometry": {"coordinates": [[-123.1146354167087, 49.25062200983502], [-123.11465756182383, 49.250097530140025]], "type": "LineString"}, "properties": {"from_hundred_block": "3800", "std_street": "CAMBIE ST", "geo_point_2d": {"lon": -123.11464648926625, "lat": 49.250359769987526}}}, {"type": "Feature", "geometry": {"coordinates": [[-123.11461342309852, 49.25114684014133], [-123.1146354167087, 49.25062200983502]], "type": "LineString"}, "properties": {"from_hundred_block": "3800", "std_street": "CAMBIE ST", "geo_point_2d": {"lon": -123.1146244199036, "lat": 49.25088442498817}}}, {"type": "Feature", "geometry": {"coordinates": [[-123.11448606640678, 49.2544015821261], [-123.1145054691239, 49.25394959801352]], "type": "LineString"}, "properties": {"from_hundred_block": "3400", "std_street": "CAMBIE ST", "geo_point_2d": {"lon": -123.11449576776533, "lat": 49.254175590069806}}}, {"type": "Feature", "geometry": {"coordinates": [[-123.12746567739721, 49.25132027813251], [-123.12976952779007, 49.251356509773935]], "type": "LineString"}, "properties": {"from_hundred_block": "1000", "std_street": "BALFOUR AV", "geo_point_2d": {"lon": -123.12861760259364, "lat": 49.25133839395322}}}, {"type": "Feature", "geometry": {"coordinates": [[-123.1168119654227, 49.25107005876073], [-123.11682847357439, 49.25061798696468]], "type": "LineString"}, "properties": {"from_hundred_block": "3800", "std_street": "HEATHER ST", "geo_point_2d": {"lon": -123.11682021949855, "lat": 49.25084402286271}}}, {"type": "Feature", "geometry": {"coordinates": [[-123.11268183499597, 49.252448019464545], [-123.11455885602004, 49.252482595191786]], "type": "LineString"}, "properties": {"from_hundred_block": "400", "std_street": "W 20TH AV", "geo_point_2d": {"lon": -123.113620345508, "lat": 49.252465307328166}}}, {"type": "Feature", "geometry": {"coordinates": [[-123.1165373393103, 49.24796617270276], [-123.11655606825465, 49.247505445048965]], "type": "LineString"}, "properties": {"from_hundred_block": "4200", "std_street": "ASH ST", "geo_point_2d": {"lon": -123.11654670378248, "lat": 49.24773580887586}}}, {"type": "Feature", "geometry": {"coordinates": [[-123.1143611176052, 49.24792673544538], [-123.11438184561032, 49.247466114110004]], "type": "LineString"}, "properties": {"from_hundred_block": "4200", "std_street": "CAMBIE ST", "geo_point_2d": {"lon": -123.11437148160776, "lat": 49.24769642477769}}}, {"type": "Feature", "geometry": {"coordinates": [[-123.12833213336205, 49.25000176101223], [-123.12836147194211, 49.249244573017066]], "type": "LineString"}, "properties": {"from_hundred_block": "3900", "std_street": "OSLER ST", "geo_point_2d": {"lon": -123.12834680265209, "lat": 49.24962316701465}}}, {"type": "Feature", "geometry": {"coordinates": [[-123.11957911479249, 49.25247505252991], [-123.11959558433652, 49.25202296249197]], "type": "LineString"}, "properties": {"from_hundred_block": "3700", "std_street": "HEATHER ST", "geo_point_2d": {"lon": -123.11958734956451, "lat": 49.25224900751094}}}, {"type": "Feature", "geometry": {"coordinates": [[-123.11440379006856, 49.24700288291194], [-123.11442153943612, 49.24653791075198]], "type": "LineString"}, "properties": {"from_hundred_block": "4300", "std_street": "CAMBIE ST", "geo_point_2d": {"lon": -123.11441266475234, "lat": 49.24677039683196}}}, {"type": "Feature", "geometry": {"coordinates": [[-123.12019891234162, 49.25384448976813], [-123.12214639396932, 49.25388563331154]], "type": "LineString"}, "properties": {"from_hundred_block": "700", "std_street": "W 19TH AV", "geo_point_2d": {"lon": -123.12117265315547, "lat": 49.253865061539834}}}, {"type": "Feature", "geometry": {"coordinates": [[-123.12670665972017, 49.25306743699706], [-123.12672498882017, 49.252615595798595]], "type": "LineString"}, "properties": {"from_hundred_block": "3600", "std_street": "OAK ST", "geo_point_2d": {"lon": -123.12671582427018, "lat": 49.25284151639782}}}, {"type": "Feature", "geometry": {"coordinates": [[-123.12674415503632, 49.25216344780562], [-123.12743028105261, 49.25217485460951]], "type": "LineString"}, "properties": {"from_hundred_block": "900", "std_street": "W 21ST AV", "geo_point_2d": {"lon": -123.12708721804447, "lat": 49.252169151207575}}}, {"type": "Feature", "geometry": {"coordinates": [[-123.11233775194162, 49.245618780856255], [-123.11445516487599, 49.245659852679104]], "type": "LineString"}, "properties": {"from_hundred_block": "400", "std_street": "W 28TH AV", "geo_point_2d": {"lon": -123.11339645840879, "lat": 49.24563931676768}}}, {"type": "Feature", "geometry": {"coordinates": [[-123.11467966438222, 49.249572672635466], [-123.11470458703292, 49.24897825217147]], "type": "LineString"}, "properties": {"from_hundred_block": "4000", "std_street": "CAMBIE ST", "geo_point_2d": {"lon": -123.11469212570755, "lat": 49.24927546240347}}}, {"type": "Feature", "geometry": {"coordinates": [[-123.12831799550722, 49.24770129159174], [-123.12920216031331, 49.247715625062774]], "type": "LineString"}, "properties": {"from_hundred_block": "1000", "std_street": "W 26TH AV", "geo_point_2d": {"lon": -123.12876007791027, "lat": 49.24770845832725}}}, {"type": "Feature", "geometry": {"coordinates": [[-123.11442153943612, 49.24653791075198], [-123.1144401170223, 49.246086628477]], "type": "LineString"}, "properties": {"from_hundred_block": "4300", "std_street": "CAMBIE ST", "geo_point_2d": {"lon": -123.11443082822922, "lat": 49.24631226961449}}}, {"type": "Feature", "geometry": {"coordinates": [[-123.10747094361403, 49.248341688860926], [-123.11006856318356, 49.2483849480323]], "type": "LineString"}, "properties": {"from_hundred_block": "100", "std_street": "W KING EDWARD AV", "geo_point_2d": {"lon": -123.1087697533988, "lat": 49.248363318446614}}}, {"type": "Feature", "geometry": {"coordinates": [[-123.11786317367553, 49.244095878619554], [-123.11798198956843, 49.24404942287546], [-123.11845241130543, 49.2437874949329], [-123.11877961494125, 49.243795920345995]], "type": "LineString"}, "properties": {"from_hundred_block": "500", "std_street": "W 30TH AV", "geo_point_2d": {"lon": -123.11831077640744, "lat": 49.24389649582845}}}, {"type": "Feature", "geometry": {"coordinates": [[-123.11272100370623, 49.2515631929919], [-123.1145944761119, 49.25159892298833]], "type": "LineString"}, "properties": {"from_hundred_block": "400", "std_street": "W 21ST AV", "geo_point_2d": {"lon": -123.11365773990906, "lat": 49.25158105799012}}}, {"type": "Feature", "geometry": {"coordinates": [[-123.11251009709747, 49.2563011636899], [-123.1144040054385, 49.256336966840195]], "type": "LineString"}, "properties": {"from_hundred_block": "400", "std_street": "W 16TH AV", "geo_point_2d": {"lon": -123.11345705126799, "lat": 49.256319065265046}}}, {"type": "Feature", "geometry": {"coordinates": [[-123.11599842975203, 49.25466877882519], [-123.11822217100585, 49.254709809767895]], "type": "LineString"}, "properties": {"from_hundred_block": "500", "std_street": "W 18TH AV", "geo_point_2d": {"lon": -123.11711030037894, "lat": 49.25468929429654}}}, {"type": "Feature", "geometry": {"coordinates": [[-123.11923026160953, 49.242690274159216], [-123.12059126043012, 49.24273712098484]], "type": "LineString"}, "properties": {"from_hundred_block": "600", "std_street": "W 31ST AV", "geo_point_2d": {"lon": -123.11991076101982, "lat": 49.24271369757203}}}, {"type": "Feature", "geometry": {"coordinates": [[-123.1196328947641, 49.251119830217235], [-123.11964931170702, 49.25066909839857]], "type": "LineString"}, "properties": {"from_hundred_block": "3800", "std_street": "HEATHER ST", "geo_point_2d": {"lon": -123.11964110323555, "lat": 49.250894464307905}}}, {"type": "Feature", "geometry": {"coordinates": [[-123.1194336467766, 49.2565418163972], [-123.119451204897, 49.25608985150807]], "type": "LineString"}, "properties": {"from_hundred_block": "3200", "std_street": "HEATHER ST", "geo_point_2d": {"lon": -123.11944242583681, "lat": 49.25631583395264}}}, {"type": "Feature", "geometry": {"coordinates": [[-123.12079719952307, 49.25566574874236], [-123.12081360738514, 49.25521505310255]], "type": "LineString"}, "properties": {"from_hundred_block": "3300", "std_street": "WILLOW ST", "geo_point_2d": {"lon": -123.12080540345411, "lat": 49.25544040092245}}}, {"type": "Feature", "geometry": {"coordinates": [[-123.1245107612851, 49.25393505685236], [-123.12663876145267, 49.2539696962993]], "type": "LineString"}, "properties": {"from_hundred_block": "900", "std_street": "W 19TH AV", "geo_point_2d": {"lon": -123.1255747613689, "lat": 49.25395237657583}}}, {"type": "Feature", "geometry": {"coordinates": [[-123.10474738871845, 49.254217208813074], [-123.10721264238187, 49.25426391742089]], "type": "LineString"}, "properties": {"from_hundred_block": "0", "std_street": "W 18TH AV", "geo_point_2d": {"lon": -123.10598001555017, "lat": 49.25424056311698}}}, {"type": "Feature", "geometry": {"coordinates": [[-123.1098942648146, 49.25239584272491], [-123.11268183499597, 49.252448019464545]], "type": "LineString"}, "properties": {"from_hundred_block": "200", "std_street": "W 20TH AV", "geo_point_2d": {"lon": -123.11128804990528, "lat": 49.25242193109473}}}, {"type": "Feature", "geometry": {"coordinates": [[-123.10729702652232, 49.252346561455546], [-123.1098942648146, 49.25239584272491]], "type": "LineString"}, "properties": {"from_hundred_block": "100", "std_street": "W 20TH AV", "geo_point_2d": {"lon": -123.10859564566846, "lat": 49.25237120209023}}}]}