{"type": "FeatureCollection", "features": [{"type": "Feature", "geometry": {"coordinates": [[-123.1249326165948, 49.24822491744451], [-123.12608505798056, 49.24824523603826]], "type": "LineString"}, "properties": {"label": "10'   EASEMENT", "geo_point_2d": {"lon": -123.12550883728768, "lat": 49.24823507674138}}}, {"type": "Feature", "geometry": {"coordinates": [[-123.11663847550233, 49.25713232957361], [-123.11664222795667, 49.257033468354265]], "type": "LineString"}, "properties": {"label": "EASE.", "geo_point_2d": {"lon": -123.1166403517295, "lat": 49.25708289896394}}}, {"type": "Feature", "geometry": {"coordinates": [[-123.11489411777814, 49.25615175469669], [-123.11489796302845, 49.25606179869174]], "type": "LineString"}, "properties": {"label": "R.O.W.", "geo_point_2d": {"lon": -123.11489604040328, "lat": 49.25610677669421}}}, {"type": "Feature", "geometry": {"coordinates": [[-123.11489796302845, 49.25606179869174], [-123.11490303430577, 49.2559435155234]], "type": "LineString"}, "properties": {"label": null, "geo_point_2d": {"lon": -123.11490049866711, "lat": 49.25600265710757}}}, {"type": "Feature", "geometry": {"coordinates": [[-123.12583482231011, 49.24936045863245], [-123.12562908950241, 49.2495037066711]], "type": "LineString"}, "properties": {"label": null, "geo_point_2d": {"lon": -123.12573195590626, "lat": 49.24943208265178}}}, {"type": "Feature", "geometry": {"coordinates": [[-123.12230902568814, 49.25237671947188], [-123.12230902235468, 49.252375370191764]], "type": "LineString"}, "properties": {"label": "SEWER R.O.W.  -LE13063", "geo_point_2d": {"lon": -123.12230902402139, "lat": 49.25237604483182}}}, {"type": "Feature", "geometry": {"coordinates": [[-123.11665119180415, 49.25733820824391], [-123.1166572786941, 49.257180255093736], [-123.11672146035158, 49.25718135964992], [-123.1167254964084, 49.25708627613316], [-123.11761455754335, 49.257102537376646], [-123.1176037545728, 49.257356573286536], [-123.1175199193211, 49.25735503945223], [-123.11752825469176, 49.25716127401174], [-123.1168151083759, 49.25714825255897], [-123.11681158950834, 49.257229482921694], [-123.11683660271243, 49.25722999734276], [-123.11683163965725, 49.257339824957945], [-123.11672402805537, 49.257337774873534], [-123.11672584007404, 49.25729028729605], [-123.11666192867976, 49.25728729347396], [-123.11665998765153, 49.25733837926722], [-123.11665119180415, 49.25733820824391]], "type": "LineString"}, "properties": {"label": null, "geo_point_2d": {"lon": -123.11712269875639, "lat": 49.25718294314727}}}, {"type": "Feature", "geometry": {"coordinates": [[-123.12608520353183, 49.2482376439045], [-123.12606967813406, 49.24861047717712], [-123.1260651435659, 49.248610392172914], [-123.12606816094326, 49.24853806722776], [-123.12605621991602, 49.24853783738601], [-123.12606571050068, 49.24830958204763], [-123.12606914574553, 49.248309641265706], [-123.1260721633286, 49.24823740626875], [-123.12608520353183, 49.2482376439045]], "type": "LineString"}, "properties": {"label": "EASE.", "geo_point_2d": {"lon": -123.12607066340647, "lat": 49.24842314453214}}}, {"type": "Feature", "geometry": {"coordinates": [[-123.11115482245239, 49.255508323680544], [-123.11115063085579, 49.25550824675616], [-123.11114847534421, 49.25555811832302], [-123.11115266694502, 49.255558195247474], [-123.11115482245239, 49.255508323680544]], "type": "LineString"}, "properties": {"label": "EASE.", "geo_point_2d": {"lon": -123.11115164889932, "lat": 49.25553322100277}}}, {"type": "Feature", "geometry": {"coordinates": [[-123.12608505798056, 49.24824523603826], [-123.1270480257114, 49.24826215356088]], "type": "LineString"}, "properties": {"label": "10'   EASEMENT", "geo_point_2d": {"lon": -123.126566541846, "lat": 49.24825369479957}}}, {"type": "Feature", "geometry": {"coordinates": [[-123.12684095196113, 49.2486833578846], [-123.12682674414043, 49.24903733578354]], "type": "LineString"}, "properties": {"label": "10'   EASEMENT", "geo_point_2d": {"lon": -123.12683384805078, "lat": 49.24886034683407}}}, {"type": "Feature", "geometry": {"coordinates": [[-123.12686865393884, 49.24903773953027], [-123.12688552540979, 49.248650926110045]], "type": "LineString"}, "properties": {"label": null, "geo_point_2d": {"lon": -123.1268770896743, "lat": 49.248844332820156}}}, {"type": "Feature", "geometry": {"coordinates": [[-123.12688552540979, 49.248650926110045], [-123.12703638629372, 49.248540118990064]], "type": "LineString"}, "properties": {"label": null, "geo_point_2d": {"lon": -123.12696095585177, "lat": 49.248595522550055}}}, {"type": "Feature", "geometry": {"coordinates": [[-123.12703638629372, 49.248540118990064], [-123.12703056197456, 49.248680001227264]], "type": "LineString"}, "properties": {"label": null, "geo_point_2d": {"lon": -123.12703347413417, "lat": 49.24861006010866}}}, {"type": "Feature", "geometry": {"coordinates": [[-123.12709123962172, 49.24823557009967], [-123.12708085905703, 49.24846855799682]], "type": "LineString"}, "properties": {"label": "10'  EASEMENT", "geo_point_2d": {"lon": -123.12708604933937, "lat": 49.24835206404825}}}, {"type": "Feature", "geometry": {"coordinates": [[-123.1262065481211, 49.24803956235518], [-123.12623082466061, 49.247327113472046]], "type": "LineString"}, "properties": {"label": "10'  B.C.H.   EASE.", "geo_point_2d": {"lon": -123.12621868639086, "lat": 49.24768333791362}}}, {"type": "Feature", "geometry": {"coordinates": [[-123.12623082466061, 49.247327113472046], [-123.12684846939366, 49.24733768101186]], "type": "LineString"}, "properties": {"label": "10' B.C.H. EASE", "geo_point_2d": {"lon": -123.12653964702714, "lat": 49.24733239724195}}}, {"type": "Feature", "geometry": {"coordinates": [[-123.12492970442992, 49.24709794398271], [-123.1249559652065, 49.246358867217964]], "type": "LineString"}, "properties": {"label": "66'   P.U.  EASEMENT", "geo_point_2d": {"lon": -123.12494283481819, "lat": 49.24672840560034}}}, {"type": "Feature", "geometry": {"coordinates": [[-123.12466570952085, 49.24675113909576], [-123.12453091490788, 49.24674884676229]], "type": "LineString"}, "properties": {"label": null, "geo_point_2d": {"lon": -123.12459831221437, "lat": 49.246749992929026}}}, {"type": "Feature", "geometry": {"coordinates": [[-123.1262058576688, 49.248038213824735], [-123.12616463573451, 49.24803780908656]], "type": "LineString"}, "properties": {"label": null, "geo_point_2d": {"lon": -123.12618524670165, "lat": 49.24803801145565}}}, {"type": "Feature", "geometry": {"coordinates": [[-123.12704453108007, 49.2512913006331], [-123.12702360233938, 49.25129095484097], [-123.12701660304603, 49.25145503546017], [-123.12703753187914, 49.251455390248694], [-123.12704453108007, 49.2512913006331]], "type": "LineString"}, "properties": {"label": "5' R.O.W.", "geo_point_2d": {"lon": -123.12703056733771, "lat": 49.25137317035379}}}, {"type": "Feature", "geometry": {"coordinates": [[-123.12778786202406, 49.24941752151477], [-123.12775566425793, 49.24943752653246], [-123.12775655948924, 49.24941703441044], [-123.12778786202406, 49.24941752151477]], "type": "LineString"}, "properties": {"label": "S", "geo_point_2d": {"lon": -123.12776834132552, "lat": 49.24942389332652}}}, {"type": "Feature", "geometry": {"coordinates": [[-123.12707247262631, 49.248680854660584], [-123.12707564511211, 49.24851427749382]], "type": "LineString"}, "properties": {"label": null, "geo_point_2d": {"lon": -123.12707405886921, "lat": 49.2485975660772}}}, {"type": "Feature", "geometry": {"coordinates": [[-123.12707564511211, 49.24851427749382], [-123.12737962588557, 49.2482850680867]], "type": "LineString"}, "properties": {"label": "10' EASEMENT", "geo_point_2d": {"lon": -123.12722763549884, "lat": 49.24839967279025}}}, {"type": "Feature", "geometry": {"coordinates": [[-123.12695564444842, 49.24712954853464], [-123.12687195068109, 49.247128327170834], [-123.12689752991064, 49.24639195827446], [-123.12698123670425, 49.246393386495605], [-123.12695564444842, 49.24712954853464]], "type": "LineString"}, "properties": {"label": "R.O.W.", "geo_point_2d": {"lon": -123.12692658530193, "lat": 49.246760801378976}}}, {"type": "Feature", "geometry": {"coordinates": [[-123.12623075471924, 49.24729967808963], [-123.12618978072065, 49.247299273089645]], "type": "LineString"}, "properties": {"label": null, "geo_point_2d": {"lon": -123.12621026771996, "lat": 49.24729947558964}}}, {"type": "Feature", "geometry": {"coordinates": [[-123.12745787579031, 49.24713685737796], [-123.1274516223515, 49.24731768644264], [-123.12618978081235, 49.24729930907047], [-123.12619594267719, 49.24711848017483], [-123.12745787579031, 49.24713685737796]], "type": "LineString"}, "properties": {"label": "OPTION TO PURCHASE", "geo_point_2d": {"lon": -123.12682380623012, "lat": 49.24721808040842}}}, {"type": "Feature", "geometry": {"coordinates": [[-123.10404511856716, 49.24841831590793], [-123.10405485245082, 49.24815294786049]], "type": "LineString"}, "properties": {"label": null, "geo_point_2d": {"lon": -123.10404998550898, "lat": 49.24828563188421}}}, {"type": "Feature", "geometry": {"coordinates": [[-123.10401362964537, 49.248152085458045], [-123.10400257913061, 49.24844489013762]], "type": "LineString"}, "properties": {"label": "EASE.", "geo_point_2d": {"lon": -123.10400810438797, "lat": 49.24829848779783}}}, {"type": "Feature", "geometry": {"coordinates": [[-123.10726551541683, 49.2429459176716], [-123.10786524057885, 49.243473604631156], [-123.10779807296403, 49.24350632003619], [-123.10719833438155, 49.24297863274349], [-123.10726551541683, 49.2429459176716]], "type": "LineString"}, "properties": {"label": "R.O.W.", "geo_point_2d": {"lon": -123.10753178859152, "lat": 49.24322611706691}}}, {"type": "Feature", "geometry": {"coordinates": [[-123.10884142555939, 49.24299814529387], [-123.10887831717058, 49.24303060133239], [-123.10843300567613, 49.24324750854918], [-123.10836113085378, 49.24323208618773], [-123.10884142555939, 49.24299814529387]], "type": "LineString"}, "properties": {"label": "R.O.W.S", "geo_point_2d": {"lon": -123.10862265640853, "lat": 49.24312906548704}}}, {"type": "Feature", "geometry": {"coordinates": [[-123.12079313793124, 49.24267480695047], [-123.12073395984146, 49.24267274593404], [-123.12073514987296, 49.242636781723164], [-123.12079313793124, 49.24267480695047]], "type": "LineString"}, "properties": {"label": "R.O.W.", "geo_point_2d": {"lon": -123.12075745888558, "lat": 49.24266204024108}}}, {"type": "Feature", "geometry": {"coordinates": [[-123.12736588818578, 49.24621886931799], [-123.12472111129857, 49.246173828170036], [-123.12472329529031, 49.24611902684579], [-123.12728404682169, 49.24616264035352], [-123.1273718640626, 49.243563711858805], [-123.12745551490593, 49.24356660602121], [-123.12742809125157, 49.2443779977177], [-123.12746843155468, 49.24437868182956], [-123.12746795848919, 49.24439239109278], [-123.12742763189104, 49.24439169797039], [-123.12739696456016, 49.24529911726152], [-123.12746245008319, 49.245300232401625], [-123.12746319987006, 49.24531395830393], [-123.12739650520608, 49.24531282650712], [-123.12736588818578, 49.24621886931799]], "type": "LineString"}, "properties": {"label": null, "geo_point_2d": {"lon": -123.12671004715945, "lat": 49.24549756464316}}}, {"type": "Feature", "geometry": {"coordinates": [[-123.10900668110504, 49.243143541434705], [-123.10801302665784, 49.243408457971086], [-123.10800977283873, 49.24340322578487], [-123.10824627172126, 49.243288027305915], [-123.10895587231907, 49.243098838054415], [-123.10900668110504, 49.243143541434705]], "type": "LineString"}, "properties": {"label": "R.O.W.", "geo_point_2d": {"lon": -123.10850765158969, "lat": 49.24325123524386}}}, {"type": "Feature", "geometry": {"coordinates": [[-123.10887831717058, 49.24303060133239], [-123.1081861866588, 49.243367727423525], [-123.10819847924603, 49.24337855517295], [-123.10816541713595, 49.24339465162722], [-123.10815312457159, 49.243383832869526], [-123.10785023968151, 49.243531359065614], [-123.1078133483504, 49.243498893706196], [-123.10884142555939, 49.24299814529387], [-123.10887831717058, 49.24303060133239]], "type": "LineString"}, "properties": {"label": null, "geo_point_2d": {"lon": -123.10834371566094, "lat": 49.24326649272967}}}, {"type": "Feature", "geometry": {"coordinates": [[-123.10887831717058, 49.24303060133239], [-123.10810702427116, 49.24340629214996], [-123.10807013286515, 49.243373826871895], [-123.10884142555939, 49.24299814529387], [-123.10887831717058, 49.24303060133239]], "type": "LineString"}, "properties": {"label": null, "geo_point_2d": {"lon": -123.10847422374485, "lat": 49.243202217065914}}}, {"type": "Feature", "geometry": {"coordinates": [[-123.11694534351683, 49.24477236260385], [-123.11693613043421, 49.244769106658865], [-123.11693862388186, 49.244766090730984], [-123.11694782324594, 49.244769355684895], [-123.11694534351683, 49.24477236260385]], "type": "LineString"}, "properties": {"label": "R.O.W.", "geo_point_2d": {"lon": -123.11694197717861, "lat": 49.24476922853119}}}, {"type": "Feature", "geometry": {"coordinates": [[-123.11677950112617, 49.24497292622262], [-123.1167703017353, 49.244969661255446], [-123.11677279520313, 49.24496664533123], [-123.1167819945936, 49.244969910298224], [-123.11677950112617, 49.24497292622262]], "type": "LineString"}, "properties": {"label": "R.O.W.", "geo_point_2d": {"lon": -123.11677614816452, "lat": 49.24496978577689}}}, {"type": "Feature", "geometry": {"coordinates": [[-123.12763694204556, 49.251296701463986], [-123.12765276241089, 49.250914629727994], [-123.12767069505122, 49.25091482579818], [-123.12765487505615, 49.25129698748852], [-123.12763694204556, 49.251296701463986]], "type": "LineString"}, "properties": {"label": null, "geo_point_2d": {"lon": -123.1276538196316, "lat": 49.25110578651001}}}, {"type": "Feature", "geometry": {"coordinates": [[-123.11595054552497, 49.24600580245004], [-123.11617570769722, 49.24600968707043], [-123.11617492655674, 49.24602811909029], [-123.11594976427962, 49.24602422547323], [-123.11595054552497, 49.24600580245004]], "type": "LineString"}, "properties": {"label": null, "geo_point_2d": {"lon": -123.11606273809015, "lat": 49.246016958561775}}}, {"type": "Feature", "geometry": {"coordinates": [[-123.1230214775482, 49.2515511728747], [-123.12303643689944, 49.25121744305993]], "type": "LineString"}, "properties": {"label": "3' P.U. EASE.", "geo_point_2d": {"lon": -123.12302895722384, "lat": 49.251384307967314}}}, {"type": "Feature", "geometry": {"coordinates": [[-123.12775655948924, 49.24941703441044], [-123.12779088508198, 49.24941756314713], [-123.1277555869203, 49.249439505568404], [-123.12775655948924, 49.24941703441044]], "type": "LineString"}, "properties": {"label": "R.O.W.", "geo_point_2d": {"lon": -123.12776948199499, "lat": 49.24942455343612}}}, {"type": "Feature", "geometry": {"coordinates": [[-123.11983910552681, 49.256772600624586], [-123.11983704674888, 49.25681909903802], [-123.11978446468437, 49.2568181281106], [-123.1197865325089, 49.25676966873136], [-123.11946699992716, 49.25676376589068], [-123.11946917333394, 49.25670767846325], [-123.11978366173123, 49.256713478585], [-123.11978511891118, 49.25667959209026], [-123.11987574231115, 49.25668126116137], [-123.1198717871912, 49.25677320538166], [-123.11983910552681, 49.256772600624586]], "type": "LineString"}, "properties": {"label": "VOL. EASE.", "geo_point_2d": {"lon": -123.11969318301824, "lat": 49.25674130515448}}}, {"type": "Feature", "geometry": {"coordinates": [[-123.12745595764892, 49.247192360079886], [-123.12679724804366, 49.24718276737386], [-123.1267494535879, 49.24712654564377], [-123.12668102557899, 49.247125541268495], [-123.1267872261732, 49.24725043151693], [-123.12745361766358, 49.24726013274383], [-123.12745595764892, 49.247192360079886]], "type": "LineString"}, "properties": {"label": "EASEMENT", "geo_point_2d": {"lon": -123.12706750199078, "lat": 49.247211801771755}}}, {"type": "Feature", "geometry": {"coordinates": [[-123.11430902755856, 49.240629140458196], [-123.11423137436066, 49.240633085221106], [-123.11411051768074, 49.24054902718183], [-123.1142309053898, 49.24054292637074], [-123.11421636014126, 49.240425309965616], [-123.11506176392177, 49.240684172699815], [-123.11529197809051, 49.2408739496814], [-123.1155808011044, 49.240904442802055], [-123.1156995138057, 49.241010242945435], [-123.11518192496284, 49.24125985637744], [-123.11511538932226, 49.24120054510683], [-123.11515698359968, 49.2409322475569], [-123.1148235114131, 49.24070039429351], [-123.11455027032336, 49.24061691084794], [-123.114511366434, 49.24068348722358], [-123.1143807086878, 49.24065075703938], [-123.11430902755856, 49.240629140458196]], "type": "LineString"}, "properties": {"label": "R.O.W.", "geo_point_2d": {"lon": -123.11491062622858, "lat": 49.24078600966578}}}, {"type": "Feature", "geometry": {"coordinates": [[-123.11552860728129, 49.24105673947593], [-123.11549003222406, 49.24102236225039], [-123.1153102766289, 49.241003381944076], [-123.1152573442094, 49.24117519890379], [-123.11526608624237, 49.24118299805142], [-123.11552860728129, 49.24105673947593]], "type": "LineString"}, "properties": {"label": null, "geo_point_2d": {"lon": -123.11537538463209, "lat": 49.2410803097001}}}, {"type": "Feature", "geometry": {"coordinates": [[-123.10567193429148, 49.24450048593172], [-123.10562611013961, 49.2444601842041], [-123.10562916037489, 49.2444602353867], [-123.10567798887354, 49.24445976795594], [-123.10572659187736, 49.244456647116316], [-123.10577461219577, 49.2444508911856], [-123.10582174763418, 49.24444253642226], [-123.10586766857767, 49.24443164609606], [-123.10591203169224, 49.24441829248509], [-123.10595454864043, 49.244402565807924], [-123.1059949174045, 49.244384583281736], [-123.10815180678895, 49.24333403646702], [-123.1081018657622, 49.243290078505154], [-123.10816245890273, 49.2432605623871], [-123.10821241369241, 49.24330452031011], [-123.10884142555939, 49.24299814529387], [-123.10887831717058, 49.24303060133239], [-123.10603178072657, 49.2444170492424], [-123.10597812409544, 49.24444054006066], [-123.10592114851214, 49.24446041781204], [-123.10586144437056, 49.24447649305072], [-123.10579960212524, 49.244488603317535], [-123.1057362260493, 49.24449662212272], [-123.10567193429148, 49.24450048593172]], "type": "LineString"}, "properties": {"label": null, "geo_point_2d": {"lon": -123.10727943046209, "lat": 49.24377808015936}}}, {"type": "Feature", "geometry": {"coordinates": [[-123.1079230218213, 49.243616251114936], [-123.10702106679211, 49.244055545006894], [-123.10682135355565, 49.244074511894496], [-123.10675373831342, 49.24401499894176], [-123.10668607514285, 49.24404795702615], [-123.10885016941607, 49.24595112012498], [-123.10891732584925, 49.245918377147646], [-123.10692818771689, 49.24416909692234], [-123.10901634457402, 49.24315205080681], [-123.10896637544685, 49.243108075253176], [-123.10799018950246, 49.243583535637825], [-123.10786524057885, 49.243473604631156], [-123.10779807296403, 49.24350632003619], [-123.10792302184093, 49.24361626011014]], "type": "LineString"}, "properties": {"label": null, "geo_point_2d": {"lon": -123.10788161082469, "lat": 49.24435906540344}}}, {"type": "Feature", "geometry": {"coordinates": [[-123.12151775178931, 49.2413091722121], [-123.1216740958504, 49.24131504346188], [-123.1215864717783, 49.242255048429016], [-123.12074873856635, 49.24222585597307], [-123.12075123284664, 49.24215007746296], [-123.12143707253747, 49.242174707162995], [-123.12151775178931, 49.2413091722121]], "type": "LineString"}, "properties": {"label": "EASEMENT", "geo_point_2d": {"lon": -123.12136116946853, "lat": 49.241941842877004}}}, {"type": "Feature", "geometry": {"coordinates": [[-123.10836113085378, 49.24323208618773], [-123.10829666484314, 49.24321824899383], [-123.10807397181564, 49.243282035874316], [-123.10803820233585, 49.24322848469812], [-123.10826375109423, 49.243163885638396], [-123.10842855848837, 49.24319924427623], [-123.10836113085378, 49.24323208618773]], "type": "LineString"}, "properties": {"label": "R.O.W.", "geo_point_2d": {"lon": -123.10822806294051, "lat": 49.24321667071116}}}, {"type": "Feature", "geometry": {"coordinates": [[-123.12608554311066, 49.24342281821669], [-123.12608284638364, 49.24350224011987], [-123.12518730943398, 49.24283968920406], [-123.12493742025298, 49.24275529652326], [-123.12380774462636, 49.24271686167098], [-123.12350306065339, 49.242827820239135], [-123.12073201421809, 49.242731270994526], [-123.12073395984146, 49.24267274593404], [-123.12349932836428, 49.2427690943114], [-123.12349937910231, 49.242767403152165], [-123.12378848334986, 49.242662119292916], [-123.12495951512507, 49.2427019668373], [-123.12523889906342, 49.242796312216534], [-123.12608554311066, 49.24342281821669]], "type": "LineString"}, "properties": {"label": "R.O.W.", "geo_point_2d": {"lon": -123.12350236562946, "lat": 49.24282198578055}}}, {"type": "Feature", "geometry": {"coordinates": [[-123.10824627172126, 49.243288027305915], [-123.10800977283873, 49.24340322578487], [-123.10792802778332, 49.243271791804936], [-123.10772337598974, 49.243324164186824], [-123.10787947289774, 49.24346669199479], [-123.1078133483504, 49.243498893706196], [-123.10764417352169, 49.24334442332493], [-123.10635490010227, 49.243674330381204], [-123.10673214924596, 49.2440255163302], [-123.10666600948615, 49.24405772639072], [-123.10607687967642, 49.2435093254914], [-123.10537282407215, 49.24338741868692], [-123.10537596531904, 49.24331405066358], [-123.10546277012986, 49.243347190867006], [-123.10563494213481, 49.243376996703844], [-123.10543147734282, 49.24201996296606], [-123.10543620219472, 49.24190967701396], [-123.10549791839135, 49.241910808043755], [-123.10570569103852, 49.24329648758137], [-123.10578211384774, 49.24340248047816], [-123.10612702236241, 49.24346219836717], [-123.10630609749998, 49.24362889537901], [-123.1075946285502, 49.24329916946071], [-123.10724660510317, 49.24298139445738], [-123.10731356905639, 49.24294995688293], [-123.10767383096623, 49.24327891035643], [-123.10797369547889, 49.243202170967145], [-123.10805826695989, 49.24333815386304], [-123.10824627172126, 49.243288027305915]], "type": "LineString"}, "properties": {"label": null, "geo_point_2d": {"lon": -123.10656111324397, "lat": 49.24323922520238}}}, {"type": "Feature", "geometry": {"coordinates": [[-123.10887831717058, 49.24303060133239], [-123.107976944016, 49.24346964132616], [-123.10795287130028, 49.24343093932506], [-123.10884142555939, 49.24299814529387], [-123.10887831717058, 49.24303060133239]], "type": "LineString"}, "properties": {"label": null, "geo_point_2d": {"lon": -123.10841325719886, "lat": 49.24323208156791}}}, {"type": "Feature", "geometry": {"coordinates": [[-123.10901252230673, 49.24587196190651], [-123.10897948631718, 49.24588807655225], [-123.1076894894784, 49.244749203180824], [-123.10762274525472, 49.24478160324832], [-123.10753761759976, 49.24470643737343], [-123.10755559723286, 49.244697713248016], [-123.1075649852856, 49.24470590816241], [-123.10757091435264, 49.244702988185566], [-123.10756151256012, 49.24469479328445], [-123.10764725051587, 49.24465251677716], [-123.10773306599472, 49.244728041740004], [-123.10772258018444, 49.24473313382585], [-123.10901252230673, 49.24587196190651]], "type": "LineString"}, "properties": {"label": "R.O.W.", "geo_point_2d": {"lon": -123.10827220283167, "lat": 49.24524616220523}}}, {"type": "Feature", "geometry": {"coordinates": [[-123.10929487921385, 49.24339711476], [-123.10922876942004, 49.24342931726821], [-123.10914678082392, 49.243357180988546], [-123.1092128905749, 49.243324978526864], [-123.10929487921385, 49.24339711476]], "type": "LineString"}, "properties": {"label": "R.O.W.", "geo_point_2d": {"lon": -123.1092208300149, "lat": 49.24337714789164}}}, {"type": "Feature", "geometry": {"coordinates": [[-123.115746438931, 49.24095516305126], [-123.11547921708984, 49.24092678062695], [-123.11546363150397, 49.24098889035942], [-123.11574371595539, 49.2410186362055], [-123.11574995620767, 49.24087297899716]], "type": "LineString"}, "properties": {"label": "R.O.W.", "geo_point_2d": {"lon": -123.11562322501754, "lat": 49.240966584070016}}}, {"type": "Feature", "geometry": {"coordinates": [[-123.11678913043569, 49.24916057493922], [-123.11677654568616, 49.24951665479617], [-123.11676399991696, 49.2495164425957], [-123.11677658475668, 49.24916036274002], [-123.11678913043569, 49.24916057493922]], "type": "LineString"}, "properties": {"label": "3' SEWER R.O.W.", "geo_point_2d": {"lon": -123.1167765651981, "lat": 49.249338508789556}}}, {"type": "Feature", "geometry": {"coordinates": [[-123.12340621013828, 49.24231844235457], [-123.12268780575754, 49.2422934181652], [-123.12277090986132, 49.24135626865845], [-123.12343860595107, 49.24138135551874], [-123.12340621013828, 49.24231844235457]], "type": "LineString"}, "properties": {"label": null, "geo_point_2d": {"lon": -123.12307509735815, "lat": 49.2418446299495}}}, {"type": "Feature", "geometry": {"coordinates": [[-123.11740380386722, 49.24438587604499], [-123.11739605770654, 49.24438126036501], [-123.11739958270209, 49.244378729121514], [-123.11740732884137, 49.24438333580605], [-123.11740380386722, 49.24438587604499]], "type": "LineString"}, "properties": {"label": "R.O.W.", "geo_point_2d": {"lon": -123.11740169373358, "lat": 49.24438230100551}}}, {"type": "Feature", "geometry": {"coordinates": [[-123.11922088360643, 49.24187649347602], [-123.11903226469977, 49.241870031493384], [-123.11903457237733, 49.241812702447234], [-123.11922319106593, 49.24181916442634], [-123.11922088360643, 49.24187649347602]], "type": "LineString"}, "properties": {"label": null, "geo_point_2d": {"lon": -123.11912772793583, "lat": 49.24184459797341}}}, {"type": "Feature", "geometry": {"coordinates": [[-123.11206330443872, 49.24878860730793], [-123.11089153660505, 49.2487680684494], [-123.11089175911275, 49.248763120859664], [-123.11206352684977, 49.24878366871124], [-123.11206330443872, 49.24878860730793]], "type": "LineString"}, "properties": {"label": null, "geo_point_2d": {"lon": -123.11147752951426, "lat": 49.24877586629277}}}, {"type": "Feature", "geometry": {"coordinates": [[-123.11560777586571, 49.249181768500016], [-123.11567230444886, 49.24914172911328], [-123.11592951123744, 49.24914604987891], [-123.11592741583137, 49.249195948516764], [-123.11604640088501, 49.249198086865476], [-123.1160414943691, 49.24931486785496], [-123.11560244827515, 49.24930696942641], [-123.11560777586571, 49.249181768500016]], "type": "LineString"}, "properties": {"label": null, "geo_point_2d": {"lon": -123.1158257586569, "lat": 49.2492352575818}}}, {"type": "Feature", "geometry": {"coordinates": [[-123.11877872569781, 49.243768863585665], [-123.11867832775864, 49.24376626819329], [-123.11869234082302, 49.24335892243928], [-123.11871307428457, 49.2433594678361], [-123.11879271218528, 49.24336223746582], [-123.11877872569781, 49.243768863585665]], "type": "LineString"}, "properties": {"label": null, "geo_point_2d": {"lon": -123.11873549119387, "lat": 49.243564065948746}}}, {"type": "Feature", "geometry": {"coordinates": [[-123.11490863750755, 49.24547449649168], [-123.11490354668139, 49.24559574832276], [-123.11487293353778, 49.24559520307094], [-123.11487303802906, 49.24559286420607], [-123.11479491127986, 49.24559145764872], [-123.11479991161666, 49.24547254467335], [-123.11490863750755, 49.24547449649168]], "type": "LineString"}, "properties": {"label": null, "geo_point_2d": {"lon": -123.11485214146634, "lat": 49.245533758923}}}, {"type": "Feature", "geometry": {"coordinates": [[-123.1141831663994, 49.2491656355714], [-123.1141752266676, 49.249363286584774], [-123.11412860637385, 49.249447518992206], [-123.11413512081053, 49.24949578994779], [-123.11413345745012, 49.249537196627244], [-123.11404698336293, 49.249535563933556], [-123.11404850343898, 49.24949753960268], [-123.11404029752272, 49.24943670397769], [-123.11408182764366, 49.24936167875106], [-123.11408696097541, 49.2492339864104], [-123.11404259071104, 49.24923322064665], [-123.11404295433529, 49.24922405414955], [-123.11400676008826, 49.24922343321998], [-123.11400935449018, 49.24916264090305], [-123.1141831663994, 49.2491656355714]], "type": "LineString"}, "properties": {"label": null, "geo_point_2d": {"lon": -123.11410090545704, "lat": 49.24932809675895}}}, {"type": "Feature", "geometry": {"coordinates": [[-123.11646023788552, 49.24885796561141], [-123.11645995165335, 49.24886479327914], [-123.11583261588434, 49.24885383809707], [-123.11583290220294, 49.248847010430815], [-123.11646023788552, 49.24885796561141]], "type": "LineString"}, "properties": {"label": null, "geo_point_2d": {"lon": -123.11614642690598, "lat": 49.24885590185483}}}, {"type": "Feature", "geometry": {"coordinates": [[-123.1234065308096, 49.242309293852855], [-123.1234026091229, 49.2424226110803], [-123.12074529656853, 49.24232991650704], [-123.12074904572619, 49.242216599549955], [-123.1234065308096, 49.242309293852855]], "type": "LineString"}, "properties": {"label": "R.O.W.", "geo_point_2d": {"lon": -123.12207587207972, "lat": 49.2423196035368}}}, {"type": "Feature", "geometry": {"coordinates": [[-123.12487647010845, 49.248566796910836], [-123.12491838062871, 49.24856765112572]], "type": "LineString"}, "properties": {"label": null, "geo_point_2d": {"lon": -123.12489742536857, "lat": 49.248567224018274}}}, {"type": "Feature", "geometry": {"coordinates": [[-123.12491838062871, 49.24856765112572], [-123.1249326165948, 49.24822491744451]], "type": "LineString"}, "properties": {"label": "10'   EASEMENT", "geo_point_2d": {"lon": -123.12492549861176, "lat": 49.248396284285114}}}, {"type": "Feature", "geometry": {"coordinates": [[-123.1270480257114, 49.24826215356088], [-123.12703834234317, 49.24849918854015]], "type": "LineString"}, "properties": {"label": null, "geo_point_2d": {"lon": -123.12704318402729, "lat": 49.24838067105051}}}, {"type": "Feature", "geometry": {"coordinates": [[-123.12703834234317, 49.24849918854015], [-123.12631488610417, 49.249028910315516]], "type": "LineString"}, "properties": {"label": null, "geo_point_2d": {"lon": -123.12667661422367, "lat": 49.248764049427834}}}, {"type": "Feature", "geometry": {"coordinates": [[-123.12636985052738, 49.249029740735615], [-123.12684095196113, 49.2486833578846]], "type": "LineString"}, "properties": {"label": "10'   EASEMENT", "geo_point_2d": {"lon": -123.12660540124425, "lat": 49.248856549310105}}}, {"type": "Feature", "geometry": {"coordinates": [[-123.1246676325176, 49.24669632906448], [-123.12453287929603, 49.2466940456839]], "type": "LineString"}, "properties": {"label": null, "geo_point_2d": {"lon": -123.12460025590683, "lat": 49.246695187374186}}}, {"type": "Feature", "geometry": {"coordinates": [[-123.12465353166277, 49.247093294916006], [-123.12466570952085, 49.24675113909576]], "type": "LineString"}, "properties": {"label": null, "geo_point_2d": {"lon": -123.12465962059181, "lat": 49.24692221700588}}}, {"type": "Feature", "geometry": {"coordinates": [[-123.12330149400444, 49.24897869802045], [-123.12331831913986, 49.24856761604303]], "type": "LineString"}, "properties": {"label": "4'  EASEMENT", "geo_point_2d": {"lon": -123.12330990657215, "lat": 49.24877315703174}}}, {"type": "Feature", "geometry": {"coordinates": [[-123.1247219838227, 49.24617111966263], [-123.12472390657722, 49.246116246658495]], "type": "LineString"}, "properties": {"label": null, "geo_point_2d": {"lon": -123.12472294519995, "lat": 49.24614368316056}}}, {"type": "Feature", "geometry": {"coordinates": [[-123.12623526332524, 49.24718183561733], [-123.12623075471924, 49.24729967808963]], "type": "LineString"}, "properties": {"label": null, "geo_point_2d": {"lon": -123.12623300902224, "lat": 49.247240756853486}}}, {"type": "Feature", "geometry": {"coordinates": [[-123.12745801319042, 49.24713685722637], [-123.12619594267719, 49.24711848017483]], "type": "LineString"}, "properties": {"label": null, "geo_point_2d": {"lon": -123.1268269779338, "lat": 49.2471276687006}}}, {"type": "Feature", "geometry": {"coordinates": [[-123.12684977311606, 49.24731024412152], [-123.12619021925629, 49.24729882284903]], "type": "LineString"}, "properties": {"label": null, "geo_point_2d": {"lon": -123.12651999618618, "lat": 49.247304533485284}}}, {"type": "Feature", "geometry": {"coordinates": [[-123.12619021925629, 49.24729882284903], [-123.12616463573451, 49.24803780908656]], "type": "LineString"}, "properties": {"label": null, "geo_point_2d": {"lon": -123.1261774274954, "lat": 49.24766831596779}}}, {"type": "Feature", "geometry": {"coordinates": [[-123.11875895193526, 49.256891679232155], [-123.11877187802015, 49.25655705285586]], "type": "LineString"}, "properties": {"label": "EASE.", "geo_point_2d": {"lon": -123.1187654149777, "lat": 49.256724366044004}}}, {"type": "Feature", "geometry": {"coordinates": [[-123.11574501888008, 49.240988293949634], [-123.11574352047555, 49.24102317000318], [-123.11468569413499, 49.24153314873765], [-123.11486858612378, 49.241410973574524], [-123.11574501888008, 49.240988293949634]], "type": "LineString"}, "properties": {"label": "R.O.W.", "geo_point_2d": {"lon": -123.11521959407115, "lat": 49.241260146914314}}}, {"type": "Feature", "geometry": {"coordinates": [[-123.12570300721498, 49.247509122802924], [-123.12570270493242, 49.24750912313182]], "type": "LineString"}, "properties": {"label": "VOLUMETRIC R.O.W.", "geo_point_2d": {"lon": -123.12570285607369, "lat": 49.24750912296737}}}, {"type": "Feature", "geometry": {"coordinates": [[-123.1148902464279, 49.25624231340566], [-123.11489411777814, 49.25615175469669]], "type": "LineString"}, "properties": {"label": null, "geo_point_2d": {"lon": -123.11489218210302, "lat": 49.25619703405117}}}, {"type": "Feature", "geometry": {"coordinates": [[-123.12568680031521, 49.24950364390213], [-123.12481239071884, 49.25011177877453]], "type": "LineString"}, "properties": {"label": "EASE.", "geo_point_2d": {"lon": -123.12524959551703, "lat": 49.249807711338335}}}, {"type": "Feature", "geometry": {"coordinates": [[-123.12562908950241, 49.2495037066711], [-123.12481434753272, 49.25007039861176]], "type": "LineString"}, "properties": {"label": null, "geo_point_2d": {"lon": -123.12522171851757, "lat": 49.24978705264143}}}, {"type": "Feature", "geometry": {"coordinates": [[-123.12588978940377, 49.24936219779625], [-123.12568680031521, 49.24950364390213]], "type": "LineString"}, "properties": {"label": null, "geo_point_2d": {"lon": -123.12578829485949, "lat": 49.24943292084919}}}, {"type": "Feature", "geometry": {"coordinates": [[-123.11074898047043, 49.246397520991735], [-123.11074897503846, 49.246395092284004], [-123.11055668143139, 49.24672539250969], [-123.1105566872557, 49.24672800112155]], "type": "LineString"}, "properties": {"label": "5' R.O.W.", "geo_point_2d": {"lon": -123.11065278360296, "lat": 49.24656033552637}}}, {"type": "Feature", "geometry": {"coordinates": [[-123.12708085905703, 49.24846855799682], [-123.12738444179735, 49.24823963686033]], "type": "LineString"}, "properties": {"label": null, "geo_point_2d": {"lon": -123.12723265042719, "lat": 49.248354097428575}}}, {"type": "Feature", "geometry": {"coordinates": [[-123.12467978266088, 49.246354155258494], [-123.1246676325176, 49.24669632906448]], "type": "LineString"}, "properties": {"label": null, "geo_point_2d": {"lon": -123.12467370758922, "lat": 49.246525242161475}}}, {"type": "Feature", "geometry": {"coordinates": [[-123.12745611426709, 49.247199825950204], [-123.12623526332524, 49.24718183561733]], "type": "LineString"}, "properties": {"label": "R.O.W.", "geo_point_2d": {"lon": -123.12684568879617, "lat": 49.247190830783765}}}, {"type": "Feature", "geometry": {"coordinates": [[-123.12745801319042, 49.24713685722637], [-123.12745611426709, 49.247199825950204]], "type": "LineString"}, "properties": {"label": null, "geo_point_2d": {"lon": -123.12745706372876, "lat": 49.24716834158829}}}, {"type": "Feature", "geometry": {"coordinates": [[-123.12684915639707, 49.24733768025755], [-123.12684977311606, 49.24731024412152]], "type": "LineString"}, "properties": {"label": null, "geo_point_2d": {"lon": -123.12684946475656, "lat": 49.24732396218954}}}, {"type": "Feature", "geometry": {"coordinates": [[-123.12619594267719, 49.24711848017483], [-123.1261895333996, 49.247299273359786]], "type": "LineString"}, "properties": {"label": null, "geo_point_2d": {"lon": -123.12619273803838, "lat": 49.247208876767296}}}, {"type": "Feature", "geometry": {"coordinates": [[-123.117481518632, 49.256867366854095], [-123.11749445439301, 49.25653318137738]], "type": "LineString"}, "properties": {"label": "4' EASE.", "geo_point_2d": {"lon": -123.11748798651251, "lat": 49.25670027411574}}}, {"type": "Feature", "geometry": {"coordinates": [[-123.11861602113832, 49.25688912749589], [-123.11862894818884, 49.25655450113471]], "type": "LineString"}, "properties": {"label": "EASE.", "geo_point_2d": {"lon": -123.11862248466356, "lat": 49.25672181431529}}}, {"type": "Feature", "geometry": {"coordinates": [[-123.11400885284027, 49.241825327429886], [-123.11407896136096, 49.241825573054975], [-123.11375802619446, 49.241980202867815], [-123.11375379880018, 49.241981988087936], [-123.11374792360134, 49.241984134739944], [-123.1137433931517, 49.24198556944369], [-123.11373717337165, 49.24198723069146], [-123.11373078808772, 49.24198861324936], [-123.11372591278845, 49.241989445610834], [-123.11372098216285, 49.241990116112234], [-123.11371599621098, 49.24199062475357], [-123.11371098236873, 49.24199095351732], [-123.11370594065686, 49.24199111139875], [-123.11370089855258, 49.24199109837077], [-123.11369419343859, 49.24199080812675], [-123.11368920535949, 49.24199039025929], [-123.11368259519756, 49.24198956920199], [-123.11367609426323, 49.241988451193926], [-123.11367131083878, 49.24198741245273], [-123.11366660949511, 49.24198622071151], [-123.11366051904707, 49.241984373684225], [-123.11365607789075, 49.24198281288176], [-123.11365035731204, 49.24198049773758], [-123.11364624509811, 49.24197859479199], [-123.1136410043595, 49.24197583840855], [-123.11363727610434, 49.24197362025156], [-123.1136337261622, 49.241971275985684], [-123.11362929474261, 49.24196797009601], [-123.11362621129398, 49.241965355513855], [-123.11362333369742, 49.241962641781534], [-123.11362068945068, 49.241959837867235], [-123.113541537762, 49.24186840710647], [-123.11357736290581, 49.241854204388055], [-123.11365655599809, 49.24194569805046], [-123.11365844282821, 49.2419477201232], [-123.11366122380161, 49.241950236054436], [-123.11366368736344, 49.24195213162632], [-123.11366634297659, 49.24195390107584], [-123.11366846160843, 49.24195515832495], [-123.11367143269311, 49.24195670258293], [-123.11367455461334, 49.241958120759065], [-123.11367782730714, 49.24195938586769], [-123.11368122329736, 49.24196049793579], [-123.11368384903918, 49.24196122396644], [-123.11368742301174, 49.24196206600202], [-123.11369107900296, 49.241962728051966], [-123.11369386884398, 49.241963121097], [-123.11369762034461, 49.24196349520507], [-123.11370141264801, 49.24196368936805], [-123.11370520457972, 49.24196372161695], [-123.11370899609834, 49.24196357396133], [-123.11371182573023, 49.241963346295194], [-123.11371462767838, 49.24196302870385], [-123.1137174156607, 49.241962612178526], [-123.1137210547742, 49.24196190696763], [-123.11372373235199, 49.24196127466507], [-123.11372721967987, 49.24196028175572], [-123.1137297593966, 49.2419594426982], [-123.11373461839274, 49.241957494942845], [-123.11400885284027, 49.241825327429886]], "type": "LineString"}, "properties": {"label": "R.O.W.", "geo_point_2d": {"lon": -123.11379822668096, "lat": 49.24190856816758}}}, {"type": "Feature", "geometry": {"coordinates": [[-123.12682550758136, 49.247127649549995], [-123.12626460422426, 49.24711947558694], [-123.12628948789745, 49.24638159638748], [-123.12685034522914, 49.24639115554499], [-123.12682550758136, 49.247127649549995]], "type": "LineString"}, "properties": {"label": "EASEMENT", "geo_point_2d": {"lon": -123.12655733645965, "lat": 49.246754970325405}}}, {"type": "Feature", "geometry": {"coordinates": [[-123.11574352047555, 49.24102317000318], [-123.11520678806983, 49.24128200485578], [-123.11523730948596, 49.24130922100077], [-123.11574168374965, 49.2410661241225], [-123.11574352047555, 49.24102317000318]], "type": "LineString"}, "properties": {"label": "R.O.W.", "geo_point_2d": {"lon": -123.1154825581861, "lat": 49.24116940825416}}}, {"type": "Feature", "geometry": {"coordinates": [[-123.10543620219472, 49.24190967701396], [-123.10549791839135, 49.241910808043755], [-123.10570569103852, 49.24329648758137], [-123.10578693676977, 49.24340915952352], [-123.1059582343319, 49.24343462097931], [-123.10599698009683, 49.24344184459332], [-123.106034631337, 49.243451210065444], [-123.10607091318029, 49.24346267267293], [-123.10610556435797, 49.243476124714164], [-123.10613830991912, 49.24349148548606], [-123.10616891603256, 49.24350862927179], [-123.10619714888526, 49.24352743934988], [-123.10622282954193, 49.243547762967545], [-123.10675373831342, 49.24401499894176], [-123.10668607514285, 49.24404795702615], [-123.10615487825139, 49.24358077497992], [-123.10613406897188, 49.24356406295752], [-123.10611111907812, 49.24354859424023], [-123.1060861937277, 49.243534503603684], [-123.10605948547838, 49.24352188981745], [-123.10603118688721, 49.243510851651166], [-123.10600153170833, 49.243501478841594], [-123.10597073989847, 49.24349383415259], [-123.10593904515275, 49.243487980335615], [-123.10537218269134, 49.243402378351995], [-123.10537511450974, 49.24333389493395], [-123.10545768467068, 49.24335914118487], [-123.10563633585362, 49.2433862875099], [-123.10543147734282, 49.24201996296606], [-123.10543620219472, 49.24190967701396]], "type": "LineString"}, "properties": {"label": "R.O.W.", "geo_point_2d": {"lon": -123.10584017611846, "lat": 49.24313293624348}}}, {"type": "Feature", "geometry": {"coordinates": [[-123.12142238728653, 49.24233217528094], [-123.12074602596347, 49.242307886402074], [-123.12075123284664, 49.24215007746296], [-123.12143707253747, 49.242174707162995], [-123.12142238728653, 49.24233217528094]], "type": "LineString"}, "properties": {"label": "EASEMENTS", "geo_point_2d": {"lon": -123.12108925978707, "lat": 49.242240768237565}}}, {"type": "Feature", "geometry": {"coordinates": [[-123.1234026091229, 49.2424226110803], [-123.12074528309303, 49.242330024463996], [-123.12074873856635, 49.24222585597307], [-123.12340621016071, 49.242318451349796], [-123.1234026091229, 49.2424226110803]], "type": "LineString"}, "properties": {"label": "R.O.W.s", "geo_point_2d": {"lon": -123.12207570936202, "lat": 49.24232423431087}}}, {"type": "Feature", "geometry": {"coordinates": [[-123.10875058065022, 49.24599968023188], [-123.1086624658362, 49.24604264342111], [-123.10866812630589, 49.24601746043816], [-123.10664695979978, 49.24423303415013], [-123.10667977632525, 49.24407055887699], [-123.10666600948615, 49.24405772639072], [-123.10673214924596, 49.2440255163302], [-123.106765698987, 49.244056752772586], [-123.10673303221654, 49.244218454341905], [-123.10875058065022, 49.24599968023188]], "type": "LineString"}, "properties": {"label": null, "geo_point_2d": {"lon": -123.10764254725129, "lat": 49.24505735196935}}}, {"type": "Feature", "geometry": {"coordinates": [[-123.10800977283873, 49.24340322578487], [-123.10795287130028, 49.24343093932506], [-123.10788997352624, 49.24332979266202], [-123.10640186950357, 49.243710582913735], [-123.10535596368948, 49.244374256517965], [-123.10532689012231, 49.244373671351745], [-123.10532899285552, 49.244328747225744], [-123.10636400413487, 49.24367201022376], [-123.10792802778332, 49.243271791804936], [-123.10800977283873, 49.24340322578487]], "type": "LineString"}, "properties": {"label": "R.O.W.", "geo_point_2d": {"lon": -123.10664415947413, "lat": 49.24371405688893}}}, {"type": "Feature", "geometry": {"coordinates": [[-123.11563319689512, 49.24439278910437], [-123.11564071466472, 49.24438792415187], [-123.11564832877566, 49.24438313106434], [-123.1156560529462, 49.244378400832765], [-123.11566387347912, 49.24437375146133], [-123.1156717903324, 49.24436916495957], [-123.11573290552954, 49.24433511974897], [-123.11574354371459, 49.24413696201721], [-123.11567814307891, 49.24402437117335], [-123.11568493391073, 49.24387302850357], [-123.11592552955706, 49.243724482852556], [-123.1161518916945, 49.24359419334966], [-123.11656219938472, 49.243374161364805], [-123.116961790994, 49.24314416304346], [-123.11733428586633, 49.24291418185819], [-123.1175191074313, 49.24264466754583], [-123.11752977986903, 49.24240621088101], [-123.11746521764861, 49.24215549825225], [-123.1172733442035, 49.24182512709897], [-123.11706716843206, 49.241609675310784], [-123.11682230423295, 49.24143966125791], [-123.11587269976329, 49.24142142176194], [-123.11588613415393, 49.24109771452565], [-123.11579012184762, 49.24109405978092], [-123.11577396744384, 49.241482769343946], [-123.1167798347169, 49.241502095187954], [-123.11699077793851, 49.241648549168126], [-123.11718688571129, 49.24185346888235], [-123.11737201297157, 49.24217223417673], [-123.11743342696143, 49.24241068055005], [-123.11742357513226, 49.242630381297694], [-123.11725448480563, 49.242876977614266], [-123.11689717672103, 49.24309758812986], [-123.11650010974859, 49.243326135450395], [-123.11608980217963, 49.243546167216486], [-123.1158609154785, 49.243677898368716], [-123.11559002752021, 49.24384514831148], [-123.1155815131323, 49.24403518121525], [-123.1156463501299, 49.24414771870634], [-123.1156331971682, 49.24439290604217]], "type": "LineString"}, "properties": {"label": "R.O.W.", "geo_point_2d": {"lon": -123.11656126652478, "lat": 49.24258502130381}}}, {"type": "Feature", "geometry": {"coordinates": [[-123.12745787579031, 49.24713685737796], [-123.12744949403573, 49.24713673169626], [-123.12747502714298, 49.24640179296376], [-123.12748340881951, 49.24640193663415], [-123.12745787579031, 49.24713685737796]], "type": "LineString"}, "properties": {"label": "R.O.W.", "geo_point_2d": {"lon": -123.12746645139829, "lat": 49.246769329615105}}}, {"type": "Feature", "geometry": {"coordinates": [[-123.12740544833403, 49.24805711844688], [-123.12739706640066, 49.248056983766304], [-123.12742792314681, 49.247761789203814], [-123.12744949403573, 49.24713673169626], [-123.12745787579031, 49.24713685737796], [-123.12743629159108, 49.247762040835035], [-123.12740544833403, 49.24805711844688]], "type": "LineString"}, "properties": {"label": null, "geo_point_2d": {"lon": -123.127434398499, "lat": 49.24759740392219}}}, {"type": "Feature", "geometry": {"coordinates": [[-123.1161597576238, 49.24914978550643], [-123.1161537331003, 49.24929359828847], [-123.11612627818869, 49.24929313115031], [-123.11613228905132, 49.249149318383445], [-123.1161597576238, 49.24914978550643]], "type": "LineString"}, "properties": {"label": null, "geo_point_2d": {"lon": -123.11614301463437, "lat": 49.24922145546758}}}, {"type": "Feature", "geometry": {"coordinates": [[-123.11764243176505, 49.24421404016254], [-123.11763468560908, 49.244209424498415], [-123.1176382105802, 49.244206893247586], [-123.11764595671474, 49.244211499916254], [-123.11764243176505, 49.24421404016254]], "type": "LineString"}, "properties": {"label": "R.O.W.", "geo_point_2d": {"lon": -123.11764032162155, "lat": 49.244210465127324}}}, {"type": "Feature", "geometry": {"coordinates": [[-123.1171112568048, 49.244596535567425], [-123.11710351063839, 49.24459191986801], [-123.11710703566388, 49.244589388633514], [-123.11711476806964, 49.244593995351416], [-123.1171112568048, 49.244596535567425]], "type": "LineString"}, "properties": {"label": null, "geo_point_2d": {"lon": -123.11710914085506, "lat": 49.24459296012434}}}, {"type": "Feature", "geometry": {"coordinates": [[-123.11233948632578, 49.248793637277046], [-123.11233970868889, 49.24878868968464], [-123.11428133391038, 49.24882233453318], [-123.11428111174116, 49.24882728212915], [-123.11233948632578, 49.248793637277046]], "type": "LineString"}, "properties": {"label": null, "geo_point_2d": {"lon": -123.11331041016527, "lat": 49.248807985906105}}}, {"type": "Feature", "geometry": {"coordinates": [[-123.11918587094476, 49.24920906723654], [-123.11855789750211, 49.24919784865786], [-123.11855812869987, 49.24919111099401], [-123.11918608829485, 49.24920232059049], [-123.11918587094476, 49.24920906723654]], "type": "LineString"}, "properties": {"label": null, "geo_point_2d": {"lon": -123.11887199846538, "lat": 49.24920008694452}}}, {"type": "Feature", "geometry": {"coordinates": [[-123.11728932308323, 49.24887926414703], [-123.11654364864143, 49.24886624706353], [-123.11654420774441, 49.24885276265049], [-123.11728988198325, 49.24886577973056], [-123.11728932308323, 49.24887926414703]], "type": "LineString"}, "properties": {"label": null, "geo_point_2d": {"lon": -123.11691676536182, "lat": 49.248866013398775}}}, {"type": "Feature", "geometry": {"coordinates": [[-123.11559480244472, 49.24948683667313], [-123.11559032150397, 49.249592148295385], [-123.11564642717455, 49.249593117603816], [-123.11564930366025, 49.249524526108054], [-123.11559480244472, 49.24948683667313]], "type": "LineString"}, "properties": {"label": "R.O.W.", "geo_point_2d": {"lon": -123.11561684813886, "lat": 49.24954647028586}}}, {"type": "Feature", "geometry": {"coordinates": [[-123.11604640088501, 49.249198086865476], [-123.11604482604046, 49.24923553558537], [-123.1159563875981, 49.249233942274856], [-123.1159579625095, 49.2491964935561], [-123.11604640088501, 49.249198086865476]], "type": "LineString"}, "properties": {"label": "VOL. R.O.W.", "geo_point_2d": {"lon": -123.11600139425775, "lat": 49.24921601457541}}}, {"type": "Feature", "geometry": {"coordinates": [[-123.11595405531993, 49.24937043821744], [-123.11603909989978, 49.24937196297674], [-123.11604015411524, 49.24934688322025], [-123.11595510955738, 49.24934534946647], [-123.11595405531993, 49.24937043821744]], "type": "LineString"}, "properties": {"label": "VOL EASE.", "geo_point_2d": {"lon": -123.11599710298889, "lat": 49.24935865843108}}}, {"type": "Feature", "geometry": {"coordinates": [[-123.11089153660505, 49.2487680684494], [-123.11068149104871, 49.24876438392902], [-123.11089175911275, 49.248763120859664], [-123.11089153660505, 49.2487680684494]], "type": "LineString"}, "properties": {"label": null, "geo_point_2d": {"lon": -123.11078779310364, "lat": 49.24876499577698}}}, {"type": "Feature", "geometry": {"coordinates": [[-123.11621627189407, 49.24811910920598], [-123.11621162871717, 49.24823078966415], [-123.11619707708367, 49.24823053444364], [-123.11619515182733, 49.24827669090742], [-123.11612203626116, 49.24827537915453], [-123.11612492391953, 49.24820600503471], [-123.11610311707028, 49.24820561317098], [-123.11610415713064, 49.2481803805041], [-123.11612597770909, 49.248180772353855], [-123.11612860496014, 49.248117542237104], [-123.11621627189407, 49.24811910920598]], "type": "LineString"}, "properties": {"label": null, "geo_point_2d": {"lon": -123.11616246670336, "lat": 49.24819561758647}}}, {"type": "Feature", "geometry": {"coordinates": [[-123.1143953716774, 49.24615423599193], [-123.11439491570225, 49.24616502172857], [-123.11318122823099, 49.24614197496246], [-123.11318167073057, 49.24613118924386], [-123.1143953716774, 49.24615423599193]], "type": "LineString"}, "properties": {"label": null, "geo_point_2d": {"lon": -123.11378829672995, "lat": 49.24614810545477}}}, {"type": "Feature", "geometry": {"coordinates": [[-123.11829297205841, 49.24887891551109], [-123.11829222942424, 49.24889589926487], [-123.1177911894244, 49.24888801864158], [-123.11779190474931, 49.24887103491887], [-123.11829297205841, 49.24887891551109]], "type": "LineString"}, "properties": {"label": null, "geo_point_2d": {"lon": -123.11804207421433, "lat": 49.2488834668649}}}, {"type": "Feature", "geometry": {"coordinates": [[-123.11879271218528, 49.24336223746582], [-123.11877872569781, 49.243768863585665], [-123.11867834149773, 49.24376626817918], [-123.11869180257105, 49.243375105425805], [-123.11867462908099, 49.243374925175985], [-123.11865745479429, 49.24337499678523], [-123.11865703132969, 49.24335881478663], [-123.11868505663334, 49.243358812956025], [-123.11871307428457, 49.2433594678361], [-123.11879271218528, 49.24336223746582]], "type": "LineString"}, "properties": {"label": null, "geo_point_2d": {"lon": -123.11873107262217, "lat": 49.24355139776252}}}, {"type": "Feature", "geometry": {"coordinates": [[-123.11488242052036, 49.256423125064266], [-123.1148668085471, 49.25679014545338], [-123.11482288199313, 49.256811777637814], [-123.11442569395804, 49.256801836185545], [-123.11442650339832, 49.25678340418424], [-123.11483847932676, 49.25679371773043], [-123.11485426039701, 49.2564224874155], [-123.11488242052036, 49.256423125064266]], "type": "LineString"}, "properties": {"label": null, "geo_point_2d": {"lon": -123.11474100548456, "lat": 49.25670567727461}}}, {"type": "Feature", "geometry": {"coordinates": [[-123.11499656038538, 49.24881267457938], [-123.11499581891948, 49.248830647785965], [-123.11436524124274, 49.24881973283914], [-123.11436605163978, 49.248801759568394], [-123.11499656038538, 49.24881267457938]], "type": "LineString"}, "properties": {"label": null, "geo_point_2d": {"lon": -123.11468091728808, "lat": 49.24881620415788}}}, {"type": "Feature", "geometry": {"coordinates": [[-123.12627369134971, 49.25484184076745], [-123.12627174232453, 49.25489664178142], [-123.12461355335442, 49.254869504538775], [-123.12461543541303, 49.25481466764436], [-123.12627369134971, 49.25484184076745]], "type": "LineString"}, "properties": {"label": null, "geo_point_2d": {"lon": -123.1254435975187, "lat": 49.25485566300989}}}]}