{"type": "FeatureCollection", "features": [{"type": "Feature", "geometry": {"coordinates": [[-123.12314782350471, 49.19687946989117], [-123.12153282519782, 49.19743489357895], [-123.12125813231022, 49.19753073495449], [-123.1209891403068, 49.1976332864433], [-123.1208623698007, 49.19768720920317], [-123.1207386538501, 49.197744097419815], [-123.12061815390811, 49.19780387685727], [-123.12050102723285, 49.1978664695064], [-123.1203874266822, 49.19793179368666], [-123.12027750051435, 49.19799976415264], [-123.12017139219431, 49.19807029220532], [-123.12006924020675, 49.198143285807696], [-123.11987018529601, 49.19830005703464], [-123.11968059292538, 49.19846178723452], [-123.11877712931064, 49.19920460505246], [-123.11856075649924, 49.199394233330324], [-123.11837592720636, 49.19957138776324], [-123.11830115892226, 49.19965162061813], [-123.11823062770121, 49.19973348447436], [-123.11816441631971, 49.19981688327971], [-123.11810260248706, 49.199901719180545], [-123.1180452587538, 49.19998789263651], [-123.1179924524268, 49.20007530253729], [-123.11794424548995, 49.2001638463214], [-123.11790069453146, 49.20025342009625], [-123.1178618506773, 49.20034391876022], [-123.11782775953112, 49.20043523612588], [-123.11779846112066, 49.20052726504456], [-123.11777398985062, 49.20061989753216], [-123.11775437446215, 49.20071302489566], [-123.11772077824091, 49.20093773376103], [-123.11770214850407, 49.20116318821557], [-123.11737486819446, 49.20726932783559], [-123.11736195023765, 49.20749290199842], [-123.1173396375997, 49.207716158169205], [-123.1173016602297, 49.207938004176654], [-123.11725395200996, 49.208159042008454], [-123.1171897972794, 49.20846090941206], [-123.11714244962648, 49.20876410638375], [-123.11711197207063, 49.209068231348006], [-123.11703491746846, 49.20996536138315], [-123.11700623566556, 49.21041986645098], [-123.11690304197082, 49.21228101287974], [-123.11683341257539, 49.21386229082659], [-123.11676157823244, 49.21530102344407], [-123.11662822449945, 49.21869452985506], [-123.11638667654648, 49.22475279746391], [-123.1163687075831, 49.225292170056875], [-123.11605358473057, 49.233159034506805], [-123.11597694239556, 49.23498628917715], [-123.11594956004852, 49.23570539921465], [-123.11585403787447, 49.237798196148205], [-123.11584599669911, 49.2379766880267], [-123.11584784187096, 49.238024491223804], [-123.11585226792228, 49.23807222178117], [-123.11585926932226, 49.23811981997436], [-123.11586883731758, 49.238167226244514], [-123.11588095994323, 49.23821438127263], [-123.11589562203754, 49.238261226053915], [-123.11591280526102, 49.23830770197171], [-123.11593248811941, 49.23835375087066], [-123.11595464599039, 49.238399315129634], [-123.11597925115444, 49.23844433773375], [-123.11600627282947, 49.23848876234579], [-123.11603567720933, 49.238532533376585], [-123.11606742750608, 49.23857559605471], [-123.116101483996, 49.238617896495015], [-123.11613780406923, 49.2386593817659], [-123.1161874962157, 49.2387111183754], [-123.11623962723418, 49.23876181559085], [-123.11629414646447, 49.23881142413821], [-123.11780277651276, 49.24016233641224], [-123.11788430857706, 49.24023616973946], [-123.11796141554703, 49.240311050406916], [-123.11799992357822, 49.24035233142635], [-123.11803618655861, 49.240394475104196], [-123.11807015946026, 49.2404374291171], [-123.11810180009812, 49.24048114013545], [-123.11813106918243, 49.240525553889725], [-123.11815793036754, 49.24057061523774], [-123.11818235029709, 49.240616268233126], [-123.11820429864542, 49.24066245619478], [-123.11822374815523, 49.24070912177725], [-123.11824067467151, 49.24075620704194], [-123.11825505717154, 49.240803653529085], [-123.11826687779097, 49.24085140233014], [-123.11827612184614, 49.24089939416114], [-123.11828277785226, 49.24094756943616], [-123.11828683753777, 49.240995868341365], [-123.11828829833888, 49.24108657510483], [-123.11828506241157, 49.241177262162765], [-123.11825306331045, 49.24192140369085], [-123.11825055879044, 49.24203825375144], [-123.11824233983498, 49.2421549913502], [-123.11822841483615, 49.242271496717926], [-123.11820879804044, 49.24238765032289], [-123.11818350953436, 49.242503332993444], [-123.1181525752241, 49.24261842604023], [-123.11813057922654, 49.242676297205605], [-123.11810559258032, 49.24273364561367], [-123.11807764413166, 49.24279040503397], [-123.11804676614767, 49.24284650991604], [-123.118012994279, 49.24290189546501], [-123.11797636751885, 49.24295649771663], [-123.11793692815795, 49.24301025361109], [-123.11789472173565, 49.24306310106575], [-123.1178497969875, 49.243114979046965], [-123.11780220578889, 49.24316582764059], [-123.11775200309525, 49.24321558812108], [-123.11769924687856, 49.24326420301938], [-123.11764399806042, 49.24331161618943], [-123.11758632044175, 49.243357772872756], [-123.11752628062905, 49.24340261976198], [-123.11746394795765, 49.243446105062276], [-123.11730136995394, 49.2435471607999], [-123.11713371129346, 49.243644593324994], [-123.11696116023303, 49.243738293217774], [-123.11678391052706, 49.2438281552497], [-123.11655715640164, 49.24394534589071], [-123.11633687607909, 49.24406771530348], [-123.11612334536927, 49.24419511029806], [-123.11605837548777, 49.24424001057145], [-123.11599577655494, 49.244286332119444], [-123.11593562106432, 49.24433402130364], [-123.11587797868067, 49.24438302290193], [-123.11582291615925, 49.2444332801723], [-123.11577049726851, 49.244484734918494], [-123.11572078271625, 49.24453732755751], [-123.11567383007929, 49.244590997188446], [-123.11562969373675, 49.24464568166311], [-123.11558842480709, 49.24470131765795], [-123.11555007108876, 49.244757840747276], [-123.11551467700505, 49.24481518547806], [-123.11548228355235, 49.244873285445465], [-123.11545292825278, 49.244932073369995], [-123.11542664511066, 49.24499148117516], [-123.11540346457313, 49.245051440066405], [-123.11538341349474, 49.24511188061085], [-123.11536651510643, 49.24517273281757], [-123.11535278898843, 49.245233926218596], [-123.11533550117265, 49.245353196588425], [-123.11532449703493, 49.24547278597439], [-123.11531978967396, 49.245592552519994], [-123.1152376361563, 49.24759517434276], [-123.1152325056813, 49.24781984522362], [-123.11523327797748, 49.24785487308896], [-123.11524831146002, 49.24807935342007], [-123.11532597470107, 49.248990919003276], [-123.11534014442626, 49.249205293722994], [-123.11534095394656, 49.24924317210296], [-123.11533551616945, 49.24946800039394], [-123.11508290635525, 49.25542738826048], [-123.11506343129366, 49.255777874551725], [-123.11502552587459, 49.25612771384622], [-123.11497930777318, 49.25659657779864], [-123.11497638148042, 49.257063990254416], [-123.1149895272962, 49.25784876022732], [-123.1149920818056, 49.25802859437464], [-123.1149854640661, 49.25854486634733], [-123.11497829981184, 49.25872464710043], [-123.11493520438934, 49.259741065873285], [-123.11484242052387, 49.261836855606326], [-123.11479404370122, 49.26258874621713], [-123.1147741218523, 49.26289898055746], [-123.11474606129521, 49.2634514952754], [-123.11469795107848, 49.264739010033715], [-123.11469391084538, 49.26487493118886], [-123.11469610236439, 49.26501087049052], [-123.11470234246553, 49.26508838621149], [-123.1147126252389, 49.2651657171828], [-123.11472693869992, 49.265242773133146], [-123.11474526615865, 49.265319464111755], [-123.1147675862392, 49.2653957005936], [-123.11479387290447, 49.265471393583695], [-123.11484839237542, 49.26560257501935], [-123.11490890040079, 49.265732627163295], [-123.11533211694865, 49.26662618574798], [-123.11545806342912, 49.26688297025621], [-123.11550501755734, 49.26696967930085], [-123.11555669612524, 49.26705522989524], [-123.11561303259082, 49.267139511843105], [-123.11567395441125, 49.26722241658175], [-123.11574006027266, 49.26730330365652], [-123.1158099929381, 49.26738280072812], [-123.11588368424482, 49.267460830290865], [-123.11736829199998, 49.26893719075414], [-123.1177336688097, 49.269314445415915], [-123.11791076513913, 49.269514869118396], [-123.118077924112, 49.26971891481465], [-123.1182349728087, 49.26992637157783], [-123.11838174875449, 49.270137024952454], [-123.11851810008805, 49.27035065717574], [-123.11864388571894, 49.27056704740279], [-123.11946941545992, 49.27215770686466], [-123.11953514218878, 49.272294950319086], [-123.1196080597139, 49.27243062979411], [-123.1196880814318, 49.27256458403532], [-123.11977511229348, 49.27269665383736], [-123.11986904891697, 49.27282668223331], [-123.11996977971023, 49.272954514681274], [-123.12007718500337, 49.27307999924811], [-123.12015291161934, 49.27315587015861], [-123.12033913942732, 49.27331431373869], [-123.12053433002318, 49.273468069521485], [-123.12073820810076, 49.27361692057822], [-123.1209504860891, 49.273760656898006], [-123.12117086455817, 49.27389907568446], [-123.12395997613012, 49.27569446542326], [-123.1241105137026, 49.27579106849755], [-123.12425531136242, 49.275891357569265], [-123.12439415841423, 49.27599518673193], [-123.124454870511, 49.27604578658035], [-123.12451286558407, 49.27609773289972], [-123.12456807392756, 49.27615096326205], [-123.12462042918396, 49.276205413696], [-123.12466986842401, 49.276261018763726], [-123.12471633222214, 49.276317711639656], [-123.12475976472815, 49.27637542419055], [-123.12480011373424, 49.27643408705753], [-123.1248373307378, 49.27649362973939], [-123.12487137099984, 49.27655398067734], [-123.12490219359866, 49.276615067340856], [-123.12492976147924, 49.27667681631507], [-123.12495404149769, 49.27673915338881], [-123.1249750044612, 49.27680200364377], [-123.12499262516317, 49.2768652915447], [-123.12500688241367, 49.27692894103006], [-123.12501775906468, 49.27699287560349], [-123.1250252420311, 49.27705701842557], [-123.12502932230633, 49.27712129240646], [-123.12502999497319, 49.2771856202983], [-123.12502725920994, 49.277249924788144], [-123.12502111829131, 49.277314128590945], [-123.12501157958467, 49.27737815454226], [-123.12499865454107, 49.277441925691214], [-123.12498235868179, 49.27750536539275], [-123.12496271157957, 49.2775683974], [-123.1249397368352, 49.27763094595576], [-123.1249134620492, 49.27769293588357], [-123.12488391878873, 49.277754292678146], [-123.1248511425497, 49.277814942594816], [-123.12481517271418, 49.27787481273832], [-123.12477605250302, 49.27793383115031], [-123.12473382892408, 49.2779919268959], [-123.12468855271574, 49.27804903014889], [-123.12464027828587, 49.27810507227577], [-123.12458906364657, 49.27815998591814], [-123.12453497034453, 49.278213705073824], [-123.12447806338692, 49.27826616517599], [-123.12441841116345, 49.27831730317106], [-123.12428134922165, 49.27842213540837], [-123.12413866007724, 49.27852370306935], [-123.12399052522748, 49.278621876938104], [-123.11731231899864, 49.28303865921197], [-123.11615221882265, 49.283805797606654], [-123.11276507783666, 49.28604540600647]], "type": "LineString"}, "properties": {"line": "Canada Line"}}]}