{"type": "FeatureCollection", "features": [{"type": "Feature", "geometry": {"coordinates": [-123.1111283745311, 49.2448589077112], "type": "Point"}, "properties": {"material": null, "geo_local_area": "Riley Park", "geo_point_2d": {"lon": -123.1111283745311, "lat": 49.2448589077112}}}, {"type": "Feature", "geometry": {"coordinates": [-123.10746580203211, 49.252784489026645], "type": "Point"}, "properties": {"material": null, "geo_local_area": "Riley Park", "geo_point_2d": {"lon": -123.10746580203211, "lat": 49.252784489026645}}}, {"type": "Feature", "geometry": {"coordinates": [-123.11429808228965, 49.24695867609764], "type": "Point"}, "properties": {"material": null, "geo_local_area": "Riley Park", "geo_point_2d": {"lon": -123.11429808228965, "lat": 49.24695867609764}}}, {"type": "Feature", "geometry": {"coordinates": [-123.11762431710422, 49.248034720288416], "type": "Point"}, "properties": {"material": null, "geo_local_area": "South Cambie", "geo_point_2d": {"lon": -123.11762431710422, "lat": 49.248034720288416}}}, {"type": "Feature", "geometry": {"coordinates": [-123.11580746487296, 49.24790550425443], "type": "Point"}, "properties": {"material": null, "geo_local_area": "South Cambie", "geo_point_2d": {"lon": -123.11580746487296, "lat": 49.24790550425443}}}, {"type": "Feature", "geometry": {"coordinates": [-123.11709409868602, 49.24699721816041], "type": "Point"}, "properties": {"material": null, "geo_local_area": "South Cambie", "geo_point_2d": {"lon": -123.11709409868602, "lat": 49.24699721816041}}}, {"type": "Feature", "geometry": {"coordinates": [-123.11699446200544, 49.24791851178891], "type": "Point"}, "properties": {"material": null, "geo_local_area": "South Cambie", "geo_point_2d": {"lon": -123.11699446200544, "lat": 49.24791851178891}}}, {"type": "Feature", "geometry": {"coordinates": [-123.10896752086337, 49.24593885600985], "type": "Point"}, "properties": {"material": null, "geo_local_area": "Riley Park", "geo_point_2d": {"lon": -123.10896752086337, "lat": 49.24593885600985}}}, {"type": "Feature", "geometry": {"coordinates": [-123.11000643078269, 49.24789093425981], "type": "Point"}, "properties": {"material": null, "geo_local_area": "Riley Park", "geo_point_2d": {"lon": -123.11000643078269, "lat": 49.24789093425981}}}, {"type": "Feature", "geometry": {"coordinates": [-123.1098356602337, 49.24773929322231], "type": "Point"}, "properties": {"material": null, "geo_local_area": "Riley Park", "geo_point_2d": {"lon": -123.1098356602337, "lat": 49.24773929322231}}}, {"type": "Feature", "geometry": {"coordinates": [-123.1085192299023, 49.24700855929099], "type": "Point"}, "properties": {"material": null, "geo_local_area": "Riley Park", "geo_point_2d": {"lon": -123.1085192299023, "lat": 49.24700855929099}}}, {"type": "Feature", "geometry": {"coordinates": [-123.11142296844577, 49.246999192781054], "type": "Point"}, "properties": {"material": null, "geo_local_area": "Riley Park", "geo_point_2d": {"lon": -123.11142296844577, "lat": 49.246999192781054}}}, {"type": "Feature", "geometry": {"coordinates": [-123.11503266933951, 49.254939087370076], "type": "Point"}, "properties": {"material": "Concrete", "geo_local_area": "Riley Park", "geo_point_2d": {"lon": -123.11503266933951, "lat": 49.254939087370076}}}, {"type": "Feature", "geometry": {"coordinates": [-123.11534586449946, 49.253987980285864], "type": "Point"}, "properties": {"material": "Concrete", "geo_local_area": "South Cambie", "geo_point_2d": {"lon": -123.11534586449946, "lat": 49.253987980285864}}}, {"type": "Feature", "geometry": {"coordinates": [-123.11507277898166, 49.254021103150684], "type": "Point"}, "properties": {"material": "Concrete", "geo_local_area": "Riley Park", "geo_point_2d": {"lon": -123.11507277898166, "lat": 49.254021103150684}}}, {"type": "Feature", "geometry": {"coordinates": [-123.11506621304602, 49.25391585660394], "type": "Point"}, "properties": {"material": "Concrete", "geo_local_area": "Riley Park", "geo_point_2d": {"lon": -123.11506621304602, "lat": 49.25391585660394}}}, {"type": "Feature", "geometry": {"coordinates": [-123.11519172304386, 49.25121904444086], "type": "Point"}, "properties": {"material": "Concrete", "geo_local_area": "Riley Park", "geo_point_2d": {"lon": -123.11519172304386, "lat": 49.25121904444086}}}, {"type": "Feature", "geometry": {"coordinates": [-123.11562810257219, 49.24504719669027], "type": "Point"}, "properties": {"material": null, "geo_local_area": "South Cambie", "geo_point_2d": {"lon": -123.11562810257219, "lat": 49.24504719669027}}}, {"type": "Feature", "geometry": {"coordinates": [-123.11866311479075, 49.24226243188993], "type": "Point"}, "properties": {"material": null, "geo_local_area": "South Cambie", "geo_point_2d": {"lon": -123.11866311479075, "lat": 49.24226243188993}}}, {"type": "Feature", "geometry": {"coordinates": [-123.11491527717966, 49.25673009822936], "type": "Point"}, "properties": {"material": "Concrete", "geo_local_area": "Riley Park", "geo_point_2d": {"lon": -123.11491527717966, "lat": 49.25673009822936}}}, {"type": "Feature", "geometry": {"coordinates": [-123.12657513626066, 49.24623531719288], "type": "Point"}, "properties": {"material": null, "geo_local_area": "South Cambie", "geo_point_2d": {"lon": -123.12657513626066, "lat": 49.24623531719288}}}, {"type": "Feature", "geometry": {"coordinates": [-123.11617648588557, 49.24500613199555], "type": "Point"}, "properties": {"material": null, "geo_local_area": "South Cambie", "geo_point_2d": {"lon": -123.11617648588557, "lat": 49.24500613199555}}}, {"type": "Feature", "geometry": {"coordinates": [-123.11489998546432, 49.24603278439016], "type": "Point"}, "properties": {"material": null, "geo_local_area": "Riley Park", "geo_point_2d": {"lon": -123.11489998546432, "lat": 49.24603278439016}}}, {"type": "Feature", "geometry": {"coordinates": [-123.12030130589683, 49.25616397966965], "type": "Point"}, "properties": {"material": null, "geo_local_area": "South Cambie", "geo_point_2d": {"lon": -123.12030130589683, "lat": 49.25616397966965}}}, {"type": "Feature", "geometry": {"coordinates": [-123.11997676257455, 49.256028264465115], "type": "Point"}, "properties": {"material": null, "geo_local_area": "South Cambie", "geo_point_2d": {"lon": -123.11997676257455, "lat": 49.256028264465115}}}, {"type": "Feature", "geometry": {"coordinates": [-123.12001100240437, 49.25634866556263], "type": "Point"}, "properties": {"material": null, "geo_local_area": "South Cambie", "geo_point_2d": {"lon": -123.12001100240437, "lat": 49.25634866556263}}}, {"type": "Feature", "geometry": {"coordinates": [-123.120206332731, 49.25635140393817], "type": "Point"}, "properties": {"material": null, "geo_local_area": "South Cambie", "geo_point_2d": {"lon": -123.120206332731, "lat": 49.25635140393817}}}, {"type": "Feature", "geometry": {"coordinates": [-123.12020089908586, 49.25646240158477], "type": "Point"}, "properties": {"material": null, "geo_local_area": "South Cambie", "geo_point_2d": {"lon": -123.12020089908586, "lat": 49.25646240158477}}}, {"type": "Feature", "geometry": {"coordinates": [-123.12779988109087, 49.247281247903814], "type": "Point"}, "properties": {"material": null, "geo_local_area": "Shaughnessy", "geo_point_2d": {"lon": -123.12779988109087, "lat": 49.247281247903814}}}, {"type": "Feature", "geometry": {"coordinates": [-123.12748918059326, 49.247336237220054], "type": "Point"}, "properties": {"material": null, "geo_local_area": "South Cambie", "geo_point_2d": {"lon": -123.12748918059326, "lat": 49.247336237220054}}}, {"type": "Feature", "geometry": {"coordinates": [-123.12775358115367, 49.24713375031034], "type": "Point"}, "properties": {"material": null, "geo_local_area": "Shaughnessy", "geo_point_2d": {"lon": -123.12775358115367, "lat": 49.24713375031034}}}, {"type": "Feature", "geometry": {"coordinates": [-123.11014402299499, 49.24877916308925], "type": "Point"}, "properties": {"material": null, "geo_local_area": "Riley Park", "geo_point_2d": {"lon": -123.11014402299499, "lat": 49.24877916308925}}}, {"type": "Feature", "geometry": {"coordinates": [-123.11012496163094, 49.24853675082885], "type": "Point"}, "properties": {"material": null, "geo_local_area": "Riley Park", "geo_point_2d": {"lon": -123.11012496163094, "lat": 49.24853675082885}}}, {"type": "Feature", "geometry": {"coordinates": [-123.10503483238686, 49.25181523150991], "type": "Point"}, "properties": {"material": null, "geo_local_area": "Riley Park", "geo_point_2d": {"lon": -123.10503483238686, "lat": 49.25181523150991}}}, {"type": "Feature", "geometry": {"coordinates": [-123.10760833450472, 49.24880990566769], "type": "Point"}, "properties": {"material": null, "geo_local_area": "Riley Park", "geo_point_2d": {"lon": -123.10760833450472, "lat": 49.24880990566769}}}, {"type": "Feature", "geometry": {"coordinates": [-123.10619985462064, 49.24878671495826], "type": "Point"}, "properties": {"material": null, "geo_local_area": "Riley Park", "geo_point_2d": {"lon": -123.10619985462064, "lat": 49.24878671495826}}}, {"type": "Feature", "geometry": {"coordinates": [-123.10738369955008, 49.24828806753413], "type": "Point"}, "properties": {"material": null, "geo_local_area": "Riley Park", "geo_point_2d": {"lon": -123.10738369955008, "lat": 49.24828806753413}}}, {"type": "Feature", "geometry": {"coordinates": [-123.11516307689523, 49.247440042486616], "type": "Point"}, "properties": {"material": null, "geo_local_area": "Riley Park", "geo_point_2d": {"lon": -123.11516307689523, "lat": 49.247440042486616}}}, {"type": "Feature", "geometry": {"coordinates": [-123.12037226112933, 49.24440359934318], "type": "Point"}, "properties": {"material": null, "geo_local_area": "South Cambie", "geo_point_2d": {"lon": -123.12037226112933, "lat": 49.24440359934318}}}, {"type": "Feature", "geometry": {"coordinates": [-123.1191892294618, 49.244370931863294], "type": "Point"}, "properties": {"material": null, "geo_local_area": "South Cambie", "geo_point_2d": {"lon": -123.1191892294618, "lat": 49.244370931863294}}}, {"type": "Feature", "geometry": {"coordinates": [-123.11921579802733, 49.244283992472546], "type": "Point"}, "properties": {"material": null, "geo_local_area": "South Cambie", "geo_point_2d": {"lon": -123.11921579802733, "lat": 49.244283992472546}}}, {"type": "Feature", "geometry": {"coordinates": [-123.12044183171672, 49.244655672308625], "type": "Point"}, "properties": {"material": null, "geo_local_area": "South Cambie", "geo_point_2d": {"lon": -123.12044183171672, "lat": 49.244655672308625}}}, {"type": "Feature", "geometry": {"coordinates": [-123.12043635316351, 49.24482656951631], "type": "Point"}, "properties": {"material": null, "geo_local_area": "South Cambie", "geo_point_2d": {"lon": -123.12043635316351, "lat": 49.24482656951631}}}, {"type": "Feature", "geometry": {"coordinates": [-123.11458876196477, 49.25494229002582], "type": "Point"}, "properties": {"material": null, "geo_local_area": "Riley Park", "geo_point_2d": {"lon": -123.11458876196477, "lat": 49.25494229002582}}}, {"type": "Feature", "geometry": {"coordinates": [-123.11459438604878, 49.25478946465461], "type": "Point"}, "properties": {"material": null, "geo_local_area": "Riley Park", "geo_point_2d": {"lon": -123.11459438604878, "lat": 49.25478946465461}}}, {"type": "Feature", "geometry": {"coordinates": [-123.12029226114895, 49.256055650677276], "type": "Point"}, "properties": {"material": null, "geo_local_area": "South Cambie", "geo_point_2d": {"lon": -123.12029226114895, "lat": 49.256055650677276}}}, {"type": "Feature", "geometry": {"coordinates": [-123.12024368626349, 49.25511856131839], "type": "Point"}, "properties": {"material": null, "geo_local_area": "South Cambie", "geo_point_2d": {"lon": -123.12024368626349, "lat": 49.25511856131839}}}, {"type": "Feature", "geometry": {"coordinates": [-123.11892289161918, 49.25604034619318], "type": "Point"}, "properties": {"material": null, "geo_local_area": "South Cambie", "geo_point_2d": {"lon": -123.11892289161918, "lat": 49.25604034619318}}}, {"type": "Feature", "geometry": {"coordinates": [-123.11842933758099, 49.25328676850297], "type": "Point"}, "properties": {"material": null, "geo_local_area": "South Cambie", "geo_point_2d": {"lon": -123.11842933758099, "lat": 49.25328676850297}}}, {"type": "Feature", "geometry": {"coordinates": [-123.12038989963347, 49.25343289349606], "type": "Point"}, "properties": {"material": null, "geo_local_area": "South Cambie", "geo_point_2d": {"lon": -123.12038989963347, "lat": 49.25343289349606}}}, {"type": "Feature", "geometry": {"coordinates": [-123.12001168384087, 49.25423202671171], "type": "Point"}, "properties": {"material": null, "geo_local_area": "South Cambie", "geo_point_2d": {"lon": -123.12001168384087, "lat": 49.25423202671171}}}, {"type": "Feature", "geometry": {"coordinates": [-123.1200887642472, 49.2543459070761], "type": "Point"}, "properties": {"material": null, "geo_local_area": "South Cambie", "geo_point_2d": {"lon": -123.1200887642472, "lat": 49.2543459070761}}}, {"type": "Feature", "geometry": {"coordinates": [-123.12033292840881, 49.25425355995576], "type": "Point"}, "properties": {"material": null, "geo_local_area": "South Cambie", "geo_point_2d": {"lon": -123.12033292840881, "lat": 49.25425355995576}}}, {"type": "Feature", "geometry": {"coordinates": [-123.12481496802388, 49.249291806003725], "type": "Point"}, "properties": {"material": null, "geo_local_area": "South Cambie", "geo_point_2d": {"lon": -123.12481496802388, "lat": 49.249291806003725}}}, {"type": "Feature", "geometry": {"coordinates": [-123.122545349427, 49.24923348191789], "type": "Point"}, "properties": {"material": null, "geo_local_area": "South Cambie", "geo_point_2d": {"lon": -123.122545349427, "lat": 49.24923348191789}}}, {"type": "Feature", "geometry": {"coordinates": [-123.12027828978047, 49.24960413802284], "type": "Point"}, "properties": {"material": null, "geo_local_area": "South Cambie", "geo_point_2d": {"lon": -123.12027828978047, "lat": 49.24960413802284}}}, {"type": "Feature", "geometry": {"coordinates": [-123.12046403177762, 49.24960762354942], "type": "Point"}, "properties": {"material": null, "geo_local_area": "South Cambie", "geo_point_2d": {"lon": -123.12046403177762, "lat": 49.24960762354942}}}, {"type": "Feature", "geometry": {"coordinates": [-123.10989935908297, 49.25392307281034], "type": "Point"}, "properties": {"material": null, "geo_local_area": "Riley Park", "geo_point_2d": {"lon": -123.10989935908297, "lat": 49.25392307281034}}}, {"type": "Feature", "geometry": {"coordinates": [-123.10987575515276, 49.254723876789704], "type": "Point"}, "properties": {"material": null, "geo_local_area": "Riley Park", "geo_point_2d": {"lon": -123.10987575515276, "lat": 49.254723876789704}}}, {"type": "Feature", "geometry": {"coordinates": [-123.10972304702064, 49.2547214852645], "type": "Point"}, "properties": {"material": null, "geo_local_area": "Riley Park", "geo_point_2d": {"lon": -123.10972304702064, "lat": 49.2547214852645}}}, {"type": "Feature", "geometry": {"coordinates": [-123.10991544224463, 49.25391918057014], "type": "Point"}, "properties": {"material": null, "geo_local_area": "Riley Park", "geo_point_2d": {"lon": -123.10991544224463, "lat": 49.25391918057014}}}, {"type": "Feature", "geometry": {"coordinates": [-123.10532799093806, 49.24781735058082], "type": "Point"}, "properties": {"material": null, "geo_local_area": "Riley Park", "geo_point_2d": {"lon": -123.10532799093806, "lat": 49.24781735058082}}}, {"type": "Feature", "geometry": {"coordinates": [-123.10532777835262, 49.247717413761265], "type": "Point"}, "properties": {"material": null, "geo_local_area": "Riley Park", "geo_point_2d": {"lon": -123.10532777835262, "lat": 49.247717413761265}}}, {"type": "Feature", "geometry": {"coordinates": [-123.10700215491788, 49.24684378742468], "type": "Point"}, "properties": {"material": null, "geo_local_area": "Riley Park", "geo_point_2d": {"lon": -123.10700215491788, "lat": 49.24684378742468}}}, {"type": "Feature", "geometry": {"coordinates": [-123.10765511687, 49.24701324467665], "type": "Point"}, "properties": {"material": null, "geo_local_area": "Riley Park", "geo_point_2d": {"lon": -123.10765511687, "lat": 49.24701324467665}}}, {"type": "Feature", "geometry": {"coordinates": [-123.11242935481543, 49.24702305362793], "type": "Point"}, "properties": {"material": "Fibreglass", "geo_local_area": "Riley Park", "geo_point_2d": {"lon": -123.11242935481543, "lat": 49.24702305362793}}}, {"type": "Feature", "geometry": {"coordinates": [-123.1272876038471, 49.250747936352106], "type": "Point"}, "properties": {"material": "Cast Iron", "geo_local_area": "South Cambie", "geo_point_2d": {"lon": -123.1272876038471, "lat": 49.250747936352106}}}, {"type": "Feature", "geometry": {"coordinates": [-123.11845896660923, 49.246045435386655], "type": "Point"}, "properties": {"material": null, "geo_local_area": "South Cambie", "geo_point_2d": {"lon": -123.11845896660923, "lat": 49.246045435386655}}}, {"type": "Feature", "geometry": {"coordinates": [-123.11880958465134, 49.25613200710294], "type": "Point"}, "properties": {"material": null, "geo_local_area": "South Cambie", "geo_point_2d": {"lon": -123.11880958465134, "lat": 49.25613200710294}}}, {"type": "Feature", "geometry": {"coordinates": [-123.11836659953792, 49.25603102271323], "type": "Point"}, "properties": {"material": null, "geo_local_area": "South Cambie", "geo_point_2d": {"lon": -123.11836659953792, "lat": 49.25603102271323}}}, {"type": "Feature", "geometry": {"coordinates": [-123.12000988105567, 49.253431696706095], "type": "Point"}, "properties": {"material": null, "geo_local_area": "South Cambie", "geo_point_2d": {"lon": -123.12000988105567, "lat": 49.253431696706095}}}, {"type": "Feature", "geometry": {"coordinates": [-123.1200097847565, 49.254310278113714], "type": "Point"}, "properties": {"material": null, "geo_local_area": "South Cambie", "geo_point_2d": {"lon": -123.1200097847565, "lat": 49.254310278113714}}}, {"type": "Feature", "geometry": {"coordinates": [-123.12686545676742, 49.25073937846655], "type": "Point"}, "properties": {"material": "Fibreglass", "geo_local_area": "South Cambie", "geo_point_2d": {"lon": -123.12686545676742, "lat": 49.25073937846655}}}, {"type": "Feature", "geometry": {"coordinates": [-123.1230048124064, 49.2492515687972], "type": "Point"}, "properties": {"material": null, "geo_local_area": "South Cambie", "geo_point_2d": {"lon": -123.1230048124064, "lat": 49.2492515687972}}}, {"type": "Feature", "geometry": {"coordinates": [-123.12026655979467, 49.249956754186385], "type": "Point"}, "properties": {"material": null, "geo_local_area": "South Cambie", "geo_point_2d": {"lon": -123.12026655979467, "lat": 49.249956754186385}}}, {"type": "Feature", "geometry": {"coordinates": [-123.11548379432745, 49.25120241753325], "type": "Point"}, "properties": {"material": "Fibreglass", "geo_local_area": "South Cambie", "geo_point_2d": {"lon": -123.11548379432745, "lat": 49.25120241753325}}}, {"type": "Feature", "geometry": {"coordinates": [-123.12035746333288, 49.24885776638594], "type": "Point"}, "properties": {"material": "Fibreglass", "geo_local_area": "South Cambie", "geo_point_2d": {"lon": -123.12035746333288, "lat": 49.24885776638594}}}, {"type": "Feature", "geometry": {"coordinates": [-123.12028252408136, 49.24885842012588], "type": "Point"}, "properties": {"material": "Fibreglass", "geo_local_area": "South Cambie", "geo_point_2d": {"lon": -123.12028252408136, "lat": 49.24885842012588}}}, {"type": "Feature", "geometry": {"coordinates": [-123.11833993852377, 49.24883922450741], "type": "Point"}, "properties": {"material": "Fibreglass", "geo_local_area": "South Cambie", "geo_point_2d": {"lon": -123.11833993852377, "lat": 49.24883922450741}}}, {"type": "Feature", "geometry": {"coordinates": [-123.10972874799897, 49.25392082425433], "type": "Point"}, "properties": {"material": null, "geo_local_area": "Riley Park", "geo_point_2d": {"lon": -123.10972874799897, "lat": 49.25392082425433}}}, {"type": "Feature", "geometry": {"coordinates": [-123.10991492316921, 49.25379061236452], "type": "Point"}, "properties": {"material": null, "geo_local_area": "Riley Park", "geo_point_2d": {"lon": -123.10991492316921, "lat": 49.25379061236452}}}, {"type": "Feature", "geometry": {"coordinates": [-123.1099393687603, 49.25292375552493], "type": "Point"}, "properties": {"material": null, "geo_local_area": "Riley Park", "geo_point_2d": {"lon": -123.1099393687603, "lat": 49.25292375552493}}}, {"type": "Feature", "geometry": {"coordinates": [-123.10499124590447, 49.24721504857371], "type": "Point"}, "properties": {"material": null, "geo_local_area": "Riley Park", "geo_point_2d": {"lon": -123.10499124590447, "lat": 49.24721504857371}}}, {"type": "Feature", "geometry": {"coordinates": [-123.10500693891382, 49.246749423115546], "type": "Point"}, "properties": {"material": null, "geo_local_area": "Riley Park", "geo_point_2d": {"lon": -123.10500693891382, "lat": 49.246749423115546}}}, {"type": "Feature", "geometry": {"coordinates": [-123.10700894055643, 49.246931916424586], "type": "Point"}, "properties": {"material": null, "geo_local_area": "Riley Park", "geo_point_2d": {"lon": -123.10700894055643, "lat": 49.246931916424586}}}, {"type": "Feature", "geometry": {"coordinates": [-123.10484238238978, 49.25043844418561], "type": "Point"}, "properties": {"material": "Fibreglass", "geo_local_area": "Riley Park", "geo_point_2d": {"lon": -123.10484238238978, "lat": 49.25043844418561}}}, {"type": "Feature", "geometry": {"coordinates": [-123.10738284390816, 49.24625890599783], "type": "Point"}, "properties": {"material": null, "geo_local_area": "Riley Park", "geo_point_2d": {"lon": -123.10738284390816, "lat": 49.24625890599783}}}, {"type": "Feature", "geometry": {"coordinates": [-123.11067101643656, 49.245258348389704], "type": "Point"}, "properties": {"material": null, "geo_local_area": "Riley Park", "geo_point_2d": {"lon": -123.11067101643656, "lat": 49.245258348389704}}}, {"type": "Feature", "geometry": {"coordinates": [-123.11074308555794, 49.245819788848706], "type": "Point"}, "properties": {"material": null, "geo_local_area": "Riley Park", "geo_point_2d": {"lon": -123.11074308555794, "lat": 49.245819788848706}}}, {"type": "Feature", "geometry": {"coordinates": [-123.11311887710845, 49.24602166987871], "type": "Point"}, "properties": {"material": null, "geo_local_area": "Riley Park", "geo_point_2d": {"lon": -123.11311887710845, "lat": 49.24602166987871}}}, {"type": "Feature", "geometry": {"coordinates": [-123.11131242253907, 49.24494215234115], "type": "Point"}, "properties": {"material": null, "geo_local_area": "Riley Park", "geo_point_2d": {"lon": -123.11131242253907, "lat": 49.24494215234115}}}, {"type": "Feature", "geometry": {"coordinates": [-123.12441166495988, 49.2544532334669], "type": "Point"}, "properties": {"material": null, "geo_local_area": "South Cambie", "geo_point_2d": {"lon": -123.12441166495988, "lat": 49.2544532334669}}}, {"type": "Feature", "geometry": {"coordinates": [-123.11370508626287, 49.24796168085775], "type": "Point"}, "properties": {"material": null, "geo_local_area": "Riley Park", "geo_point_2d": {"lon": -123.11370508626287, "lat": 49.24796168085775}}}, {"type": "Feature", "geometry": {"coordinates": [-123.11833861249926, 49.24891680972072], "type": "Point"}, "properties": {"material": null, "geo_local_area": "South Cambie", "geo_point_2d": {"lon": -123.11833861249926, "lat": 49.24891680972072}}}, {"type": "Feature", "geometry": {"coordinates": [-123.11587928941749, 49.24606373035986], "type": "Point"}, "properties": {"material": null, "geo_local_area": "South Cambie", "geo_point_2d": {"lon": -123.11587928941749, "lat": 49.24606373035986}}}, {"type": "Feature", "geometry": {"coordinates": [-123.1107192566547, 49.246807200449474], "type": "Point"}, "properties": {"material": null, "geo_local_area": "Riley Park", "geo_point_2d": {"lon": -123.1107192566547, "lat": 49.246807200449474}}}, {"type": "Feature", "geometry": {"coordinates": [-123.11016221005238, 49.247893610327175], "type": "Point"}, "properties": {"material": null, "geo_local_area": "Riley Park", "geo_point_2d": {"lon": -123.11016221005238, "lat": 49.247893610327175}}}, {"type": "Feature", "geometry": {"coordinates": [-123.10968206439134, 49.247537325296406], "type": "Point"}, "properties": {"material": null, "geo_local_area": "Riley Park", "geo_point_2d": {"lon": -123.10968206439134, "lat": 49.247537325296406}}}, {"type": "Feature", "geometry": {"coordinates": [-123.11526967785457, 49.25598216164037], "type": "Point"}, "properties": {"material": "Concrete", "geo_local_area": "South Cambie", "geo_point_2d": {"lon": -123.11526967785457, "lat": 49.25598216164037}}}, {"type": "Feature", "geometry": {"coordinates": [-123.1153118436468, 49.255016293897235], "type": "Point"}, "properties": {"material": "Concrete", "geo_local_area": "South Cambie", "geo_point_2d": {"lon": -123.1153118436468, "lat": 49.255016293897235}}}, {"type": "Feature", "geometry": {"coordinates": [-123.1153476859456, 49.25409736035898], "type": "Point"}, "properties": {"material": "Concrete", "geo_local_area": "South Cambie", "geo_point_2d": {"lon": -123.1153476859456, "lat": 49.25409736035898}}}, {"type": "Feature", "geometry": {"coordinates": [-123.11511940842361, 49.25302369345145], "type": "Point"}, "properties": {"material": "Concrete", "geo_local_area": "Riley Park", "geo_point_2d": {"lon": -123.11511940842361, "lat": 49.25302369345145}}}, {"type": "Feature", "geometry": {"coordinates": [-123.11540131260507, 49.25300323593025], "type": "Point"}, "properties": {"material": "Concrete", "geo_local_area": "South Cambie", "geo_point_2d": {"lon": -123.11540131260507, "lat": 49.25300323593025}}}, {"type": "Feature", "geometry": {"coordinates": [-123.11521394767169, 49.25111496550718], "type": "Point"}, "properties": {"material": "Concrete", "geo_local_area": "Riley Park", "geo_point_2d": {"lon": -123.11521394767169, "lat": 49.25111496550718}}}, {"type": "Feature", "geometry": {"coordinates": [-123.11550966394947, 49.2500105511151], "type": "Point"}, "properties": {"material": "Concrete", "geo_local_area": "South Cambie", "geo_point_2d": {"lon": -123.11550966394947, "lat": 49.2500105511151}}}, {"type": "Feature", "geometry": {"coordinates": [-123.11661782255598, 49.24529106118397], "type": "Point"}, "properties": {"material": null, "geo_local_area": "South Cambie", "geo_point_2d": {"lon": -123.11661782255598, "lat": 49.24529106118397}}}, {"type": "Feature", "geometry": {"coordinates": [-123.11701073824923, 49.24360158337529], "type": "Point"}, "properties": {"material": null, "geo_local_area": "Riley Park", "geo_point_2d": {"lon": -123.11701073824923, "lat": 49.24360158337529}}}, {"type": "Feature", "geometry": {"coordinates": [-123.11821063416069, 49.24325384729008], "type": "Point"}, "properties": {"material": null, "geo_local_area": "South Cambie", "geo_point_2d": {"lon": -123.11821063416069, "lat": 49.24325384729008}}}, {"type": "Feature", "geometry": {"coordinates": [-123.1182826462795, 49.243124125211395], "type": "Point"}, "properties": {"material": null, "geo_local_area": "South Cambie", "geo_point_2d": {"lon": -123.1182826462795, "lat": 49.243124125211395}}}, {"type": "Feature", "geometry": {"coordinates": [-123.11861248207708, 49.24211668003984], "type": "Point"}, "properties": {"material": null, "geo_local_area": "South Cambie", "geo_point_2d": {"lon": -123.11861248207708, "lat": 49.24211668003984}}}, {"type": "Feature", "geometry": {"coordinates": [-123.11860133337198, 49.24223437621156], "type": "Point"}, "properties": {"material": null, "geo_local_area": "South Cambie", "geo_point_2d": {"lon": -123.11860133337198, "lat": 49.24223437621156}}}, {"type": "Feature", "geometry": {"coordinates": [-123.11866252961543, 49.24265466991508], "type": "Point"}, "properties": {"material": null, "geo_local_area": "South Cambie", "geo_point_2d": {"lon": -123.11866252961543, "lat": 49.24265466991508}}}, {"type": "Feature", "geometry": {"coordinates": [-123.11922457251941, 49.24117743257278], "type": "Point"}, "properties": {"material": null, "geo_local_area": "South Cambie", "geo_point_2d": {"lon": -123.11922457251941, "lat": 49.24117743257278}}}, {"type": "Feature", "geometry": {"coordinates": [-123.11451515710397, 49.245085689425395], "type": "Point"}, "properties": {"material": null, "geo_local_area": "Riley Park", "geo_point_2d": {"lon": -123.11451515710397, "lat": 49.245085689425395}}}, {"type": "Feature", "geometry": {"coordinates": [-123.11774624080813, 49.24408495977201], "type": "Point"}, "properties": {"material": null, "geo_local_area": "South Cambie", "geo_point_2d": {"lon": -123.11774624080813, "lat": 49.24408495977201}}}, {"type": "Feature", "geometry": {"coordinates": [-123.11659887722507, 49.24514581625274], "type": "Point"}, "properties": {"material": null, "geo_local_area": "South Cambie", "geo_point_2d": {"lon": -123.11659887722507, "lat": 49.24514581625274}}}, {"type": "Feature", "geometry": {"coordinates": [-123.11617448171586, 49.24512988146473], "type": "Point"}, "properties": {"material": null, "geo_local_area": "South Cambie", "geo_point_2d": {"lon": -123.11617448171586, "lat": 49.24512988146473}}}, {"type": "Feature", "geometry": {"coordinates": [-123.11455224628521, 49.24523690753589], "type": "Point"}, "properties": {"material": null, "geo_local_area": "Riley Park", "geo_point_2d": {"lon": -123.11455224628521, "lat": 49.24523690753589}}}, {"type": "Feature", "geometry": {"coordinates": [-123.11437086531217, 49.24604354598995], "type": "Point"}, "properties": {"material": null, "geo_local_area": "Riley Park", "geo_point_2d": {"lon": -123.11437086531217, "lat": 49.24604354598995}}}, {"type": "Feature", "geometry": {"coordinates": [-123.12762619462056, 49.25091753662416], "type": "Point"}, "properties": {"material": null, "geo_local_area": "Shaughnessy", "geo_point_2d": {"lon": -123.12762619462056, "lat": 49.25091753662416}}}, {"type": "Feature", "geometry": {"coordinates": [-123.11984442336981, 49.256040131579994], "type": "Point"}, "properties": {"material": null, "geo_local_area": "South Cambie", "geo_point_2d": {"lon": -123.11984442336981, "lat": 49.256040131579994}}}, {"type": "Feature", "geometry": {"coordinates": [-123.11016073611513, 49.248348950294485], "type": "Point"}, "properties": {"material": null, "geo_local_area": "Riley Park", "geo_point_2d": {"lon": -123.11016073611513, "lat": 49.248348950294485}}}, {"type": "Feature", "geometry": {"coordinates": [-123.11081247748483, 49.248794292509814], "type": "Point"}, "properties": {"material": null, "geo_local_area": "Riley Park", "geo_point_2d": {"lon": -123.11081247748483, "lat": 49.248794292509814}}}, {"type": "Feature", "geometry": {"coordinates": [-123.1123755883615, 49.24880826346254], "type": "Point"}, "properties": {"material": null, "geo_local_area": "Riley Park", "geo_point_2d": {"lon": -123.1123755883615, "lat": 49.24880826346254}}}, {"type": "Feature", "geometry": {"coordinates": [-123.11272835622486, 49.24881162582721], "type": "Point"}, "properties": {"material": null, "geo_local_area": "Riley Park", "geo_point_2d": {"lon": -123.11272835622486, "lat": 49.24881162582721}}}, {"type": "Feature", "geometry": {"coordinates": [-123.11285283344331, 49.24881245779752], "type": "Point"}, "properties": {"material": null, "geo_local_area": "Riley Park", "geo_point_2d": {"lon": -123.11285283344331, "lat": 49.24881245779752}}}, {"type": "Feature", "geometry": {"coordinates": [-123.11440127057352, 49.248844253216085], "type": "Point"}, "properties": {"material": null, "geo_local_area": "Riley Park", "geo_point_2d": {"lon": -123.11440127057352, "lat": 49.248844253216085}}}, {"type": "Feature", "geometry": {"coordinates": [-123.11229383126128, 49.24847458395597], "type": "Point"}, "properties": {"material": null, "geo_local_area": "Riley Park", "geo_point_2d": {"lon": -123.11229383126128, "lat": 49.24847458395597}}}, {"type": "Feature", "geometry": {"coordinates": [-123.11232475824475, 49.248388595473706], "type": "Point"}, "properties": {"material": null, "geo_local_area": "Riley Park", "geo_point_2d": {"lon": -123.11232475824475, "lat": 49.248388595473706}}}, {"type": "Feature", "geometry": {"coordinates": [-123.10554935905525, 49.25182607858524], "type": "Point"}, "properties": {"material": null, "geo_local_area": "Riley Park", "geo_point_2d": {"lon": -123.10554935905525, "lat": 49.25182607858524}}}, {"type": "Feature", "geometry": {"coordinates": [-123.11446924499649, 49.247055295333666], "type": "Point"}, "properties": {"material": null, "geo_local_area": "Riley Park", "geo_point_2d": {"lon": -123.11446924499649, "lat": 49.247055295333666}}}, {"type": "Feature", "geometry": {"coordinates": [-123.1143442191025, 49.247052963445036], "type": "Point"}, "properties": {"material": null, "geo_local_area": "Riley Park", "geo_point_2d": {"lon": -123.1143442191025, "lat": 49.247052963445036}}}, {"type": "Feature", "geometry": {"coordinates": [-123.12160505473568, 49.24707007899848], "type": "Point"}, "properties": {"material": null, "geo_local_area": "South Cambie", "geo_point_2d": {"lon": -123.12160505473568, "lat": 49.24707007899848}}}, {"type": "Feature", "geometry": {"coordinates": [-123.11875052506372, 49.244378597814375], "type": "Point"}, "properties": {"material": null, "geo_local_area": "South Cambie", "geo_point_2d": {"lon": -123.11875052506372, "lat": 49.244378597814375}}}, {"type": "Feature", "geometry": {"coordinates": [-123.11867248071407, 49.244812149450226], "type": "Point"}, "properties": {"material": null, "geo_local_area": "South Cambie", "geo_point_2d": {"lon": -123.11867248071407, "lat": 49.244812149450226}}}, {"type": "Feature", "geometry": {"coordinates": [-123.11836683618684, 49.25612998786256], "type": "Point"}, "properties": {"material": null, "geo_local_area": "South Cambie", "geo_point_2d": {"lon": -123.11836683618684, "lat": 49.25612998786256}}}, {"type": "Feature", "geometry": {"coordinates": [-123.11904275852469, 49.25341359139182], "type": "Point"}, "properties": {"material": null, "geo_local_area": "South Cambie", "geo_point_2d": {"lon": -123.11904275852469, "lat": 49.25341359139182}}}, {"type": "Feature", "geometry": {"coordinates": [-123.11848405795155, 49.24997981572362], "type": "Point"}, "properties": {"material": null, "geo_local_area": "South Cambie", "geo_point_2d": {"lon": -123.11848405795155, "lat": 49.24997981572362}}}, {"type": "Feature", "geometry": {"coordinates": [-123.10987708888253, 49.25432178017635], "type": "Point"}, "properties": {"material": null, "geo_local_area": "Riley Park", "geo_point_2d": {"lon": -123.10987708888253, "lat": 49.25432178017635}}}, {"type": "Feature", "geometry": {"coordinates": [-123.10976707156563, 49.25378946661319], "type": "Point"}, "properties": {"material": null, "geo_local_area": "Riley Park", "geo_point_2d": {"lon": -123.10976707156563, "lat": 49.25378946661319}}}, {"type": "Feature", "geometry": {"coordinates": [-123.10495648847277, 49.24797579784378], "type": "Point"}, "properties": {"material": null, "geo_local_area": "Riley Park", "geo_point_2d": {"lon": -123.10495648847277, "lat": 49.24797579784378}}}, {"type": "Feature", "geometry": {"coordinates": [-123.10498037929756, 49.24742975663171], "type": "Point"}, "properties": {"material": null, "geo_local_area": "Riley Park", "geo_point_2d": {"lon": -123.10498037929756, "lat": 49.24742975663171}}}, {"type": "Feature", "geometry": {"coordinates": [-123.10637721822224, 49.24782791214094], "type": "Point"}, "properties": {"material": null, "geo_local_area": "Riley Park", "geo_point_2d": {"lon": -123.10637721822224, "lat": 49.24782791214094}}}, {"type": "Feature", "geometry": {"coordinates": [-123.10503461241441, 49.24618647629419], "type": "Point"}, "properties": {"material": null, "geo_local_area": "Riley Park", "geo_point_2d": {"lon": -123.10503461241441, "lat": 49.24618647629419}}}, {"type": "Feature", "geometry": {"coordinates": [-123.12212077795992, 49.2470776217216], "type": "Point"}, "properties": {"material": null, "geo_local_area": "South Cambie", "geo_point_2d": {"lon": -123.12212077795992, "lat": 49.2470776217216}}}, {"type": "Feature", "geometry": {"coordinates": [-123.11867988320033, 49.244558629105754], "type": "Point"}, "properties": {"material": null, "geo_local_area": "South Cambie", "geo_point_2d": {"lon": -123.11867988320033, "lat": 49.244558629105754}}}, {"type": "Feature", "geometry": {"coordinates": [-123.11863057927503, 49.246046779490065], "type": "Point"}, "properties": {"material": null, "geo_local_area": "South Cambie", "geo_point_2d": {"lon": -123.11863057927503, "lat": 49.246046779490065}}}, {"type": "Feature", "geometry": {"coordinates": [-123.11847794833766, 49.24531911369657], "type": "Point"}, "properties": {"material": null, "geo_local_area": "South Cambie", "geo_point_2d": {"lon": -123.11847794833766, "lat": 49.24531911369657}}}, {"type": "Feature", "geometry": {"coordinates": [-123.1246012068933, 49.2492817372056], "type": "Point"}, "properties": {"material": null, "geo_local_area": "South Cambie", "geo_point_2d": {"lon": -123.1246012068933, "lat": 49.2492817372056}}}, {"type": "Feature", "geometry": {"coordinates": [-123.12212535977417, 49.24923055342932], "type": "Point"}, "properties": {"material": null, "geo_local_area": "South Cambie", "geo_point_2d": {"lon": -123.12212535977417, "lat": 49.24923055342932}}}, {"type": "Feature", "geometry": {"coordinates": [-123.1099302035682, 49.2533633517749], "type": "Point"}, "properties": {"material": null, "geo_local_area": "Riley Park", "geo_point_2d": {"lon": -123.1099302035682, "lat": 49.2533633517749}}}, {"type": "Feature", "geometry": {"coordinates": [-123.10972043288152, 49.25291583196993], "type": "Point"}, "properties": {"material": null, "geo_local_area": "Riley Park", "geo_point_2d": {"lon": -123.10972043288152, "lat": 49.25291583196993}}}, {"type": "Feature", "geometry": {"coordinates": [-123.10744763158323, 49.24701448127888], "type": "Point"}, "properties": {"material": null, "geo_local_area": "Riley Park", "geo_point_2d": {"lon": -123.10744763158323, "lat": 49.24701448127888}}}, {"type": "Feature", "geometry": {"coordinates": [-123.11368867586509, 49.24704412042732], "type": "Point"}, "properties": {"material": "Fibreglass", "geo_local_area": "Riley Park", "geo_point_2d": {"lon": -123.11368867586509, "lat": 49.24704412042732}}}, {"type": "Feature", "geometry": {"coordinates": [-123.11244662481178, 49.24601208956993], "type": "Point"}, "properties": {"material": null, "geo_local_area": "Riley Park", "geo_point_2d": {"lon": -123.11244662481178, "lat": 49.24601208956993}}}, {"type": "Feature", "geometry": {"coordinates": [-123.10746513986909, 49.25287193220435], "type": "Point"}, "properties": {"material": null, "geo_local_area": "Riley Park", "geo_point_2d": {"lon": -123.10746513986909, "lat": 49.25287193220435}}}, {"type": "Feature", "geometry": {"coordinates": [-123.1185370500879, 49.24891540992589], "type": "Point"}, "properties": {"material": null, "geo_local_area": "South Cambie", "geo_point_2d": {"lon": -123.1185370500879, "lat": 49.24891540992589}}}, {"type": "Feature", "geometry": {"coordinates": [-123.11775374842802, 49.24619643070915], "type": "Point"}, "properties": {"material": null, "geo_local_area": "South Cambie", "geo_point_2d": {"lon": -123.11775374842802, "lat": 49.24619643070915}}}, {"type": "Feature", "geometry": {"coordinates": [-123.11503517920595, 49.25476545913331], "type": "Point"}, "properties": {"material": "Concrete", "geo_local_area": "Riley Park", "geo_point_2d": {"lon": -123.11503517920595, "lat": 49.25476545913331}}}, {"type": "Feature", "geometry": {"coordinates": [-123.1154284752305, 49.252276313775845], "type": "Point"}, "properties": {"material": "Concrete", "geo_local_area": "South Cambie", "geo_point_2d": {"lon": -123.1154284752305, "lat": 49.252276313775845}}}, {"type": "Feature", "geometry": {"coordinates": [-123.11516739364086, 49.252125508529005], "type": "Point"}, "properties": {"material": "Concrete", "geo_local_area": "Riley Park", "geo_point_2d": {"lon": -123.11516739364086, "lat": 49.252125508529005}}}, {"type": "Feature", "geometry": {"coordinates": [-123.11543817934377, 49.25213600556786], "type": "Point"}, "properties": {"material": "Concrete", "geo_local_area": "South Cambie", "geo_point_2d": {"lon": -123.11543817934377, "lat": 49.25213600556786}}}, {"type": "Feature", "geometry": {"coordinates": [-123.11546979571936, 49.25133949177893], "type": "Point"}, "properties": {"material": "Concrete", "geo_local_area": "South Cambie", "geo_point_2d": {"lon": -123.11546979571936, "lat": 49.25133949177893}}}, {"type": "Feature", "geometry": {"coordinates": [-123.11517602177976, 49.25201264584221], "type": "Point"}, "properties": {"material": "Concrete", "geo_local_area": "Riley Park", "geo_point_2d": {"lon": -123.11517602177976, "lat": 49.25201264584221}}}, {"type": "Feature", "geometry": {"coordinates": [-123.11552805375409, 49.2501302771969], "type": "Point"}, "properties": {"material": "Concrete", "geo_local_area": "South Cambie", "geo_point_2d": {"lon": -123.11552805375409, "lat": 49.2501302771969}}}, {"type": "Feature", "geometry": {"coordinates": [-123.11524129771438, 49.25015492266224], "type": "Point"}, "properties": {"material": "Concrete", "geo_local_area": "Riley Park", "geo_point_2d": {"lon": -123.11524129771438, "lat": 49.25015492266224}}}, {"type": "Feature", "geometry": {"coordinates": [-123.11523914980226, 49.25005860390862], "type": "Point"}, "properties": {"material": "Concrete", "geo_local_area": "Riley Park", "geo_point_2d": {"lon": -123.11523914980226, "lat": 49.25005860390862}}}, {"type": "Feature", "geometry": {"coordinates": [-123.11601795095615, 49.24527789344477], "type": "Point"}, "properties": {"material": null, "geo_local_area": "South Cambie", "geo_point_2d": {"lon": -123.11601795095615, "lat": 49.24527789344477}}}, {"type": "Feature", "geometry": {"coordinates": [-123.11536031061762, 49.24504893961959], "type": "Point"}, "properties": {"material": null, "geo_local_area": "Riley Park", "geo_point_2d": {"lon": -123.11536031061762, "lat": 49.24504893961959}}}, {"type": "Feature", "geometry": {"coordinates": [-123.1172159683478, 49.24374495731309], "type": "Point"}, "properties": {"material": null, "geo_local_area": "South Cambie", "geo_point_2d": {"lon": -123.1172159683478, "lat": 49.24374495731309}}}, {"type": "Feature", "geometry": {"coordinates": [-123.11740362394815, 49.24385216090421], "type": "Point"}, "properties": {"material": null, "geo_local_area": "South Cambie", "geo_point_2d": {"lon": -123.11740362394815, "lat": 49.24385216090421}}}, {"type": "Feature", "geometry": {"coordinates": [-123.11753657603357, 49.24377624983736], "type": "Point"}, "properties": {"material": null, "geo_local_area": "South Cambie", "geo_point_2d": {"lon": -123.11753657603357, "lat": 49.24377624983736}}}, {"type": "Feature", "geometry": {"coordinates": [-123.11738049988543, 49.24365462199908], "type": "Point"}, "properties": {"material": null, "geo_local_area": "South Cambie", "geo_point_2d": {"lon": -123.11738049988543, "lat": 49.24365462199908}}}, {"type": "Feature", "geometry": {"coordinates": [-123.11721806797094, 49.243482717016505], "type": "Point"}, "properties": {"material": null, "geo_local_area": "Riley Park", "geo_point_2d": {"lon": -123.11721806797094, "lat": 49.243482717016505}}}, {"type": "Feature", "geometry": {"coordinates": [-123.11757800114809, 49.24379431509787], "type": "Point"}, "properties": {"material": null, "geo_local_area": "South Cambie", "geo_point_2d": {"lon": -123.11757800114809, "lat": 49.24379431509787}}}, {"type": "Feature", "geometry": {"coordinates": [-123.11834617539537, 49.24312998801226], "type": "Point"}, "properties": {"material": null, "geo_local_area": "South Cambie", "geo_point_2d": {"lon": -123.11834617539537, "lat": 49.24312998801226}}}, {"type": "Feature", "geometry": {"coordinates": [-123.10892452973229, 49.243022020361124], "type": "Point"}, "properties": {"material": null, "geo_local_area": "Riley Park", "geo_point_2d": {"lon": -123.10892452973229, "lat": 49.243022020361124}}}, {"type": "Feature", "geometry": {"coordinates": [-123.10905805015929, 49.24309324462529], "type": "Point"}, "properties": {"material": null, "geo_local_area": "Riley Park", "geo_point_2d": {"lon": -123.10905805015929, "lat": 49.24309324462529}}}, {"type": "Feature", "geometry": {"coordinates": [-123.11825564847614, 49.24330790758032], "type": "Point"}, "properties": {"material": null, "geo_local_area": "South Cambie", "geo_point_2d": {"lon": -123.11825564847614, "lat": 49.24330790758032}}}, {"type": "Feature", "geometry": {"coordinates": [-123.11933447391948, 49.24118073729327], "type": "Point"}, "properties": {"material": null, "geo_local_area": "South Cambie", "geo_point_2d": {"lon": -123.11933447391948, "lat": 49.24118073729327}}}, {"type": "Feature", "geometry": {"coordinates": [-123.12460202929144, 49.25007262380521], "type": "Point"}, "properties": {"material": null, "geo_local_area": "South Cambie", "geo_point_2d": {"lon": -123.12460202929144, "lat": 49.25007262380521}}}, {"type": "Feature", "geometry": {"coordinates": [-123.1217778578579, 49.25076072966986], "type": "Point"}, "properties": {"material": null, "geo_local_area": "South Cambie", "geo_point_2d": {"lon": -123.1217778578579, "lat": 49.25076072966986}}}, {"type": "Feature", "geometry": {"coordinates": [-123.12782380550144, 49.24719721495886], "type": "Point"}, "properties": {"material": null, "geo_local_area": "Shaughnessy", "geo_point_2d": {"lon": -123.12782380550144, "lat": 49.24719721495886}}}, {"type": "Feature", "geometry": {"coordinates": [-123.12774601106412, 49.247341719463634], "type": "Point"}, "properties": {"material": null, "geo_local_area": "Shaughnessy", "geo_point_2d": {"lon": -123.12774601106412, "lat": 49.247341719463634}}}, {"type": "Feature", "geometry": {"coordinates": [-123.1274950732738, 49.24713274956075], "type": "Point"}, "properties": {"material": null, "geo_local_area": "South Cambie", "geo_point_2d": {"lon": -123.1274950732738, "lat": 49.24713274956075}}}, {"type": "Feature", "geometry": {"coordinates": [-123.11013528611545, 49.248465058000896], "type": "Point"}, "properties": {"material": null, "geo_local_area": "Riley Park", "geo_point_2d": {"lon": -123.11013528611545, "lat": 49.248465058000896}}}, {"type": "Feature", "geometry": {"coordinates": [-123.1101309134432, 49.24905665141979], "type": "Point"}, "properties": {"material": null, "geo_local_area": "Riley Park", "geo_point_2d": {"lon": -123.1101309134432, "lat": 49.24905665141979}}}, {"type": "Feature", "geometry": {"coordinates": [-123.11139705499632, 49.24880096249587], "type": "Point"}, "properties": {"material": null, "geo_local_area": "Riley Park", "geo_point_2d": {"lon": -123.11139705499632, "lat": 49.24880096249587}}}, {"type": "Feature", "geometry": {"coordinates": [-123.1119877931373, 49.24880971944101], "type": "Point"}, "properties": {"material": null, "geo_local_area": "Riley Park", "geo_point_2d": {"lon": -123.1119877931373, "lat": 49.24880971944101}}}, {"type": "Feature", "geometry": {"coordinates": [-123.11362619573308, 49.24883255071999], "type": "Point"}, "properties": {"material": null, "geo_local_area": "Riley Park", "geo_point_2d": {"lon": -123.11362619573308, "lat": 49.24883255071999}}}, {"type": "Feature", "geometry": {"coordinates": [-123.1073019793808, 49.24877975974616], "type": "Point"}, "properties": {"material": null, "geo_local_area": "Riley Park", "geo_point_2d": {"lon": -123.1073019793808, "lat": 49.24877975974616}}}, {"type": "Feature", "geometry": {"coordinates": [-123.10674817389541, 49.2487950969131], "type": "Point"}, "properties": {"material": null, "geo_local_area": "Riley Park", "geo_point_2d": {"lon": -123.10674817389541, "lat": 49.2487950969131}}}]}