{"type": "FeatureCollection", "features": [{"type": "Feature", "geometry": {"coordinates": [-123.11078581278439, 49.2453454831464], "type": "Point"}, "properties": {"service_panel_number": "0344SE", "geo_local_area": "Riley Park", "geo_point_2d": {"lon": -123.11078581278439, "lat": 49.2453454831464}}}, {"type": "Feature", "geometry": {"coordinates": [-123.12773428731991, 49.249992824710205], "type": "Point"}, "properties": {"service_panel_number": "1040SF", "geo_local_area": "Shaughnessy", "geo_point_2d": {"lon": -123.12773428731991, "lat": 49.249992824710205}}}, {"type": "Feature", "geometry": {"coordinates": [-123.11958716505421, 49.252252249556804], "type": "Point"}, "properties": {"service_panel_number": "0637NF", "geo_local_area": "South Cambie", "geo_point_2d": {"lon": -123.11958716505421, "lat": 49.252252249556804}}}, {"type": "Feature", "geometry": {"coordinates": [-123.12678517370999, 49.250553877068754], "type": "Point"}, "properties": {"service_panel_number": "0939NF", "geo_local_area": "South Cambie", "geo_point_2d": {"lon": -123.12678517370999, "lat": 49.250553877068754}}}, {"type": "Feature", "geometry": {"coordinates": [-123.11446659989782, 49.25465378149415], "type": "Point"}, "properties": {"service_panel_number": "0434NE", "geo_local_area": "Riley Park", "geo_point_2d": {"lon": -123.11446659989782, "lat": 49.25465378149415}}}, {"type": "Feature", "geometry": {"coordinates": [-123.10525004097468, 49.24939381758413], "type": "Point"}, "properties": {"service_panel_number": "0040SE", "geo_local_area": "Riley Park", "geo_point_2d": {"lon": -123.10525004097468, "lat": 49.24939381758413}}}, {"type": "Feature", "geometry": {"coordinates": [-123.10517851744913, 49.25230293877567], "type": "Point"}, "properties": {"service_panel_number": "0036SE", "geo_local_area": "Riley Park", "geo_point_2d": {"lon": -123.10517851744913, "lat": 49.25230293877567}}}, {"type": "Feature", "geometry": {"coordinates": [-123.1159600634875, 49.255262051165445], "type": "Point"}, "properties": {"service_panel_number": "U0533TEBLR", "geo_local_area": "South Cambie", "geo_point_2d": {"lon": -123.1159600634875, "lat": 49.255262051165445}}}, {"type": "Feature", "geometry": {"coordinates": [-123.12260635486385, 49.25570197284029], "type": "Point"}, "properties": {"service_panel_number": "0833SF", "geo_local_area": "South Cambie", "geo_point_2d": {"lon": -123.12260635486385, "lat": 49.25570197284029}}}, {"type": "Feature", "geometry": {"coordinates": [-123.12393571718371, 49.25143243833305], "type": "Point"}, "properties": {"service_panel_number": "U0838NEBLR", "geo_local_area": "South Cambie", "geo_point_2d": {"lon": -123.12393571718371, "lat": 49.25143243833305}}}, {"type": "Feature", "geometry": {"coordinates": [-123.11608668624932, 49.251330373091385], "type": "Point"}, "properties": {"service_panel_number": "U0538CEBLR", "geo_local_area": "South Cambie", "geo_point_2d": {"lon": -123.11608668624932, "lat": 49.251330373091385}}}, {"type": "Feature", "geometry": {"coordinates": [-123.11768573857157, 49.24390793218543], "type": "Point"}, "properties": {"service_panel_number": "M0545VECIR", "geo_local_area": "South Cambie", "geo_point_2d": {"lon": -123.11768573857157, "lat": 49.24390793218543}}}, {"type": "Feature", "geometry": {"coordinates": [-123.11663650912969, 49.24543723287888], "type": "Point"}, "properties": {"service_panel_number": "0544TE", "geo_local_area": "South Cambie", "geo_point_2d": {"lon": -123.11663650912969, "lat": 49.24543723287888}}}, {"type": "Feature", "geometry": {"coordinates": [-123.1100165394699, 49.25432012727837], "type": "Point"}, "properties": {"service_panel_number": "0234SE", "geo_local_area": "Riley Park", "geo_point_2d": {"lon": -123.1100165394699, "lat": 49.25432012727837}}}, {"type": "Feature", "geometry": {"coordinates": [-123.12031796992575, 49.24881689721747], "type": "Point"}, "properties": {"service_panel_number": "0641MER", "geo_local_area": "South Cambie", "geo_point_2d": {"lon": -123.12031796992575, "lat": 49.24881689721747}}}, {"type": "Feature", "geometry": {"coordinates": [-123.114623733979, 49.25104216953009], "type": "Point"}, "properties": {"service_panel_number": "0438NE", "geo_local_area": "Riley Park", "geo_point_2d": {"lon": -123.114623733979, "lat": 49.25104216953009}}}, {"type": "Feature", "geometry": {"coordinates": [-123.11657076072474, 49.24713955723368], "type": "Point"}, "properties": {"service_panel_number": "0542GE", "geo_local_area": "South Cambie", "geo_point_2d": {"lon": -123.11657076072474, "lat": 49.24713955723368}}}, {"type": "Feature", "geometry": {"coordinates": [-123.10520952627579, 49.25044445206481], "type": "Point"}, "properties": {"service_panel_number": "0038SE", "geo_local_area": "Riley Park", "geo_point_2d": {"lon": -123.10520952627579, "lat": 49.25044445206481}}}, {"type": "Feature", "geometry": {"coordinates": [-123.11994047616348, 49.243824890082614], "type": "Point"}, "properties": {"service_panel_number": "0646WER", "geo_local_area": "South Cambie", "geo_point_2d": {"lon": -123.11994047616348, "lat": 49.243824890082614}}}, {"type": "Feature", "geometry": {"coordinates": [-123.12265629516307, 49.24668909002027], "type": "Point"}, "properties": {"service_panel_number": "0843SER", "geo_local_area": "South Cambie", "geo_point_2d": {"lon": -123.12265629516307, "lat": 49.24668909002027}}}, {"type": "Feature", "geometry": {"coordinates": [-123.1182532954949, 49.24389326609503], "type": "Point"}, "properties": {"service_panel_number": "0546RE", "geo_local_area": "South Cambie", "geo_point_2d": {"lon": -123.1182532954949, "lat": 49.24389326609503}}}, {"type": "Feature", "geometry": {"coordinates": [-123.11017222637943, 49.253370704210575], "type": "Point"}, "properties": {"service_panel_number": "0235SE", "geo_local_area": "Riley Park", "geo_point_2d": {"lon": -123.11017222637943, "lat": 49.253370704210575}}}, {"type": "Feature", "geometry": {"coordinates": [-123.10917486802732, 49.2431536452577], "type": "Point"}, "properties": {"service_panel_number": "Bike Counter", "geo_local_area": "Riley Park", "geo_point_2d": {"lon": -123.10917486802732, "lat": 49.2431536452577}}}, {"type": "Feature", "geometry": {"coordinates": [-123.11031347948476, 49.25151506168309], "type": "Point"}, "properties": {"service_panel_number": "U0237SEBLR", "geo_local_area": "Riley Park", "geo_point_2d": {"lon": -123.11031347948476, "lat": 49.25151506168309}}}, {"type": "Feature", "geometry": {"coordinates": [-123.12409066170454, 49.24855345720262], "type": "Point"}, "properties": {"service_panel_number": "0841WER", "geo_local_area": "South Cambie", "geo_point_2d": {"lon": -123.12409066170454, "lat": 49.24855345720262}}}, {"type": "Feature", "geometry": {"coordinates": [-123.11449365041148, 49.247056647420386], "type": "Point"}, "properties": {"service_panel_number": "M0442JDCIR", "geo_local_area": "Riley Park", "geo_point_2d": {"lon": -123.11449365041148, "lat": 49.247056647420386}}}, {"type": "Feature", "geometry": {"coordinates": [-123.12243198229014, 49.253892670199726], "type": "Point"}, "properties": {"service_panel_number": "0835SF", "geo_local_area": "South Cambie", "geo_point_2d": {"lon": -123.12243198229014, "lat": 49.253892670199726}}}, {"type": "Feature", "geometry": {"coordinates": [-123.11020404482291, 49.24838554656269], "type": "Point"}, "properties": {"service_panel_number": "0241EE", "geo_local_area": "Riley Park", "geo_point_2d": {"lon": -123.11020404482291, "lat": 49.24838554656269}}}, {"type": "Feature", "geometry": {"coordinates": [-123.11044021807976, 49.24949587202428], "type": "Point"}, "properties": {"service_panel_number": "0240SE", "geo_local_area": "Riley Park", "geo_point_2d": {"lon": -123.11044021807976, "lat": 49.24949587202428}}}, {"type": "Feature", "geometry": {"coordinates": [-123.11077219079415, 49.245201491493326], "type": "Point"}, "properties": {"service_panel_number": "U0244EEBGR", "geo_local_area": "Riley Park", "geo_point_2d": {"lon": -123.11077219079415, "lat": 49.245201491493326}}}, {"type": "Feature", "geometry": {"coordinates": [-123.12058717878975, 49.24960866445941], "type": "Point"}, "properties": {"service_panel_number": "U0740SEBLR", "geo_local_area": "South Cambie", "geo_point_2d": {"lon": -123.12058717878975, "lat": 49.24960866445941}}}, {"type": "Feature", "geometry": {"coordinates": [-123.11453943160588, 49.25493816515944], "type": "Point"}, "properties": {"service_panel_number": "M0433JDCIR", "geo_local_area": "Riley Park", "geo_point_2d": {"lon": -123.11453943160588, "lat": 49.25493816515944}}}]}