{"type": "FeatureCollection", "features": [{"type": "Feature", "geometry": {"coordinates": [-123.10749472582427, 49.24779628591963], "type": "Point"}, "properties": {"at_street": "182", "on_street": "712", "xstreet": "W 26TH AV AND MANITOBA ST", "geo_local_area": "Riley Park", "geo_point_2d": {"lon": -123.10749472582427, "lat": 49.24779628591963}}}, {"type": "Feature", "geometry": {"coordinates": [-123.10505097144139, 49.2473109923201], "type": "Point"}, "properties": {"at_street": "184", "on_street": "714", "xstreet": "E 27TH AV AND ONTARIO ST", "geo_local_area": "Riley Park", "geo_point_2d": {"lon": -123.10505097144139, "lat": 49.2473109923201}}}, {"type": "Feature", "geometry": {"coordinates": [-123.12453048516761, 49.25347785342001], "type": "Point"}, "properties": {"at_street": "153", "on_street": "697", "xstreet": "LAUREL ST AND W 20TH AV", "geo_local_area": "South Cambie", "geo_point_2d": {"lon": -123.12453048516761, "lat": 49.25347785342001}}}, {"type": "Feature", "geometry": {"coordinates": [-123.12216595989375, 49.253433539738346], "type": "Point"}, "properties": {"at_street": "159", "on_street": "697", "xstreet": "W 20TH AV AND WILLOW ST", "geo_local_area": "South Cambie", "geo_point_2d": {"lon": -123.12216595989375, "lat": 49.253433539738346}}}, {"type": "Feature", "geometry": {"coordinates": [-123.1222870152627, 49.25011389470837], "type": "Point"}, "properties": {"at_street": "159", "on_street": "707", "xstreet": "W 24TH AV AND WILLOW ST", "geo_local_area": "South Cambie", "geo_point_2d": {"lon": -123.1222870152627, "lat": 49.25011389470837}}}, {"type": "Feature", "geometry": {"coordinates": [-123.1203364029604, 49.250080519690584], "type": "Point"}, "properties": {"at_street": "163", "on_street": "707", "xstreet": "HEATHER ST AND W 24TH AV", "geo_local_area": "South Cambie", "geo_point_2d": {"lon": -123.1203364029604, "lat": 49.250080519690584}}}, {"type": "Feature", "geometry": {"coordinates": [-123.12460840019622, 49.25167035903441], "type": "Point"}, "properties": {"at_street": "153", "on_street": "703", "xstreet": "LAUREL ST AND W 22ND AV", "geo_local_area": "South Cambie", "geo_point_2d": {"lon": -123.12460840019622, "lat": 49.25167035903441}}}, {"type": "Feature", "geometry": {"coordinates": [-123.12028172537241, 49.25158391287084], "type": "Point"}, "properties": {"at_street": "163", "on_street": "703", "xstreet": "HEATHER ST AND W 22ND AV", "geo_local_area": "South Cambie", "geo_point_2d": {"lon": -123.12028172537241, "lat": 49.25158391287084}}}, {"type": "Feature", "geometry": {"coordinates": [-123.12053641108726, 49.244349880478886], "type": "Point"}, "properties": {"at_street": "163", "on_street": "719", "xstreet": "W 30TH AV AND HEATHER ST", "geo_local_area": "South Cambie", "geo_point_2d": {"lon": -123.12053641108726, "lat": 49.244349880478886}}}, {"type": "Feature", "geometry": {"coordinates": [-123.11601574361597, 49.2542167515976], "type": "Point"}, "properties": {"at_street": "168", "on_street": "694", "xstreet": "TUPPER ST AND W 19TH AV", "geo_local_area": "South Cambie", "geo_point_2d": {"lon": -123.11601574361597, "lat": 49.2542167515976}}}, {"type": "Feature", "geometry": {"coordinates": [-123.11527277105037, 49.25213488533229], "type": "Point"}, "properties": {"at_street": "170", "on_street": "702", "xstreet": "CAMBIE ST AND W 21ST AV", "geo_local_area": "South Cambie", "geo_point_2d": {"lon": -123.11527277105037, "lat": 49.25213488533229}}}, {"type": "Feature", "geometry": {"coordinates": [-123.11616866351962, 49.25151071785341], "type": "Point"}, "properties": {"at_street": "168", "on_street": "703", "xstreet": "TUPPER ST AND W 22ND AV", "geo_local_area": "South Cambie", "geo_point_2d": {"lon": -123.11616866351962, "lat": 49.25151071785341}}}, {"type": "Feature", "geometry": {"coordinates": [-123.11694987606661, 49.24103669828704], "type": "Point"}, "properties": {"at_street": "171", "on_street": "733", "xstreet": "W 33RD AV AND KERSLAND DRIVE", "geo_local_area": "Riley Park", "geo_point_2d": {"lon": -123.11694987606661, "lat": 49.24103669828704}}}, {"type": "Feature", "geometry": {"coordinates": [-123.11815726186676, 49.243203538477815], "type": "Point"}, "properties": {"at_street": "170", "on_street": "721", "xstreet": "W 31ST AV AND CAMBIE ST", "geo_local_area": "South Cambie", "geo_point_2d": {"lon": -123.11815726186676, "lat": 49.243203538477815}}}, {"type": "Feature", "geometry": {"coordinates": [-123.118167169302, 49.25606606626618], "type": "Point"}, "properties": {"at_street": "165", "on_street": "691", "xstreet": "W 17TH AV AND ASH ST", "geo_local_area": "South Cambie", "geo_point_2d": {"lon": -123.118167169302, "lat": 49.25606606626618}}}, {"type": "Feature", "geometry": {"coordinates": [-123.11601070670802, 49.25602555141244], "type": "Point"}, "properties": {"at_street": "168", "on_street": "691", "xstreet": "W 17TH AV AND TUPPER ST", "geo_local_area": "South Cambie", "geo_point_2d": {"lon": -123.11601070670802, "lat": 49.25602555141244}}}, {"type": "Feature", "geometry": {"coordinates": [-123.11513585243866, 49.25588133367689], "type": "Point"}, "properties": {"at_street": "170", "on_street": "691", "xstreet": "CAMBIE ST AND W 17TH AV", "geo_local_area": "South Cambie", "geo_point_2d": {"lon": -123.11513585243866, "lat": 49.25588133367689}}}, {"type": "Feature", "geometry": {"coordinates": [-123.11253254172817, 49.25580678263595], "type": "Point"}, "properties": {"at_street": "172", "on_street": "691", "xstreet": "YUKON ST AND W 17TH AV", "geo_local_area": "Riley Park", "geo_point_2d": {"lon": -123.11253254172817, "lat": 49.25580678263595}}}, {"type": "Feature", "geometry": {"coordinates": [-123.11261819323755, 49.25391380806013], "type": "Point"}, "properties": {"at_street": "172", "on_street": "694", "xstreet": "W 19TH AV AND YUKON ST", "geo_local_area": "Riley Park", "geo_point_2d": {"lon": -123.11261819323755, "lat": 49.25391380806013}}}, {"type": "Feature", "geometry": {"coordinates": [-123.11604652241569, 49.253312565965516], "type": "Point"}, "properties": {"at_street": "168", "on_street": "697", "xstreet": "W 20TH AV AND TUPPER ST", "geo_local_area": "South Cambie", "geo_point_2d": {"lon": -123.11604652241569, "lat": 49.253312565965516}}}, {"type": "Feature", "geometry": {"coordinates": [-123.11829992451139, 49.25245003141238], "type": "Point"}, "properties": {"at_street": "165", "on_street": "702", "xstreet": "W 21ST AV AND ASH ST", "geo_local_area": "South Cambie", "geo_point_2d": {"lon": -123.11829992451139, "lat": 49.25245003141238}}}, {"type": "Feature", "geometry": {"coordinates": [-123.11278633288693, 49.25006263553755], "type": "Point"}, "properties": {"at_street": "172", "on_street": "707", "xstreet": "YUKON ST AND W 23RD AV", "geo_local_area": "Riley Park", "geo_point_2d": {"lon": -123.11278633288693, "lat": 49.25006263553755}}}, {"type": "Feature", "geometry": {"coordinates": [-123.11535912021056, 49.25009353951042], "type": "Point"}, "properties": {"at_street": "170", "on_street": "707", "xstreet": "CAMBIE ST AND W 23RD AV", "geo_local_area": "South Cambie", "geo_point_2d": {"lon": -123.11535912021056, "lat": 49.25009353951042}}}, {"type": "Feature", "geometry": {"coordinates": [-123.1072769818372, 49.25279872496812], "type": "Point"}, "properties": {"at_street": "182", "on_street": "697", "xstreet": "W 20TH AV AND MANITOBA ST", "geo_local_area": "Riley Park", "geo_point_2d": {"lon": -123.1072769818372, "lat": 49.25279872496812}}}, {"type": "Feature", "geometry": {"coordinates": [-123.10980725858276, 49.2476150970077], "type": "Point"}, "properties": {"at_street": "179", "on_street": "713", "xstreet": "PEVERIL AV AND WALKWAY", "geo_local_area": "Riley Park", "geo_point_2d": {"lon": -123.10980725858276, "lat": 49.2476150970077}}}, {"type": "Feature", "geometry": {"coordinates": [-123.11597586041715, 49.25693085609767], "type": "Point"}, "properties": {"at_street": "168", "on_street": "690", "xstreet": "TUPPER ST AND W 16TH AV", "geo_local_area": "Fairview", "geo_point_2d": {"lon": -123.11597586041715, "lat": 49.25693085609767}}}, {"type": "Feature", "geometry": {"coordinates": [-123.1048529105709, 49.251867084244374], "type": "Point"}, "properties": {"at_street": "184", "on_street": "702", "xstreet": "W 21ST AV AND ONTARIO ST", "geo_local_area": "Riley Park", "geo_point_2d": {"lon": -123.1048529105709, "lat": 49.251867084244374}}}, {"type": "Feature", "geometry": {"coordinates": [-123.10974464427127, 49.25575421579469], "type": "Point"}, "properties": {"at_street": "179", "on_street": "691", "xstreet": "COLUMBIA ST AND W 17TH AV", "geo_local_area": "Riley Park", "geo_point_2d": {"lon": -123.10974464427127, "lat": 49.25575421579469}}}, {"type": "Feature", "geometry": {"coordinates": [-123.10978927002967, 49.254764663304755], "type": "Point"}, "properties": {"at_street": "179", "on_street": "693", "xstreet": "W 18TH AV AND COLUMBIA ST", "geo_local_area": "Riley Park", "geo_point_2d": {"lon": -123.10978927002967, "lat": 49.254764663304755}}}, {"type": "Feature", "geometry": {"coordinates": [-123.10982912418844, 49.253861190436965], "type": "Point"}, "properties": {"at_street": "179", "on_street": "694", "xstreet": "COLUMBIA ST AND W 19TH AV", "geo_local_area": "Riley Park", "geo_point_2d": {"lon": -123.10982912418844, "lat": 49.253861190436965}}}, {"type": "Feature", "geometry": {"coordinates": [-123.11133750000316, 49.24485181694037], "type": "Point"}, "properties": {"at_street": "181", "on_street": "730", "xstreet": "MIDLOTHIAN AV AND DINMONT AV", "geo_local_area": "Riley Park", "geo_point_2d": {"lon": -123.11133750000316, "lat": 49.24485181694037}}}, {"type": "Feature", "geometry": {"coordinates": [-123.10987457285282, 49.252847655540776], "type": "Point"}, "properties": {"at_street": "179", "on_street": "697", "xstreet": "COLUMBIA ST AND W 20TH AV", "geo_local_area": "Riley Park", "geo_point_2d": {"lon": -123.10987457285282, "lat": 49.252847655540776}}}, {"type": "Feature", "geometry": {"coordinates": [-123.1099133382577, 49.25196268655388], "type": "Point"}, "properties": {"at_street": "179", "on_street": "702", "xstreet": "COLUMBIA ST AND W 21ST AV", "geo_local_area": "Riley Park", "geo_point_2d": {"lon": -123.1099133382577, "lat": 49.25196268655388}}}, {"type": "Feature", "geometry": {"coordinates": [-123.10995403961024, 49.25105906847198], "type": "Point"}, "properties": {"at_street": "179", "on_street": "703", "xstreet": "COLUMBIA ST AND W 22ND AV", "geo_local_area": "Riley Park", "geo_point_2d": {"lon": -123.10995403961024, "lat": 49.25105906847198}}}, {"type": "Feature", "geometry": {"coordinates": [-123.11283439525985, 49.248945804023876], "type": "Point"}, "properties": {"at_street": "172", "on_street": "710", "xstreet": "W KING EDWARD AV AND YUKON ST", "geo_local_area": "Riley Park", "geo_point_2d": {"lon": -123.11283439525985, "lat": 49.248945804023876}}}, {"type": "Feature", "geometry": {"coordinates": [-123.11540605835667, 49.24899087552693], "type": "Point"}, "properties": {"at_street": "170", "on_street": "710", "xstreet": "W KING EDWARD AV AND CAMBIE ST", "geo_local_area": "South Cambie", "geo_point_2d": {"lon": -123.11540605835667, "lat": 49.24899087552693}}}, {"type": "Feature", "geometry": {"coordinates": [-123.12754634403683, 49.249231614139845], "type": "Point"}, "properties": {"at_street": "150", "on_street": "710", "xstreet": "W KING EDWARD AV AND OAK ST", "geo_local_area": "Shaughnessy", "geo_point_2d": {"lon": -123.12754634403683, "lat": 49.249231614139845}}}, {"type": "Feature", "geometry": {"coordinates": [-123.11857847813121, 49.2452377575259], "type": "Point"}, "properties": {"at_street": "165", "on_street": "718", "xstreet": "ASH ST AND W 29TH AV", "geo_local_area": "South Cambie", "geo_point_2d": {"lon": -123.11857847813121, "lat": 49.2452377575259}}}, {"type": "Feature", "geometry": {"coordinates": [-123.11235884377605, 49.24512290702309], "type": "Point"}, "properties": {"at_street": "174", "on_street": "718", "xstreet": "MIDLOTHIAN AV AND YUKON ST", "geo_local_area": "Riley Park", "geo_point_2d": {"lon": -123.11235884377605, "lat": 49.24512290702309}}}, {"type": "Feature", "geometry": {"coordinates": [-123.12765061729286, 49.24630920903722], "type": "Point"}, "properties": {"at_street": "150", "on_street": "717", "xstreet": "NANTON AV AND OAK ST", "geo_local_area": "Shaughnessy", "geo_point_2d": {"lon": -123.12765061729286, "lat": 49.24630920903722}}}, {"type": "Feature", "geometry": {"coordinates": [-123.12243182967015, 49.24622378972374], "type": "Point"}, "properties": {"at_street": "159", "on_street": "717", "xstreet": "WILLOW ST AND W 28TH AV", "geo_local_area": "South Cambie", "geo_point_2d": {"lon": -123.12243182967015, "lat": 49.24622378972374}}}, {"type": "Feature", "geometry": {"coordinates": [-123.11231922317636, 49.24604544282302], "type": "Point"}, "properties": {"at_street": "174", "on_street": "717", "xstreet": "NIGEL AV AND YUKON ST", "geo_local_area": "Riley Park", "geo_point_2d": {"lon": -123.11231922317636, "lat": 49.24604544282302}}}, {"type": "Feature", "geometry": {"coordinates": [-123.1247134631335, 49.24917071482834], "type": "Point"}, "properties": {"at_street": "153", "on_street": "710", "xstreet": "W KING EDWARD AV AND LAUREL ST", "geo_local_area": "South Cambie", "geo_point_2d": {"lon": -123.1247134631335, "lat": 49.24917071482834}}}, {"type": "Feature", "geometry": {"coordinates": [-123.12758714231835, 49.248150063554846], "type": "Point"}, "properties": {"at_street": "150", "on_street": "712", "xstreet": "W 26TH AV AND OAK ST", "geo_local_area": "Shaughnessy", "geo_point_2d": {"lon": -123.12758714231835, "lat": 49.248150063554846}}}, {"type": "Feature", "geometry": {"coordinates": [-123.12236437025652, 49.248065374181714], "type": "Point"}, "properties": {"at_street": "159", "on_street": "712", "xstreet": "W 26TH AV AND WILLOW ST", "geo_local_area": "South Cambie", "geo_point_2d": {"lon": -123.12236437025652, "lat": 49.248065374181714}}}, {"type": "Feature", "geometry": {"coordinates": [-123.11227757816418, 49.2469605143856], "type": "Point"}, "properties": {"at_street": "174", "on_street": "714", "xstreet": "W 27TH AV AND YUKON ST", "geo_local_area": "Riley Park", "geo_point_2d": {"lon": -123.11227757816418, "lat": 49.2469605143856}}}, {"type": "Feature", "geometry": {"coordinates": [-123.1204504305344, 49.247111938946716], "type": "Point"}, "properties": {"at_street": "163", "on_street": "714", "xstreet": "W 27TH AV AND HEATHER ST", "geo_local_area": "South Cambie", "geo_point_2d": {"lon": -123.1204504305344, "lat": 49.247111938946716}}}, {"type": "Feature", "geometry": {"coordinates": [-123.12021537692057, 49.25339250769599], "type": "Point"}, "properties": {"at_street": "163", "on_street": "697", "xstreet": "W 20TH AV AND HEATHER ST", "geo_local_area": "South Cambie", "geo_point_2d": {"lon": -123.12021537692057, "lat": 49.25339250769599}}}, {"type": "Feature", "geometry": {"coordinates": [-123.1244952261459, 49.25438044500587], "type": "Point"}, "properties": {"at_street": "153", "on_street": "694", "xstreet": "W 19TH AV AND LAUREL ST", "geo_local_area": "South Cambie", "geo_point_2d": {"lon": -123.1244952261459, "lat": 49.25438044500587}}}, {"type": "Feature", "geometry": {"coordinates": [-123.12031450265896, 49.250680982918], "type": "Point"}, "properties": {"at_street": "163", "on_street": "706", "xstreet": "HEATHER ST AND W 23RD AV", "geo_local_area": "South Cambie", "geo_point_2d": {"lon": -123.12031450265896, "lat": 49.250680982918}}}, {"type": "Feature", "geometry": {"coordinates": [-123.12226372755569, 49.25072165490564], "type": "Point"}, "properties": {"at_street": "159", "on_street": "706", "xstreet": "WILLOW ST AND W 23RD AV", "geo_local_area": "South Cambie", "geo_point_2d": {"lon": -123.12226372755569, "lat": 49.25072165490564}}}, {"type": "Feature", "geometry": {"coordinates": [-123.12464736161073, 49.25076626079017], "type": "Point"}, "properties": {"at_street": "153", "on_street": "706", "xstreet": "W 23RD AV AND LAUREL ST", "geo_local_area": "South Cambie", "geo_point_2d": {"lon": -123.12464736161073, "lat": 49.25076626079017}}}, {"type": "Feature", "geometry": {"coordinates": [-123.1274490151012, 49.25172286885382], "type": "Point"}, "properties": {"at_street": "150", "on_street": "703", "xstreet": "W 22ND AV AND BALFOUR AV", "geo_local_area": "Shaughnessy", "geo_point_2d": {"lon": -123.1274490151012, "lat": 49.25172286885382}}}, {"type": "Feature", "geometry": {"coordinates": [-123.12024886838198, 49.25248845290032], "type": "Point"}, "properties": {"at_street": "163", "on_street": "702", "xstreet": "HEATHER ST AND W 21ST AV", "geo_local_area": "South Cambie", "geo_point_2d": {"lon": -123.12024886838198, "lat": 49.25248845290032}}}, {"type": "Feature", "geometry": {"coordinates": [-123.12057572549176, 49.24328599069374], "type": "Point"}, "properties": {"at_street": "163", "on_street": "721", "xstreet": "W 31ST AV AND HEATHER ST", "geo_local_area": "South Cambie", "geo_point_2d": {"lon": -123.12057572549176, "lat": 49.24328599069374}}}, {"type": "Feature", "geometry": {"coordinates": [-123.12060836300941, 49.242234107318886], "type": "Point"}, "properties": {"at_street": "163", "on_street": "725", "xstreet": "HEATHER ST AND W 32ND AV", "geo_local_area": "South Cambie", "geo_point_2d": {"lon": -123.12060836300941, "lat": 49.242234107318886}}}, {"type": "Feature", "geometry": {"coordinates": [-123.11257630234275, 49.25481781459683], "type": "Point"}, "properties": {"at_street": "172", "on_street": "693", "xstreet": "YUKON ST AND W 18TH AV", "geo_local_area": "Riley Park", "geo_point_2d": {"lon": -123.11257630234275, "lat": 49.25481781459683}}}, {"type": "Feature", "geometry": {"coordinates": [-123.11515613345091, 49.254899476289744], "type": "Point"}, "properties": {"at_street": "170", "on_street": "693", "xstreet": "W 18TH AV AND CAMBIE ST", "geo_local_area": "South Cambie", "geo_point_2d": {"lon": -123.11515613345091, "lat": 49.254899476289744}}}, {"type": "Feature", "geometry": {"coordinates": [-123.11823854605524, 49.254258700678385], "type": "Point"}, "properties": {"at_street": "165", "on_street": "694", "xstreet": "W 19TH AV AND ASH ST", "geo_local_area": "South Cambie", "geo_point_2d": {"lon": -123.11823854605524, "lat": 49.254258700678385}}}, {"type": "Feature", "geometry": {"coordinates": [-123.11519444493457, 49.25399517554524], "type": "Point"}, "properties": {"at_street": "170", "on_street": "694", "xstreet": "CAMBIE ST AND W 19TH AV", "geo_local_area": "South Cambie", "geo_point_2d": {"lon": -123.11519444493457, "lat": 49.25399517554524}}}, {"type": "Feature", "geometry": {"coordinates": [-123.11266274634053, 49.252900155997395], "type": "Point"}, "properties": {"at_street": "172", "on_street": "697", "xstreet": "W 20TH AV AND YUKON ST", "geo_local_area": "Riley Park", "geo_point_2d": {"lon": -123.11266274634053, "lat": 49.252900155997395}}}, {"type": "Feature", "geometry": {"coordinates": [-123.11827016415975, 49.25335468450026], "type": "Point"}, "properties": {"at_street": "165", "on_street": "697", "xstreet": "ASH ST AND W 20TH AV", "geo_local_area": "South Cambie", "geo_point_2d": {"lon": -123.11827016415975, "lat": 49.25335468450026}}}, {"type": "Feature", "geometry": {"coordinates": [-123.11607362860195, 49.252413160336474], "type": "Point"}, "properties": {"at_street": "168", "on_street": "702", "xstreet": "TUPPER ST AND W 21ST AV", "geo_local_area": "South Cambie", "geo_point_2d": {"lon": -123.11607362860195, "lat": 49.252413160336474}}}, {"type": "Feature", "geometry": {"coordinates": [-123.11270091226763, 49.252015177660375], "type": "Point"}, "properties": {"at_street": "172", "on_street": "702", "xstreet": "W 21ST AV AND YUKON ST", "geo_local_area": "Riley Park", "geo_point_2d": {"lon": -123.11270091226763, "lat": 49.252015177660375}}}, {"type": "Feature", "geometry": {"coordinates": [-123.11274065517149, 49.251111253689785], "type": "Point"}, "properties": {"at_street": "172", "on_street": "703", "xstreet": "W 22ND AV AND YUKON ST", "geo_local_area": "Riley Park", "geo_point_2d": {"lon": -123.11274065517149, "lat": 49.251111253689785}}}, {"type": "Feature", "geometry": {"coordinates": [-123.11531269753132, 49.25120010667636], "type": "Point"}, "properties": {"at_street": "170", "on_street": "703", "xstreet": "W 22ND AV AND CAMBIE ST", "geo_local_area": "South Cambie", "geo_point_2d": {"lon": -123.11531269753132, "lat": 49.25120010667636}}}, {"type": "Feature", "geometry": {"coordinates": [-123.11833779294255, 49.251546125468536], "type": "Point"}, "properties": {"at_street": "165", "on_street": "703", "xstreet": "W 22ND AV AND ASH ST", "geo_local_area": "South Cambie", "geo_point_2d": {"lon": -123.11833779294255, "lat": 49.251546125468536}}}, {"type": "Feature", "geometry": {"coordinates": [-123.11619565892856, 49.25060643661152], "type": "Point"}, "properties": {"at_street": "168", "on_street": "706", "xstreet": "TUPPER ST AND W 23RD AV", "geo_local_area": "South Cambie", "geo_point_2d": {"lon": -123.11619565892856, "lat": 49.25060643661152}}}, {"type": "Feature", "geometry": {"coordinates": [-123.11621119956169, 49.25000911990183], "type": "Point"}, "properties": {"at_street": "168", "on_street": "707", "xstreet": "TUPPER ST AND W 24TH AV", "geo_local_area": "South Cambie", "geo_point_2d": {"lon": -123.11621119956169, "lat": 49.25000911990183}}}, {"type": "Feature", "geometry": {"coordinates": [-123.10731612372483, 49.2519138914351], "type": "Point"}, "properties": {"at_street": "182", "on_street": "702", "xstreet": "W 21ST AV AND MANITOBA ST", "geo_local_area": "Riley Park", "geo_point_2d": {"lon": -123.10731612372483, "lat": 49.2519138914351}}}, {"type": "Feature", "geometry": {"coordinates": [-123.10495700069721, 49.24956570505713], "type": "Point"}, "properties": {"at_street": "184", "on_street": "708", "xstreet": "E 24TH AV AND ONTARIO ST", "geo_local_area": "Riley Park", "geo_point_2d": {"lon": -123.10495700069721, "lat": 49.24956570505713}}}, {"type": "Feature", "geometry": {"coordinates": [-123.11862178239835, 49.244313182714116], "type": "Point"}, "properties": {"at_street": "165", "on_street": "719", "xstreet": "W 30TH AV AND ASH ST", "geo_local_area": "South Cambie", "geo_point_2d": {"lon": -123.11862178239835, "lat": 49.244313182714116}}}, {"type": "Feature", "geometry": {"coordinates": [-123.11731561215446, 49.24369604893992], "type": "Point"}, "properties": {"at_street": "170", "on_street": "719", "xstreet": "CAMBIE ST AND W 30TH AV", "geo_local_area": "South Cambie", "geo_point_2d": {"lon": -123.11731561215446, "lat": 49.24369604893992}}}, {"type": "Feature", "geometry": {"coordinates": [-123.10999890909063, 49.25000975956351], "type": "Point"}, "properties": {"at_street": "179", "on_street": "707", "xstreet": "COLUMBIA ST AND W 23RD AV", "geo_local_area": "Riley Park", "geo_point_2d": {"lon": -123.10999890909063, "lat": 49.25000975956351}}}, {"type": "Feature", "geometry": {"coordinates": [-123.1121923698447, 49.2489345016024], "type": "Point"}, "properties": {"at_street": "174", "on_street": "710", "xstreet": "W KING EDWARD AV AND YUKON ST", "geo_local_area": "Riley Park", "geo_point_2d": {"lon": -123.1121923698447, "lat": 49.2489345016024}}}, {"type": "Feature", "geometry": {"coordinates": [-123.11854104313426, 49.2461582513093], "type": "Point"}, "properties": {"at_street": "165", "on_street": "717", "xstreet": "ASH ST AND W 28TH AV", "geo_local_area": "South Cambie", "geo_point_2d": {"lon": -123.11854104313426, "lat": 49.2461582513093}}}, {"type": "Feature", "geometry": {"coordinates": [-123.12232573940811, 49.24911932324824], "type": "Point"}, "properties": {"at_street": "159", "on_street": "710", "xstreet": "W KING EDWARD AV AND WILLOW ST", "geo_local_area": "South Cambie", "geo_point_2d": {"lon": -123.12232573940811, "lat": 49.24911932324824}}}, {"type": "Feature", "geometry": {"coordinates": [-123.1247538114187, 49.24810416078569], "type": "Point"}, "properties": {"at_street": "153", "on_street": "712", "xstreet": "W 26TH AV AND LAUREL ST", "geo_local_area": "South Cambie", "geo_point_2d": {"lon": -123.1247538114187, "lat": 49.24810416078569}}}, {"type": "Feature", "geometry": {"coordinates": [-123.1204121388418, 49.248033657289746], "type": "Point"}, "properties": {"at_street": "163", "on_street": "712", "xstreet": "HEATHER ST AND W 26TH AV", "geo_local_area": "South Cambie", "geo_point_2d": {"lon": -123.1204121388418, "lat": 49.248033657289746}}}, {"type": "Feature", "geometry": {"coordinates": [-123.11846784579801, 49.24799941658599], "type": "Point"}, "properties": {"at_street": "165", "on_street": "712", "xstreet": "ASH ST AND W 26TH AV", "geo_local_area": "South Cambie", "geo_point_2d": {"lon": -123.11846784579801, "lat": 49.24799941658599}}}, {"type": "Feature", "geometry": {"coordinates": [-123.11544888586953, 49.24794703523522], "type": "Point"}, "properties": {"at_street": "170", "on_street": "712", "xstreet": "CAMBIE ST AND W 26TH AV", "geo_local_area": "South Cambie", "geo_point_2d": {"lon": -123.11544888586953, "lat": 49.24794703523522}}}, {"type": "Feature", "geometry": {"coordinates": [-123.12761886185561, 49.24723044596499], "type": "Point"}, "properties": {"at_street": "150", "on_street": "714", "xstreet": "OAK ST AND W 27TH AV", "geo_local_area": "Shaughnessy", "geo_point_2d": {"lon": -123.12761886185561, "lat": 49.24723044596499}}}, {"type": "Feature", "geometry": {"coordinates": [-123.11550934711167, 49.2470240370515], "type": "Point"}, "properties": {"at_street": "170", "on_street": "714", "xstreet": "CAMBIE ST AND W 27TH AV", "geo_local_area": "South Cambie", "geo_point_2d": {"lon": -123.11550934711167, "lat": 49.2470240370515}}}, {"type": "Feature", "geometry": {"coordinates": [-123.12239808046508, 49.24714478444493], "type": "Point"}, "properties": {"at_street": "159", "on_street": "714", "xstreet": "WILLOW ST AND W 27TH AV", "geo_local_area": "South Cambie", "geo_point_2d": {"lon": -123.12239808046508, "lat": 49.24714478444493}}}, {"type": "Feature", "geometry": {"coordinates": [-123.10498909784886, 49.24884586871686], "type": "Point"}, "properties": {"at_street": "184", "on_street": "710", "xstreet": "E KING EDWARD AV AND ONTARIO ST", "geo_local_area": "Riley Park", "geo_point_2d": {"lon": -123.10498909784886, "lat": 49.24884586871686}}}, {"type": "Feature", "geometry": {"coordinates": [-123.10507133231371, 49.246850336979676], "type": "Point"}, "properties": {"at_street": "184", "on_street": "715", "xstreet": "W 27TH AV AND ONTARIO ST", "geo_local_area": "Riley Park", "geo_point_2d": {"lon": -123.10507133231371, "lat": 49.246850336979676}}}, {"type": "Feature", "geometry": {"coordinates": [-123.10908254516252, 49.2429927636067], "type": "Point"}, "properties": {"at_street": "182", "on_street": "730", "xstreet": "MIDLOTHIAN AV AND CLANCY LORANGER WAY", "geo_local_area": "Riley Park", "geo_point_2d": {"lon": -123.10908254516252, "lat": 49.2429927636067}}}, {"type": "Feature", "geometry": {"coordinates": [-123.10744904673567, 49.248888655161906], "type": "Point"}, "properties": {"at_street": "182", "on_street": "710", "xstreet": "MANITOBA ST AND W KING EDWARD AV", "geo_local_area": "Riley Park", "geo_point_2d": {"lon": -123.10744904673567, "lat": 49.248888655161906}}}, {"type": "Feature", "geometry": {"coordinates": [-123.11004822417173, 49.248896616065345], "type": "Point"}, "properties": {"at_street": "179", "on_street": "710", "xstreet": "W KING EDWARD AV AND COLUMBIA ST", "geo_local_area": "Riley Park", "geo_point_2d": {"lon": -123.11004822417173, "lat": 49.248896616065345}}}, {"type": "Feature", "geometry": {"coordinates": [-123.110095194433, 49.24545683962945], "type": "Point"}, "properties": {"at_street": "181", "on_street": "717", "xstreet": "DINMONT AV AND NIGEL AV", "geo_local_area": "Riley Park", "geo_point_2d": {"lon": -123.110095194433, "lat": 49.24545683962945}}}, {"type": "Feature", "geometry": {"coordinates": [-123.10503772363565, 49.24775033145156], "type": "Point"}, "properties": {"at_street": "184", "on_street": "712", "xstreet": "W 26TH AV AND ONTARIO ST", "geo_local_area": "Riley Park", "geo_point_2d": {"lon": -123.10503772363565, "lat": 49.24775033145156}}}, {"type": "Feature", "geometry": {"coordinates": [-123.10511210525668, 49.24605723519344], "type": "Point"}, "properties": {"at_street": "184", "on_street": "716", "xstreet": "W 28TH AV AND ONTARIO ST", "geo_local_area": "Riley Park", "geo_point_2d": {"lon": -123.10511210525668, "lat": 49.24605723519344}}}, {"type": "Feature", "geometry": {"coordinates": [-123.10787396568878, 49.2466023101634], "type": "Point"}, "properties": {"at_street": "182", "on_street": "713", "xstreet": "PEVERIL AV AND MANITOBA ST", "geo_local_area": "Riley Park", "geo_point_2d": {"lon": -123.10787396568878, "lat": 49.2466023101634}}}, {"type": "Feature", "geometry": {"coordinates": [-123.11039761921086, 49.24677694337343], "type": "Point"}, "properties": {"at_street": "174", "on_street": "714", "xstreet": "TALISMAN AV AND WALKWAY", "geo_local_area": "Riley Park", "geo_point_2d": {"lon": -123.11039761921086, "lat": 49.24677694337343}}}, {"type": "Feature", "geometry": {"coordinates": [-123.1089725462045, 49.24601223531454], "type": "Point"}, "properties": {"at_street": "181", "on_street": "714", "xstreet": "TALISMAN AV AND DINMONT AV", "geo_local_area": "Riley Park", "geo_point_2d": {"lon": -123.1089725462045, "lat": 49.24601223531454}}}, {"type": "Feature", "geometry": {"coordinates": [-123.1069925790691, 49.24582677818391], "type": "Point"}, "properties": {"at_street": "182", "on_street": "716", "xstreet": "PEVERIL AV AND W 28TH AV", "geo_local_area": "Riley Park", "geo_point_2d": {"lon": -123.1069925790691, "lat": 49.24582677818391}}}, {"type": "Feature", "geometry": {"coordinates": [-123.11059654862262, 49.24785456176821], "type": "Point"}, "properties": {"at_street": "179", "on_street": "713", "xstreet": "W 26TH AV AND PEVERIL AV", "geo_local_area": "Riley Park", "geo_point_2d": {"lon": -123.11059654862262, "lat": 49.24785456176821}}}, {"type": "Feature", "geometry": {"coordinates": [-123.11842499985548, 49.249043428931984], "type": "Point"}, "properties": {"at_street": "165", "on_street": "710", "xstreet": "ASH ST AND W KING EDWARD AV", "geo_local_area": "South Cambie", "geo_point_2d": {"lon": -123.11842499985548, "lat": 49.249043428931984}}}, {"type": "Feature", "geometry": {"coordinates": [-123.11008995186266, 49.24784499794421], "type": "Point"}, "properties": {"at_street": "179", "on_street": "712", "xstreet": "W 26TH AV AND COLUMBIA ST", "geo_local_area": "Riley Park", "geo_point_2d": {"lon": -123.11008995186266, "lat": 49.24784499794421}}}, {"type": "Feature", "geometry": {"coordinates": [-123.10753430773889, 49.24689617722725], "type": "Point"}, "properties": {"at_street": "182", "on_street": "715", "xstreet": "W 27TH AV AND MANITOBA ST", "geo_local_area": "Riley Park", "geo_point_2d": {"lon": -123.10753430773889, "lat": 49.24689617722725}}}, {"type": "Feature", "geometry": {"coordinates": [-123.12036974492658, 49.2490771931433], "type": "Point"}, "properties": {"at_street": "163", "on_street": "710", "xstreet": "W KING EDWARD AV AND HEATHER ST", "geo_local_area": "South Cambie", "geo_point_2d": {"lon": -123.12036974492658, "lat": 49.2490771931433}}}, {"type": "Feature", "geometry": {"coordinates": [-123.1122386610578, 49.247885549852775], "type": "Point"}, "properties": {"at_street": "174", "on_street": "712", "xstreet": "YUKON ST AND W 26TH AV", "geo_local_area": "Riley Park", "geo_point_2d": {"lon": -123.1122386610578, "lat": 49.247885549852775}}}, {"type": "Feature", "geometry": {"coordinates": [-123.1185054896297, 49.24707894089804], "type": "Point"}, "properties": {"at_street": "165", "on_street": "714", "xstreet": "ASH ST AND W 27TH AV", "geo_local_area": "South Cambie", "geo_point_2d": {"lon": -123.1185054896297, "lat": 49.24707894089804}}}, {"type": "Feature", "geometry": {"coordinates": [-123.12478858014653, 49.24718504442059], "type": "Point"}, "properties": {"at_street": "153", "on_street": "714", "xstreet": "W 27TH AV AND LAUREL ST", "geo_local_area": "South Cambie", "geo_point_2d": {"lon": -123.12478858014653, "lat": 49.24718504442059}}}, {"type": "Feature", "geometry": {"coordinates": [-123.12018196772232, 49.25429697603408], "type": "Point"}, "properties": {"at_street": "163", "on_street": "694", "xstreet": "HEATHER ST AND W 19TH AV", "geo_local_area": "South Cambie", "geo_point_2d": {"lon": -123.12018196772232, "lat": 49.25429697603408}}}, {"type": "Feature", "geometry": {"coordinates": [-123.12212780249034, 49.2543373660069], "type": "Point"}, "properties": {"at_street": "159", "on_street": "694", "xstreet": "W 19TH AV AND WILLOW ST", "geo_local_area": "South Cambie", "geo_point_2d": {"lon": -123.12212780249034, "lat": 49.2543373660069}}}, {"type": "Feature", "geometry": {"coordinates": [-123.12209646039715, 49.25524139180833], "type": "Point"}, "properties": {"at_street": "159", "on_street": "693", "xstreet": "W 18TH AV AND WILLOW ST", "geo_local_area": "South Cambie", "geo_point_2d": {"lon": -123.12209646039715, "lat": 49.25524139180833}}}, {"type": "Feature", "geometry": {"coordinates": [-123.1201484603513, 49.255201120494085], "type": "Point"}, "properties": {"at_street": "163", "on_street": "693", "xstreet": "HEATHER ST AND W 18TH AV", "geo_local_area": "South Cambie", "geo_point_2d": {"lon": -123.1201484603513, "lat": 49.255201120494085}}}, {"type": "Feature", "geometry": {"coordinates": [-123.12011491829853, 49.256102791152884], "type": "Point"}, "properties": {"at_street": "163", "on_street": "691", "xstreet": "HEATHER ST AND W 17TH AV", "geo_local_area": "South Cambie", "geo_point_2d": {"lon": -123.12011491829853, "lat": 49.256102791152884}}}, {"type": "Feature", "geometry": {"coordinates": [-123.12206367118651, 49.256144186642786], "type": "Point"}, "properties": {"at_street": "159", "on_street": "691", "xstreet": "W 17TH AV AND WILLOW ST", "geo_local_area": "South Cambie", "geo_point_2d": {"lon": -123.12206367118651, "lat": 49.256144186642786}}}, {"type": "Feature", "geometry": {"coordinates": [-123.12467372944224, 49.2501546018517], "type": "Point"}, "properties": {"at_street": "153", "on_street": "707", "xstreet": "W 24TH AV AND LAUREL ST", "geo_local_area": "South Cambie", "geo_point_2d": {"lon": -123.12467372944224, "lat": 49.2501546018517}}}, {"type": "Feature", "geometry": {"coordinates": [-123.12748645459806, 49.25081885228187], "type": "Point"}, "properties": {"at_street": "150", "on_street": "706", "xstreet": "LAURIER AV AND W 23RD AV", "geo_local_area": "Shaughnessy", "geo_point_2d": {"lon": -123.12748645459806, "lat": 49.25081885228187}}}, {"type": "Feature", "geometry": {"coordinates": [-123.12222990094551, 49.251624874371984], "type": "Point"}, "properties": {"at_street": "159", "on_street": "703", "xstreet": "W 22ND AV AND WILLOW ST", "geo_local_area": "South Cambie", "geo_point_2d": {"lon": -123.12222990094551, "lat": 49.251624874371984}}}, {"type": "Feature", "geometry": {"coordinates": [-123.12456920316991, 49.25257967460695], "type": "Point"}, "properties": {"at_street": "153", "on_street": "702", "xstreet": "W 21ST AV AND LAUREL ST", "geo_local_area": "South Cambie", "geo_point_2d": {"lon": -123.12456920316991, "lat": 49.25257967460695}}}, {"type": "Feature", "geometry": {"coordinates": [-123.11813033925766, 49.2569701232988], "type": "Point"}, "properties": {"at_street": "165", "on_street": "690", "xstreet": "ASH ST AND W 16TH AV", "geo_local_area": "Fairview", "geo_point_2d": {"lon": -123.11813033925766, "lat": 49.2569701232988}}}, {"type": "Feature", "geometry": {"coordinates": [-123.11604565193429, 49.255121946570995], "type": "Point"}, "properties": {"at_street": "168", "on_street": "693", "xstreet": "TUPPER ST AND W 18TH AV", "geo_local_area": "South Cambie", "geo_point_2d": {"lon": -123.11604565193429, "lat": 49.255121946570995}}}, {"type": "Feature", "geometry": {"coordinates": [-123.11820192015924, 49.25516084182795], "type": "Point"}, "properties": {"at_street": "165", "on_street": "693", "xstreet": "W 18TH AV AND ASH ST", "geo_local_area": "South Cambie", "geo_point_2d": {"lon": -123.11820192015924, "lat": 49.25516084182795}}}, {"type": "Feature", "geometry": {"coordinates": [-123.11523710907917, 49.252989620074935], "type": "Point"}, "properties": {"at_street": "170", "on_street": "697", "xstreet": "CAMBIE ST AND W 20TH AV", "geo_local_area": "South Cambie", "geo_point_2d": {"lon": -123.11523710907917, "lat": 49.252989620074935}}}, {"type": "Feature", "geometry": {"coordinates": [-123.11836940397886, 49.25064634559488], "type": "Point"}, "properties": {"at_street": "165", "on_street": "706", "xstreet": "ASH ST AND W 23RD AV", "geo_local_area": "South Cambie", "geo_point_2d": {"lon": -123.11836940397886, "lat": 49.25064634559488}}}, {"type": "Feature", "geometry": {"coordinates": [-123.11839062948354, 49.2500468908958], "type": "Point"}, "properties": {"at_street": "165", "on_street": "707", "xstreet": "ASH ST AND W 24TH AV", "geo_local_area": "South Cambie", "geo_point_2d": {"lon": -123.11839062948354, "lat": 49.2500468908958}}}, {"type": "Feature", "geometry": {"coordinates": [-123.11839317553887, 49.24215843694651], "type": "Point"}, "properties": {"at_street": "170", "on_street": "725", "xstreet": "CAMBIE ST AND W 32ND AV", "geo_local_area": "South Cambie", "geo_point_2d": {"lon": -123.11839317553887, "lat": 49.24215843694651}}}, {"type": "Feature", "geometry": {"coordinates": [-123.11843674037748, 49.24108393774942], "type": "Point"}, "properties": {"at_street": "170", "on_street": "733", "xstreet": "CAMBIE ST AND W 33RD AV", "geo_local_area": "South Cambie", "geo_point_2d": {"lon": -123.11843674037748, "lat": 49.24108393774942}}}, {"type": "Feature", "geometry": {"coordinates": [-123.1150840113954, 49.25690793755648], "type": "Point"}, "properties": {"at_street": "170", "on_street": "690", "xstreet": "W 16TH AV AND CAMBIE ST", "geo_local_area": "Fairview", "geo_point_2d": {"lon": -123.1150840113954, "lat": 49.25690793755648}}}, {"type": "Feature", "geometry": {"coordinates": [-123.10489437670532, 49.25096308046306], "type": "Point"}, "properties": {"at_street": "184", "on_street": "703", "xstreet": "E 22ND AV AND ONTARIO ST", "geo_local_area": "Riley Park", "geo_point_2d": {"lon": -123.10489437670532, "lat": 49.25096308046306}}}, {"type": "Feature", "geometry": {"coordinates": [-123.10735618449162, 49.25100986108675], "type": "Point"}, "properties": {"at_street": "182", "on_street": "703", "xstreet": "MANITOBA ST AND W 22ND AV", "geo_local_area": "Riley Park", "geo_point_2d": {"lon": -123.10735618449162, "lat": 49.25100986108675}}}, {"type": "Feature", "geometry": {"coordinates": [-123.10494092074137, 49.24991422176789], "type": "Point"}, "properties": {"at_street": "184", "on_street": "707", "xstreet": "ONTARIO ST AND E 23RD AV", "geo_local_area": "Riley Park", "geo_point_2d": {"lon": -123.10494092074137, "lat": 49.24991422176789}}}, {"type": "Feature", "geometry": {"coordinates": [-123.10740264778333, 49.24996047075276], "type": "Point"}, "properties": {"at_street": "182", "on_street": "707", "xstreet": "MANITOBA ST AND W 23RD AV", "geo_local_area": "Riley Park", "geo_point_2d": {"lon": -123.10740264778333, "lat": 49.24996047075276}}}, {"type": "Feature", "geometry": {"coordinates": [-123.10723222221064, 49.25381231217017], "type": "Point"}, "properties": {"at_street": "182", "on_street": "694", "xstreet": "MANITOBA ST AND W 19TH AV", "geo_local_area": "Riley Park", "geo_point_2d": {"lon": -123.10723222221064, "lat": 49.25381231217017}}}, {"type": "Feature", "geometry": {"coordinates": [-123.12050553691611, 49.24526935174385], "type": "Point"}, "properties": {"at_street": "163", "on_street": "718", "xstreet": "HEATHER ST AND W 29TH AV", "geo_local_area": "South Cambie", "geo_point_2d": {"lon": -123.12050553691611, "lat": 49.24526935174385}}}, {"type": "Feature", "geometry": {"coordinates": [-123.11556067042727, 49.24518900301171], "type": "Point"}, "properties": {"at_street": "170", "on_street": "718", "xstreet": "CAMBIE ST AND W 29TH AV", "geo_local_area": "South Cambie", "geo_point_2d": {"lon": -123.11556067042727, "lat": 49.24518900301171}}}, {"type": "Feature", "geometry": {"coordinates": [-123.1204757818371, 49.24619181709909], "type": "Point"}, "properties": {"at_street": "163", "on_street": "717", "xstreet": "HEATHER ST AND W 28TH AV", "geo_local_area": "South Cambie", "geo_point_2d": {"lon": -123.1204757818371, "lat": 49.24619181709909}}}, {"type": "Feature", "geometry": {"coordinates": [-123.11552291050415, 49.24610614990852], "type": "Point"}, "properties": {"at_street": "170", "on_street": "717", "xstreet": "W 28TH AV AND CAMBIE ST", "geo_local_area": "South Cambie", "geo_point_2d": {"lon": -123.11552291050415, "lat": 49.24610614990852}}}]}