{"type": "FeatureCollection", "features": [{"type": "Feature", "geometry": {"coordinates": [[-123.1179412384951, 49.24517984092121], [-123.11761795415741, 49.24528660212581]], "type": "LineString"}, "properties": {"wireset_type": "3-8", "geo_point_2d": {"lon": -123.11777959632627, "lat": 49.2452332215235}}}, {"type": "Feature", "geometry": {"coordinates": [[-123.11950741382033, 49.246122883992825], [-123.11874428917888, 49.24611543123601]], "type": "LineString"}, "properties": {"wireset_type": "3-8", "geo_point_2d": {"lon": -123.1191258514996, "lat": 49.246119157614416}}}, {"type": "Feature", "geometry": {"coordinates": [[-123.11834438472093, 49.246111856686255], [-123.11775574163991, 49.24609860550979]], "type": "LineString"}, "properties": {"wireset_type": "3-8", "geo_point_2d": {"lon": -123.1180500631804, "lat": 49.24610523109803}}}, {"type": "Feature", "geometry": {"coordinates": [[-123.11144393558867, 49.24689535858179], [-123.11142296844577, 49.246999192781054]], "type": "LineString"}, "properties": {"wireset_type": "2-10", "geo_point_2d": {"lon": -123.11143345201722, "lat": 49.24694727568142}}}, {"type": "Feature", "geometry": {"coordinates": [[-123.11247638551029, 49.25296214282504], [-123.11255130565745, 49.2530167967994], [-123.11255427525589, 49.253018938849024], [-123.11255696417152, 49.25302142413055], [-123.11255933297561, 49.253024216201226], [-123.11256134693339, 49.253027274119724], [-123.11256297651333, 49.25303055304649], [-123.11256419782019, 49.25303400490121], [-123.11256499294545, 49.25303757906787], [-123.11256535022984, 49.25304122313694], [-123.11255989918637, 49.2533634822952]], "type": "LineString"}, "properties": {"wireset_type": "2-12", "geo_point_2d": {"lon": -123.11255229092164, "lat": 49.25314641980967}}}, {"type": "Feature", "geometry": {"coordinates": [[-123.11437941870346, 49.247605127891866], [-123.11438953747896, 49.247221129423586], [-123.11436732686037, 49.24721824595276], [-123.1143469666238, 49.247052753835355], [-123.114301426154, 49.247050145306815]], "type": "LineString"}, "properties": {"wireset_type": null, "geo_point_2d": {"lon": -123.11437245258126, "lat": 49.24730467159559}}}, {"type": "Feature", "geometry": {"coordinates": [[-123.11230637445829, 49.247486346723996], [-123.11230186334777, 49.24758742152902]], "type": "LineString"}, "properties": {"wireset_type": "2-12", "geo_point_2d": {"lon": -123.11230411890303, "lat": 49.247536884126504}}}, {"type": "Feature", "geometry": {"coordinates": [[-123.11699446200544, 49.24791851178891], [-123.1163779490154, 49.24791810901005]], "type": "LineString"}, "properties": {"wireset_type": "3-10", "geo_point_2d": {"lon": -123.11668620551042, "lat": 49.247918310399484}}}, {"type": "Feature", "geometry": {"coordinates": [[-123.11654792940818, 49.2477778189437], [-123.11654645543477, 49.247892968384186], [-123.11641887742337, 49.247893097013105], [-123.1163779490154, 49.24791810901005]], "type": "LineString"}, "properties": {"wireset_type": null, "geo_point_2d": {"lon": -123.11649432593839, "lat": 49.24787227370877}}}, {"type": "Feature", "geometry": {"coordinates": [[-123.1177626627029, 49.24701561750129], [-123.11776155410008, 49.24710987967147]], "type": "LineString"}, "properties": {"wireset_type": "2-10", "geo_point_2d": {"lon": -123.11776210840151, "lat": 49.24706274858638}}}, {"type": "Feature", "geometry": {"coordinates": [[-123.10958800004796, 49.24779222247096], [-123.1090974156286, 49.24778453709879]], "type": "LineString"}, "properties": {"wireset_type": "3-8", "geo_point_2d": {"lon": -123.10934270783828, "lat": 49.24778837978488}}}, {"type": "Feature", "geometry": {"coordinates": [[-123.10958800004796, 49.24779222247096], [-123.10958454761771, 49.247883707242956], [-123.1097557055484, 49.24788789845954]], "type": "LineString"}, "properties": {"wireset_type": "2-10", "geo_point_2d": {"lon": -123.10964091081343, "lat": 49.24786913525457}}}, {"type": "Feature", "geometry": {"coordinates": [[-123.11775574163991, 49.24609860550979], [-123.11710701813375, 49.2460867165593]], "type": "LineString"}, "properties": {"wireset_type": "3-10", "geo_point_2d": {"lon": -123.11743137988681, "lat": 49.246092661034545}}}, {"type": "Feature", "geometry": {"coordinates": [[-123.11710701813375, 49.2460867165593], [-123.1164838915286, 49.246074582275064]], "type": "LineString"}, "properties": {"wireset_type": "3-10", "geo_point_2d": {"lon": -123.11679545483118, "lat": 49.24608064941718}}}, {"type": "Feature", "geometry": {"coordinates": [[-123.11661105201713, 49.24589914587884], [-123.1166066999618, 49.24602313158252], [-123.11660588507861, 49.246026422081194], [-123.11660480701319, 49.24602963598709], [-123.11660347281399, 49.24603275228757], [-123.11660189120406, 49.24603575060813], [-123.11660007252401, 49.24603861134563], [-123.11659802866446, 49.24604131579646], [-123.11659577298822, 49.24604384627881], [-123.11659332024303, 49.246046186248286], [-123.11659068646499, 49.246048320406075], [-123.1165878888739, 49.24605023479897], [-123.11658494576047, 49.246051916910595], [-123.11658187636691, 49.24605335574324], [-123.11657870076104, 49.246054541889755], [-123.1165754397051, 49.24605546759507], [-123.11657211452, 49.246056126806884], [-123.11656874694593, 49.246056515215244], [-123.1164838915286, 49.246074582275064]], "type": "LineString"}, "properties": {"wireset_type": "3-10", "geo_point_2d": {"lon": -123.11657828072384, "lat": 49.246012273424675}}}, {"type": "Feature", "geometry": {"coordinates": [[-123.11874428917888, 49.24611543123601], [-123.1186856609618, 49.24611516765214], [-123.11868122652903, 49.246115651087415], [-123.11867676646688, 49.246115726910936], [-123.11867231816404, 49.24611539448706], [-123.11866791891069, 49.24611465660252], [-123.11866360558577, 49.24611351944299], [-123.1186594143479, 49.24611199254129], [-123.11865538033224, 49.246110088697435], [-123.11865153735599, 49.24610782387136], [-123.1186479176348, 49.24610521704912], [-123.11864455151283, 49.246102290083705], [-123.11864146720828, 49.246099067511885], [-123.1186386905769, 49.246095576348495], [-123.1186362448952, 49.24609184585996], [-123.11863415066533, 49.246087907318994], [-123.11863242544324, 49.24608379374239], [-123.11863108369147, 49.2460795396143], [-123.11863057927503, 49.246046779490065]], "type": "LineString"}, "properties": {"wireset_type": "3-8", "geo_point_2d": {"lon": -123.11867124475361, "lat": 49.24609995608749}}}, {"type": "Feature", "geometry": {"coordinates": [[-123.11657538373508, 49.245146262737414], [-123.11656274907321, 49.24529459791916], [-123.11661782255598, 49.24529106118397]], "type": "LineString"}, "properties": {"wireset_type": "3-10", "geo_point_2d": {"lon": -123.1165748051012, "lat": 49.245240010382616}}}, {"type": "Feature", "geometry": {"coordinates": [[-123.11834438472093, 49.246111856686255], [-123.11834473884058, 49.246202537275764]], "type": "LineString"}, "properties": {"wireset_type": "2-10", "geo_point_2d": {"lon": -123.11834456178076, "lat": 49.24615719698101}}}, {"type": "Feature", "geometry": {"coordinates": [[-123.1130725947228, 49.247871854575436], [-123.11239052257723, 49.247851075489834]], "type": "LineString"}, "properties": {"wireset_type": "2-10", "geo_point_2d": {"lon": -123.11273155865003, "lat": 49.247861465032635}}}, {"type": "Feature", "geometry": {"coordinates": [[-123.114301426154, 49.247050145306815], [-123.11425588568893, 49.24704753676032]], "type": "LineString"}, "properties": {"wireset_type": null, "geo_point_2d": {"lon": -123.11427865592148, "lat": 49.24704884103357}}}, {"type": "Feature", "geometry": {"coordinates": [[-123.11204701810367, 49.248817271981565], [-123.11199894870319, 49.248827177362536]], "type": "LineString"}, "properties": {"wireset_type": "2-12", "geo_point_2d": {"lon": -123.1120229834034, "lat": 49.24882222467206}}}, {"type": "Feature", "geometry": {"coordinates": [[-123.1099685040355, 49.24669525221156], [-123.10943219696907, 49.2464295025648]], "type": "LineString"}, "properties": {"wireset_type": "3-10", "geo_point_2d": {"lon": -123.10970035050231, "lat": 49.24656237738818}}}, {"type": "Feature", "geometry": {"coordinates": [[-123.1085192299023, 49.24700855929099], [-123.10803301000257, 49.246654962636796]], "type": "LineString"}, "properties": {"wireset_type": "2-10", "geo_point_2d": {"lon": -123.10827611995244, "lat": 49.24683176096389}}}, {"type": "Feature", "geometry": {"coordinates": [[-123.11006021689784, 49.24718308426387], [-123.11008079329874, 49.24721737247406], [-123.10983209318157, 49.247580674708466]], "type": "LineString"}, "properties": {"wireset_type": "3-4", "geo_point_2d": {"lon": -123.10996594046082, "lat": 49.24738247115095}}}, {"type": "Feature", "geometry": {"coordinates": [[-123.11370581095461, 49.24787038754648], [-123.11307501529792, 49.24786082405325]], "type": "LineString"}, "properties": {"wireset_type": "3-10", "geo_point_2d": {"lon": -123.11339041312628, "lat": 49.24786560579986}}}, {"type": "Feature", "geometry": {"coordinates": [[-123.11004636000042, 49.24661118958998], [-123.1099685040355, 49.24669525221156]], "type": "LineString"}, "properties": {"wireset_type": null, "geo_point_2d": {"lon": -123.11000743201797, "lat": 49.24665322090077}}}, {"type": "Feature", "geometry": {"coordinates": [[-123.11424371498099, 49.24787063947326], [-123.11424616940793, 49.247969674538126]], "type": "LineString"}, "properties": {"wireset_type": "2-10", "geo_point_2d": {"lon": -123.11424494219446, "lat": 49.247920157005694}}}, {"type": "Feature", "geometry": {"coordinates": [[-123.11138433290617, 49.24781829084528], [-123.11072166467542, 49.247767349174474], [-123.11070352869747, 49.247765690853825], [-123.11068545070874, 49.247763488571536], [-123.11066744702084, 49.247760744314704], [-123.11064953387832, 49.24775746055945], [-123.11026133748976, 49.247679986972436]], "type": "LineString"}, "properties": {"wireset_type": "3-10", "geo_point_2d": {"lon": -123.11082065792077, "lat": 49.2477650278765}}}, {"type": "Feature", "geometry": {"coordinates": [[-123.1096240041054, 49.247620550310515], [-123.10978678509073, 49.24767058912708], [-123.10979107317779, 49.247671545624115], [-123.10979527863495, 49.2476728171222], [-123.10979937835631, 49.24767439663539], [-123.10980334981697, 49.24767627548544], [-123.10980717119668, 49.24767844334944], [-123.10981082149978, 49.24768088831661], [-123.10981428067058, 49.24768359695365], [-123.10981752970349, 49.24768655437861], [-123.10982055074747, 49.24768974434263], [-123.10982332720414, 49.247693149319225], [-123.10982584381892, 49.24769675060056], [-123.10982808676486, 49.24770052840027], [-123.10983004371867, 49.24770446196215], [-123.10983170392831, 49.247708529674185], [-123.10983305827216, 49.24771270918731], [-123.10983409930911, 49.2477169775382], [-123.10983658289729, 49.247752614282156], [-123.1097816689597, 49.247779984992725], [-123.10977589489853, 49.247782546168985], [-123.10976998678836, 49.24778478081441], [-123.10976396307807, 49.247786681951034], [-123.10975784257755, 49.24778824364226], [-123.10975164439894, 49.24778946101151], [-123.1097453878969, 49.24779033025737], [-123.10973909260825, 49.24779084866548], [-123.10973277819093, 49.247791014617064], [-123.10958800004796, 49.24779222247096]], "type": "LineString"}, "properties": {"wireset_type": "3-8", "geo_point_2d": {"lon": -123.10973324424313, "lat": 49.247724288239056}}}, {"type": "Feature", "geometry": {"coordinates": [[-123.12029987964706, 49.24613868471809], [-123.11950741382033, 49.246122883992825]], "type": "LineString"}, "properties": {"wireset_type": "2-8", "geo_point_2d": {"lon": -123.11990364673369, "lat": 49.24613078435546}}}, {"type": "Feature", "geometry": {"coordinates": [[-123.11424371498099, 49.24787063947326], [-123.11370581095461, 49.24787038754648]], "type": "LineString"}, "properties": {"wireset_type": "2-10", "geo_point_2d": {"lon": -123.11397476296781, "lat": 49.247870513509866}}}, {"type": "Feature", "geometry": {"coordinates": [[-123.11373044170476, 49.247042451182736], [-123.11305678416542, 49.24703132862599]], "type": "LineString"}, "properties": {"wireset_type": "3-10", "geo_point_2d": {"lon": -123.11339361293507, "lat": 49.247036889904365}}}, {"type": "Feature", "geometry": {"coordinates": [[-123.11138237722857, 49.2479139929916], [-123.11064972169729, 49.24790299421962]], "type": "LineString"}, "properties": {"wireset_type": "2-10", "geo_point_2d": {"lon": -123.11101604946295, "lat": 49.247908493605614}}}, {"type": "Feature", "geometry": {"coordinates": [[-123.11016611683475, 49.24766098093508], [-123.10983209318157, 49.247580674708466]], "type": "LineString"}, "properties": {"wireset_type": "3-8", "geo_point_2d": {"lon": -123.10999910500816, "lat": 49.24762082782178}}}, {"type": "Feature", "geometry": {"coordinates": [[-123.1121433958297, 49.24833877617124], [-123.11212392688887, 49.24878224190537], [-123.11212330603655, 49.24878473161333], [-123.11212248506551, 49.248787162685076], [-123.11212146939796, 49.24878951906423], [-123.11212026574205, 49.248791785187734], [-123.1121188820475, 49.24879394608863], [-123.1121173274531, 49.248795987494915], [-123.11211561222646, 49.24879789592381], [-123.11211374769603, 49.24879965877081], [-123.11211174617637, 49.24880126439292], [-123.11210962088683, 49.248802702185564], [-123.11210738586422, 49.24880396265263], [-123.11210505587007, 49.24880503746916], [-123.1121026462932, 49.24880591953638], [-123.112100173048, 49.248806603028534], [-123.11209765246942, 49.24880708343139], [-123.11209510120499, 49.24880735757206], [-123.11204701810367, 49.248817271981565]], "type": "LineString"}, "properties": {"wireset_type": "2-12", "geo_point_2d": {"lon": -123.11212626463002, "lat": 49.24860191527172}}}, {"type": "Feature", "geometry": {"coordinates": [[-123.11831369623064, 49.2471207574829], [-123.11776155410008, 49.24710987967147]], "type": "LineString"}, "properties": {"wireset_type": "2-10", "geo_point_2d": {"lon": -123.11803762516537, "lat": 49.24711531857719}}}, {"type": "Feature", "geometry": {"coordinates": [[-123.11709432588816, 49.247093296007186], [-123.11657738834664, 49.24708328536847]], "type": "LineString"}, "properties": {"wireset_type": "3-10", "geo_point_2d": {"lon": -123.1168358571174, "lat": 49.24708829068783}}}, {"type": "Feature", "geometry": {"coordinates": [[-123.1106954302091, 49.24689878575174], [-123.11036387293146, 49.2468258277947]], "type": "LineString"}, "properties": {"wireset_type": "3-10", "geo_point_2d": {"lon": -123.11052965157029, "lat": 49.246862306773224}}}, {"type": "Feature", "geometry": {"coordinates": [[-123.11026133748976, 49.247679986972436], [-123.11016611683475, 49.24766098093508]], "type": "LineString"}, "properties": {"wireset_type": "3-10", "geo_point_2d": {"lon": -123.11021372716228, "lat": 49.247670483953755}}}, {"type": "Feature", "geometry": {"coordinates": [[-123.11288286405158, 49.249749947174045], [-123.11288275504891, 49.24970213764378], [-123.11288164618455, 49.249692556685424], [-123.11288102203827, 49.24968293198882], [-123.1128808841993, 49.24967328806101], [-123.11288123301861, 49.249663649457986], [-123.11288206760806, 49.249654040722184], [-123.11288338584251, 49.249644486319994], [-123.11288518436541, 49.24963501057947], [-123.11288745859724, 49.24962563762834], [-123.11289104403501, 49.24958908651281]], "type": "LineString"}, "properties": {"wireset_type": "2-12", "geo_point_2d": {"lon": -123.11288415659897, "lat": 49.24966935195994}}}, {"type": "Feature", "geometry": {"coordinates": [[-123.113737288476, 49.24694260635904], [-123.11373044170476, 49.247042451182736]], "type": "LineString"}, "properties": {"wireset_type": "2-10", "geo_point_2d": {"lon": -123.11373386509038, "lat": 49.24699252877089}}}, {"type": "Feature", "geometry": {"coordinates": [[-123.11305678416542, 49.24703132862599], [-123.11251639673944, 49.24702257309943]], "type": "LineString"}, "properties": {"wireset_type": "2-10", "geo_point_2d": {"lon": -123.11278659045243, "lat": 49.247026950862704}}}, {"type": "Feature", "geometry": {"coordinates": [[-123.11776155410008, 49.24710987967147], [-123.11709432588816, 49.247093296007186]], "type": "LineString"}, "properties": {"wireset_type": "3-10", "geo_point_2d": {"lon": -123.11742793999412, "lat": 49.247101587839325}}}, {"type": "Feature", "geometry": {"coordinates": [[-123.11645750630261, 49.24698971193434], [-123.1164575523052, 49.247079376364184], [-123.11657738834664, 49.24708328536847]], "type": "LineString"}, "properties": {"wireset_type": "2-10", "geo_point_2d": {"lon": -123.11649182387617, "lat": 49.247061312635935}}}, {"type": "Feature", "geometry": {"coordinates": [[-123.10968206439134, 49.247537325296406], [-123.10904913655989, 49.247293524010495]], "type": "LineString"}, "properties": {"wireset_type": "3-8", "geo_point_2d": {"lon": -123.10936560047561, "lat": 49.24741542465345}}}, {"type": "Feature", "geometry": {"coordinates": [[-123.11762794327036, 49.247935859008535], [-123.11699446200544, 49.24791851178891]], "type": "LineString"}, "properties": {"wireset_type": "3-10", "geo_point_2d": {"lon": -123.1173112026379, "lat": 49.24792718539872}}}, {"type": "Feature", "geometry": {"coordinates": [[-123.1090974156286, 49.24778453709879], [-123.10837624325818, 49.24777075152941]], "type": "LineString"}, "properties": {"wireset_type": "3-10", "geo_point_2d": {"lon": -123.10873682944337, "lat": 49.2477776443141}}}, {"type": "Feature", "geometry": {"coordinates": [[-123.11205654299525, 49.2470091853737], [-123.11142296844577, 49.246999192781054]], "type": "LineString"}, "properties": {"wireset_type": "2-10", "geo_point_2d": {"lon": -123.1117397557205, "lat": 49.24700418907737}}}, {"type": "Feature", "geometry": {"coordinates": [[-123.10891644802902, 49.24315173931547], [-123.10841813035636, 49.243393667210476]], "type": "LineString"}, "properties": {"wireset_type": "2-12", "geo_point_2d": {"lon": -123.1086672891927, "lat": 49.243272703262974}}}, {"type": "Feature", "geometry": {"coordinates": [[-123.1185370500879, 49.24891540992589], [-123.11853555966758, 49.24884384540852], [-123.11833993852377, 49.24883922450741]], "type": "LineString"}, "properties": {"wireset_type": "3-6", "geo_point_2d": {"lon": -123.11846414563318, "lat": 49.24885173746061}}}, {"type": "Feature", "geometry": {"coordinates": [[-123.11845896660923, 49.246045435386655], [-123.11845965511255, 49.246074786129185], [-123.11845843992641, 49.24607911381096], [-123.11845682441204, 49.24608330852431], [-123.11845482279669, 49.24608733332777], [-123.11845245270797, 49.2460911527762], [-123.11844973501847, 49.24609473323297], [-123.11844669366201, 49.24609804316615], [-123.1184433554228, 49.24610105342625], [-123.11843974969965, 49.246103737502885], [-123.11843590824697, 49.24610607175826], [-123.11843186489519, 49.24610803563536], [-123.11842765525279, 49.246109611838946], [-123.11842331639272, 49.24611078648792], [-123.11841888652592, 49.24611154923752], [-123.11841440466476, 49.24611189337047], [-123.11840991027957, 49.24611181585609], [-123.11840544295089, 49.24611131737703], [-123.11834438472093, 49.246111856686255]], "type": "LineString"}, "properties": {"wireset_type": "3-8", "geo_point_2d": {"lon": -123.11841780906998, "lat": 49.24609718009967}}}, {"type": "Feature", "geometry": {"coordinates": [[-123.11812158335601, 49.24101531995335], [-123.11811388910263, 49.24114172895742]], "type": "LineString"}, "properties": {"wireset_type": "2-8", "geo_point_2d": {"lon": -123.11811773622932, "lat": 49.24107852445539}}}, {"type": "Feature", "geometry": {"coordinates": [[-123.10837624325818, 49.24777075152941], [-123.1076504167201, 49.2477585129748]], "type": "LineString"}, "properties": {"wireset_type": "2-10", "geo_point_2d": {"lon": -123.10801332998915, "lat": 49.2477646322521}}}, {"type": "Feature", "geometry": {"coordinates": [[-123.11425588568893, 49.24704753676032], [-123.11373044170476, 49.247042451182736]], "type": "LineString"}, "properties": {"wireset_type": "3-10", "geo_point_2d": {"lon": -123.11399316369685, "lat": 49.24704499397153}}}, {"type": "Feature", "geometry": {"coordinates": [[-123.11762794327036, 49.247935859008535], [-123.11824529116997, 49.24794631093081], [-123.11824924303141, 49.24804763816263]], "type": "LineString"}, "properties": {"wireset_type": "2-10", "geo_point_2d": {"lon": -123.11798043948264, "lat": 49.24794896911149}}}, {"type": "Feature", "geometry": {"coordinates": [[-123.1097557055484, 49.24788789845954], [-123.10988440380065, 49.24789105038712]], "type": "LineString"}, "properties": {"wireset_type": "2-10", "geo_point_2d": {"lon": -123.1098200546745, "lat": 49.24788947442333}}}, {"type": "Feature", "geometry": {"coordinates": [[-123.1091460623376, 49.246085669589505], [-123.10903244759818, 49.246141520332195], [-123.10943219696907, 49.2464295025648]], "type": "LineString"}, "properties": {"wireset_type": "2-10", "geo_point_2d": {"lon": -123.10920307484422, "lat": 49.246250366334955}}}, {"type": "Feature", "geometry": {"coordinates": [[-123.10904913655989, 49.247293524010495], [-123.1085192299023, 49.24700855929099]], "type": "LineString"}, "properties": {"wireset_type": "3-10", "geo_point_2d": {"lon": -123.1087841832311, "lat": 49.24715104165074}}}, {"type": "Feature", "geometry": {"coordinates": [[-123.11289104403501, 49.24958908651281], [-123.1127297615762, 49.249585789828224]], "type": "LineString"}, "properties": {"wireset_type": null, "geo_point_2d": {"lon": -123.11281040280561, "lat": 49.24958743817052}}}, {"type": "Feature", "geometry": {"coordinates": [[-123.11036387293146, 49.2468258277947], [-123.1101077338322, 49.24717861333301], [-123.11006021689784, 49.24718308426387]], "type": "LineString"}, "properties": {"wireset_type": "3-8", "geo_point_2d": {"lon": -123.11022082219543, "lat": 49.24701984618353}}}, {"type": "Feature", "geometry": {"coordinates": [[-123.11713771863961, 49.24097776812039], [-123.11713371535782, 49.24109165194044], [-123.11690286926286, 49.241097381859504]], "type": "LineString"}, "properties": {"wireset_type": "2-8", "geo_point_2d": {"lon": -123.1170570923775, "lat": 49.24107475520772}}}, {"type": "Feature", "geometry": {"coordinates": [[-123.11710701813375, 49.2460867165593], [-123.11710812608058, 49.24618337821869]], "type": "LineString"}, "properties": {"wireset_type": "2-10", "geo_point_2d": {"lon": -123.11710757210716, "lat": 49.24613504738899}}}, {"type": "Feature", "geometry": {"coordinates": [[-123.10837624325818, 49.24777075152941], [-123.10837644270211, 49.2478618730301]], "type": "LineString"}, "properties": {"wireset_type": "2-10", "geo_point_2d": {"lon": -123.10837634298014, "lat": 49.24781631227975}}}, {"type": "Feature", "geometry": {"coordinates": [[-123.11207256218668, 49.24793118106228], [-123.11138237722857, 49.2479139929916]], "type": "LineString"}, "properties": {"wireset_type": "2-10", "geo_point_2d": {"lon": -123.11172746970765, "lat": 49.247922587026935}}}, {"type": "Feature", "geometry": {"coordinates": [[-123.11036387293146, 49.2468258277947], [-123.1099685040355, 49.24669525221156]], "type": "LineString"}, "properties": {"wireset_type": "3-10", "geo_point_2d": {"lon": -123.11016618848348, "lat": 49.24676054000313}}}, {"type": "Feature", "geometry": {"coordinates": [[-123.10737535371264, 49.25241656054954], [-123.107364069487, 49.25271324249623], [-123.10736482706535, 49.25271633454604], [-123.10736586757041, 49.25271934320789], [-123.10736718206996, 49.25272224265402], [-123.10736875927977, 49.25272500799419], [-123.10737058566026, 49.25272761548939], [-123.10737264553295, 49.25273004275566], [-123.10737492121487, 49.252732268956166], [-123.10737739317052, 49.25273427498015], [-123.10738004017944, 49.25273604360695], [-123.10738283951844, 49.25273755965382], [-123.10738576715666, 49.252738810106315], [-123.10738879796186, 49.252739784229924], [-123.10739190591616, 49.25274047366232], [-123.1073950643394, 49.25274087248509], [-123.10739824611817, 49.25274097727454], [-123.10740142393855, 49.25274078713112], [-123.10746610054808, 49.252744756849]], "type": "LineString"}, "properties": {"wireset_type": "2-12", "geo_point_2d": {"lon": -123.10738094419622, "lat": 49.252613435057626}}}, {"type": "Feature", "geometry": {"coordinates": [[-123.11307501529792, 49.24786082405325], [-123.11307663968257, 49.24795240290865]], "type": "LineString"}, "properties": {"wireset_type": "2-10", "geo_point_2d": {"lon": -123.11307582749025, "lat": 49.24790661348096}}}, {"type": "Feature", "geometry": {"coordinates": [[-123.11424371498099, 49.24787063947326], [-123.11370581095461, 49.24787038754648]], "type": "LineString"}, "properties": {"wireset_type": "3-10", "geo_point_2d": {"lon": -123.11397476296781, "lat": 49.247870513509866}}}, {"type": "Feature", "geometry": {"coordinates": [[-123.12441309468312, 49.254628422851695], [-123.12440991246707, 49.25477296148554]], "type": "LineString"}, "properties": {"wireset_type": "2-12", "geo_point_2d": {"lon": -123.12441150357508, "lat": 49.25470069216862}}}, {"type": "Feature", "geometry": {"coordinates": [[-123.11699446200544, 49.24791851178891], [-123.11699434188179, 49.24802468262118]], "type": "LineString"}, "properties": {"wireset_type": "2-10", "geo_point_2d": {"lon": -123.11699440194361, "lat": 49.247971597205044}}}, {"type": "Feature", "geometry": {"coordinates": [[-123.11142296844577, 49.246999192781054], [-123.1106954302091, 49.24689878575174]], "type": "LineString"}, "properties": {"wireset_type": "3-10", "geo_point_2d": {"lon": -123.11105919932743, "lat": 49.24694898926639}}}]}