{"type": "FeatureCollection", "features": [{"type": "Feature", "geometry": {"coordinates": [-123.10908185940777, 49.24299330304019], "type": "Point"}, "properties": {"type": "Semi Actuated", "geo_local_area": "Riley Park", "geo_point_2d": {"lon": -123.10908185940777, "lat": 49.24299330304019}}}, {"type": "Feature", "geometry": {"coordinates": [-123.12744901510123, 49.25172286792557], "type": "Point"}, "properties": {"type": "Pedestrian Actuated Signal", "geo_local_area": "Shaughnessy", "geo_point_2d": {"lon": -123.12744901510123, "lat": 49.25172286792557}}}, {"type": "Feature", "geometry": {"coordinates": [-123.11513585243866, 49.255881332748665], "type": "Point"}, "properties": {"type": "Pedestrian Actuated Signal", "geo_local_area": "South Cambie", "geo_point_2d": {"lon": -123.11513585243866, "lat": 49.255881332748665}}}, {"type": "Feature", "geometry": {"coordinates": [-123.11519444493456, 49.253995174616996], "type": "Point"}, "properties": {"type": "Pedestrian Actuated Signal", "geo_local_area": "South Cambie", "geo_point_2d": {"lon": -123.11519444493456, "lat": 49.253995174616996}}}, {"type": "Feature", "geometry": {"coordinates": [-123.1154060583567, 49.24899087459865], "type": "Point"}, "properties": {"type": "Fixed Time", "geo_local_area": "South Cambie", "geo_point_2d": {"lon": -123.1154060583567, "lat": 49.24899087459865}}}, {"type": "Feature", "geometry": {"coordinates": [-123.12754634403683, 49.249231613211585], "type": "Point"}, "properties": {"type": "Fully Actuated", "geo_local_area": "Shaughnessy", "geo_point_2d": {"lon": -123.12754634403683, "lat": 49.249231613211585}}}, {"type": "Feature", "geometry": {"coordinates": [-123.11556067042726, 49.245189002083436], "type": "Point"}, "properties": {"type": "Semi Actuated", "geo_local_area": "South Cambie", "geo_point_2d": {"lon": -123.11556067042726, "lat": 49.245189002083436}}}, {"type": "Feature", "geometry": {"coordinates": [-123.11733765687327, 49.243710687861096], "type": "Point"}, "properties": {"type": "Semi Actuated", "geo_local_area": "South Cambie", "geo_point_2d": {"lon": -123.11733765687327, "lat": 49.243710687861096}}}, {"type": "Feature", "geometry": {"coordinates": [-123.12761785484548, 49.24724489249264], "type": "Point"}, "properties": {"type": "Pedestrian Actuated Signal", "geo_local_area": "Shaughnessy", "geo_point_2d": {"lon": -123.12761785484548, "lat": 49.24724489249264}}}, {"type": "Feature", "geometry": {"coordinates": [-123.11515613345091, 49.2548994753615], "type": "Point"}, "properties": {"type": "Pedestrian Actuated Signal", "geo_local_area": "South Cambie", "geo_point_2d": {"lon": -123.11515613345091, "lat": 49.2548994753615}}}, {"type": "Feature", "geometry": {"coordinates": [-123.12765061729289, 49.24630920810896], "type": "Point"}, "properties": {"type": "Pedestrian Actuated Signal", "geo_local_area": "Shaughnessy", "geo_point_2d": {"lon": -123.12765061729289, "lat": 49.24630920810896}}}, {"type": "Feature", "geometry": {"coordinates": [-123.11531269753135, 49.251200105748104], "type": "Point"}, "properties": {"type": "Pedestrian Actuated Signal", "geo_local_area": "South Cambie", "geo_point_2d": {"lon": -123.11531269753135, "lat": 49.251200105748104}}}, {"type": "Feature", "geometry": {"coordinates": [-123.1150840113954, 49.25690793662826], "type": "Point"}, "properties": {"type": "Fixed Time", "geo_local_area": "Fairview", "geo_point_2d": {"lon": -123.1150840113954, "lat": 49.25690793662826}}}, {"type": "Feature", "geometry": {"coordinates": [-123.11843674037748, 49.24108393682112], "type": "Point"}, "properties": {"type": "Semi Actuated", "geo_local_area": "South Cambie", "geo_point_2d": {"lon": -123.11843674037748, "lat": 49.24108393682112}}}, {"type": "Feature", "geometry": {"coordinates": [-123.10498909784886, 49.24884586778858], "type": "Point"}, "properties": {"type": "Pedestrian Actuated Signal", "geo_local_area": "Riley Park", "geo_point_2d": {"lon": -123.10498909784886, "lat": 49.24884586778858}}}, {"type": "Feature", "geometry": {"coordinates": [-123.12036974492658, 49.24907719221505], "type": "Point"}, "properties": {"type": "Pedestrian Actuated Signal", "geo_local_area": "South Cambie", "geo_point_2d": {"lon": -123.12036974492658, "lat": 49.24907719221505}}}, {"type": "Feature", "geometry": {"coordinates": [-123.12471346313353, 49.24917071390008], "type": "Point"}, "properties": {"type": "Pedestrian Actuated Signal", "geo_local_area": "South Cambie", "geo_point_2d": {"lon": -123.12471346313353, "lat": 49.24917071390008}}}, {"type": "Feature", "geometry": {"coordinates": [-123.1152371090792, 49.25298961914669], "type": "Point"}, "properties": {"type": "Pedestrian Actuated Signal", "geo_local_area": "South Cambie", "geo_point_2d": {"lon": -123.1152371090792, "lat": 49.25298961914669}}}]}