{"type": "FeatureCollection", "features": [{"type": "Feature", "geometry": {"coordinates": [[-123.1206840303738, 49.241487710243305], [-123.12068923501126, 49.2413345698172]], "type": "LineString"}, "properties": {"diameter_mm": 600, "installation_date": "1977-01-01", "lining_material": "Cement Lined", "material": "Ductile Iron", "geo_point_2d": {"lon": -123.12068663269254, "lat": 49.24141114003025}}}, {"type": "Feature", "geometry": {"coordinates": [[-123.12042164317012, 49.249094157105766], [-123.12041788483499, 49.249187261645964]], "type": "LineString"}, "properties": {"diameter_mm": 600, "installation_date": "1977-01-01", "lining_material": "Cement Lined", "material": "Ductile Iron", "geo_point_2d": {"lon": -123.12041976400253, "lat": 49.249140709375865}}}, {"type": "Feature", "geometry": {"coordinates": [[-123.12042241750349, 49.24907355722343], [-123.12042216106974, 49.249081113483385]], "type": "LineString"}, "properties": {"diameter_mm": 600, "installation_date": "1977-01-01", "lining_material": "Cement Lined", "material": "Ductile Iron", "geo_point_2d": {"lon": -123.12042228928661, "lat": 49.249077335353405}}}, {"type": "Feature", "geometry": {"coordinates": [[-123.11575624579544, 49.24093654114163], [-123.11575965934522, 49.24092754247937]], "type": "LineString"}, "properties": {"diameter_mm": 750, "installation_date": "1959-01-01", "lining_material": "Coal Tar", "material": "Steel", "geo_point_2d": {"lon": -123.11575795257032, "lat": 49.240932041810495}}}, {"type": "Feature", "geometry": {"coordinates": [[-123.11644204544714, 49.24106337748702], [-123.11575236123917, 49.24103792140888]], "type": "LineString"}, "properties": {"diameter_mm": 1200, "installation_date": "1946-01-01", "lining_material": "blank", "material": "Steel", "geo_point_2d": {"lon": -123.11609720334316, "lat": 49.24105064944795}}}, {"type": "Feature", "geometry": {"coordinates": [[-123.11373932911215, 49.24198071508693], [-123.11431308930558, 49.24170441767845]], "type": "LineString"}, "properties": {"diameter_mm": 1200, "installation_date": null, "lining_material": "blank", "material": "<blank>", "geo_point_2d": {"lon": -123.11402620920887, "lat": 49.24184256638269}}}, {"type": "Feature", "geometry": {"coordinates": [[-123.1202672276673, 49.25334848415633], [-123.12030001886762, 49.25246202472587], [-123.12033357053944, 49.251538396085415]], "type": "LineString"}, "properties": {"diameter_mm": 600, "installation_date": "1998-01-01", "lining_material": null, "material": "Ductile Iron Concrete Lined", "geo_point_2d": {"lon": -123.12030054936264, "lat": 49.25244344562916}}}, {"type": "Feature", "geometry": {"coordinates": [[-123.1173146451881, 49.24109553420157], [-123.11644204544714, 49.24106337748702]], "type": "LineString"}, "properties": {"diameter_mm": 1200, "installation_date": "1946-01-01", "lining_material": "blank", "material": "Steel", "geo_point_2d": {"lon": -123.11687834531762, "lat": 49.2410794558443}}}, {"type": "Feature", "geometry": {"coordinates": [[-123.11575167390244, 49.24103774219272], [-123.11575624579544, 49.24093654114163]], "type": "LineString"}, "properties": {"diameter_mm": 750, "installation_date": "1959-01-01", "lining_material": "Coal Tar", "material": "Steel", "geo_point_2d": {"lon": -123.11575395984894, "lat": 49.240987141667176}}}, {"type": "Feature", "geometry": {"coordinates": [[-123.11575965934522, 49.24092754247937], [-123.11577268652357, 49.24091717590175]], "type": "LineString"}, "properties": {"diameter_mm": 750, "installation_date": "1959-01-01", "lining_material": "Coal Tar", "material": "Steel", "geo_point_2d": {"lon": -123.1157661729344, "lat": 49.24092235919056}}}, {"type": "Feature", "geometry": {"coordinates": [[-123.11560109020543, 49.24102701772417], [-123.11556956563581, 49.240999703729806]], "type": "LineString"}, "properties": {"diameter_mm": 600, "installation_date": null, "lining_material": "blank", "material": "<blank>", "geo_point_2d": {"lon": -123.11558532792063, "lat": 49.24101336072699}}}, {"type": "Feature", "geometry": {"coordinates": [[-123.1150172020106, 49.24907438729058], [-123.11513925079484, 49.24907648754248]], "type": "LineString"}, "properties": {"diameter_mm": 650, "installation_date": "2008-01-01", "lining_material": "blank", "material": "Ductile Iron Concrete Lined", "geo_point_2d": {"lon": -123.11507822640272, "lat": 49.24907543741653}}}, {"type": "Feature", "geometry": {"coordinates": [[-123.10751481453543, 49.24894185379929], [-123.10743240910767, 49.24894031131589]], "type": "LineString"}, "properties": {"diameter_mm": 650, "installation_date": "2008-01-01", "lining_material": "blank", "material": "Ductile Iron Concrete Lined", "geo_point_2d": {"lon": -123.10747361182153, "lat": 49.24894108255759}}}, {"type": "Feature", "geometry": {"coordinates": [[-123.11460631391924, 49.24089230663985], [-123.1155743868386, 49.240975744577845]], "type": "LineString"}, "properties": {"diameter_mm": 650, "installation_date": null, "lining_material": "blank", "material": "<blank>", "geo_point_2d": {"lon": -123.11509035037892, "lat": 49.24093402560885}}}, {"type": "Feature", "geometry": {"coordinates": [[-123.11587764797429, 49.24101140377029], [-123.11588073936952, 49.24101151760762]], "type": "LineString"}, "properties": {"diameter_mm": 650, "installation_date": null, "lining_material": "blank", "material": "<blank>", "geo_point_2d": {"lon": -123.11587919367192, "lat": 49.24101146068895}}}, {"type": "Feature", "geometry": {"coordinates": [[-123.11498011468339, 49.249073749564594], [-123.1146783385011, 49.24906548604768], [-123.11362044835325, 49.24904643593846]], "type": "LineString"}, "properties": {"diameter_mm": 650, "installation_date": "2008-01-01", "lining_material": "blank", "material": "Ductile Iron Concrete Lined", "geo_point_2d": {"lon": -123.11430030648587, "lat": 49.24905899260662}}}, {"type": "Feature", "geometry": {"coordinates": [[-123.10935556201433, 49.248970529993], [-123.10751481453543, 49.24894185379929]], "type": "LineString"}, "properties": {"diameter_mm": 650, "installation_date": "2008-01-01", "lining_material": "blank", "material": "Ductile Iron Concrete Lined", "geo_point_2d": {"lon": -123.10843518827488, "lat": 49.24895619189614}}}, {"type": "Feature", "geometry": {"coordinates": [[-123.12019449657792, 49.255314132598535], [-123.1201297376607, 49.25703914998583]], "type": "LineString"}, "properties": {"diameter_mm": 600, "installation_date": "1998-01-01", "lining_material": null, "material": "Ductile Iron Concrete Lined", "geo_point_2d": {"lon": -123.12016211711932, "lat": 49.256176641292186}}}, {"type": "Feature", "geometry": {"coordinates": [[-123.11515516116039, 49.2483610900645], [-123.11515497628056, 49.248358400674924], [-123.11517533443217, 49.24823215930925], [-123.11522959161756, 49.24693172756178], [-123.11526800728932, 49.24603398295933], [-123.11529757835604, 49.24535672024333]], "type": "LineString"}, "properties": {"diameter_mm": 600, "installation_date": "2008-01-01", "lining_material": "blank", "material": "Ductile Iron Concrete Lined", "geo_point_2d": {"lon": -123.11523277413768, "lat": 49.246859606643866}}}, {"type": "Feature", "geometry": {"coordinates": [[-123.12379811398279, 49.24268948955412], [-123.12350122675734, 49.24279761525772]], "type": "LineString"}, "properties": {"diameter_mm": 650, "installation_date": "2008-06-01", "lining_material": "blank", "material": "Steel", "geo_point_2d": {"lon": -123.12364967037007, "lat": 49.24274355240592}}}, {"type": "Feature", "geometry": {"coordinates": [[-123.10743240910767, 49.24894031131589], [-123.1051978278354, 49.2488965189514], [-123.1041127636315, 49.248876237144586], [-123.1034972873486, 49.24886470056155]], "type": "LineString"}, "properties": {"diameter_mm": 650, "installation_date": "2008-01-01", "lining_material": "blank", "material": "Ductile Iron Concrete Lined", "geo_point_2d": {"lon": -123.10546485634333, "lat": 49.248902082353176}}}, {"type": "Feature", "geometry": {"coordinates": [[-123.11571199532902, 49.24438845453276], [-123.11562159025071, 49.24464713110273], [-123.11545096531704, 49.244896433790785], [-123.1152986344569, 49.24533232411216], [-123.11529757835604, 49.24535672024333]], "type": "LineString"}, "properties": {"diameter_mm": 600, "installation_date": "2008-01-01", "lining_material": "blank", "material": "Ductile Iron Concrete Lined", "geo_point_2d": {"lon": -123.11549428013183, "lat": 49.244868346982}}}, {"type": "Feature", "geometry": {"coordinates": [[-123.1160474432151, 49.24093644689398], [-123.11601480614036, 49.2409269357219]], "type": "LineString"}, "properties": {"diameter_mm": 600, "installation_date": "2005-06-15", "lining_material": "blank", "material": "Ductile Iron Concrete Lined", "geo_point_2d": {"lon": -123.11603112467773, "lat": 49.24093169130794}}}, {"type": "Feature", "geometry": {"coordinates": [[-123.11556956563581, 49.240999703729806], [-123.1155743868386, 49.240975744577845]], "type": "LineString"}, "properties": {"diameter_mm": 600, "installation_date": null, "lining_material": "blank", "material": "<blank>", "geo_point_2d": {"lon": -123.1155719762372, "lat": 49.24098772415382}}}, {"type": "Feature", "geometry": {"coordinates": [[-123.11587764797429, 49.24101140377029], [-123.1158680577652, 49.24101104458431]], "type": "LineString"}, "properties": {"diameter_mm": 600, "installation_date": "2010-10-01", "lining_material": null, "material": "Ductile Iron Concrete Lined", "geo_point_2d": {"lon": -123.11587285286974, "lat": 49.2410112241773}}}, {"type": "Feature", "geometry": {"coordinates": [[-123.11722119818995, 49.24113096236618], [-123.11719211591762, 49.24111434167904]], "type": "LineString"}, "properties": {"diameter_mm": 1500, "installation_date": "2008-01-01", "lining_material": null, "material": "Steel", "geo_point_2d": {"lon": -123.11720665705379, "lat": 49.24112265202261}}}, {"type": "Feature", "geometry": {"coordinates": [[-123.1174161806556, 49.24109928101363], [-123.11737636335882, 49.241097810274624]], "type": "LineString"}, "properties": {"diameter_mm": 900, "installation_date": "2008-01-01", "lining_material": null, "material": "Steel", "geo_point_2d": {"lon": -123.1173962720072, "lat": 49.24109854564413}}}, {"type": "Feature", "geometry": {"coordinates": [[-123.11755878373937, 49.241104542130614], [-123.11751352555947, 49.24110287008481]], "type": "LineString"}, "properties": {"diameter_mm": 1200, "installation_date": "2008-01-01", "lining_material": null, "material": "Steel", "geo_point_2d": {"lon": -123.11753615464943, "lat": 49.24110370610771}}}, {"type": "Feature", "geometry": {"coordinates": [[-123.11515156570736, 49.24877661030324], [-123.11515875639176, 49.2486012681183]], "type": "LineString"}, "properties": {"diameter_mm": 600, "installation_date": "2008-01-01", "lining_material": "blank", "material": "Ductile Iron Concrete Lined", "geo_point_2d": {"lon": -123.11515516104956, "lat": 49.248688939210766}}}, {"type": "Feature", "geometry": {"coordinates": [[-123.1157210847839, 49.24418012474329], [-123.11565612469879, 49.24406792024172]], "type": "LineString"}, "properties": {"diameter_mm": 750, "installation_date": "2010-10-01", "lining_material": null, "material": "Ductile Iron Concrete Lined", "geo_point_2d": {"lon": -123.11568860474134, "lat": 49.2441240224925}}}, {"type": "Feature", "geometry": {"coordinates": [[-123.11565612469879, 49.24406792024172], [-123.11566394719027, 49.24389942262413]], "type": "LineString"}, "properties": {"diameter_mm": 750, "installation_date": "2010-10-01", "lining_material": null, "material": "Ductile Iron Concrete Lined", "geo_point_2d": {"lon": -123.11566003594453, "lat": 49.24398367143293}}}, {"type": "Feature", "geometry": {"coordinates": [[-123.11614842634225, 49.2436104413047], [-123.11655799433122, 49.24339128261721]], "type": "LineString"}, "properties": {"diameter_mm": 750, "installation_date": "2010-10-01", "lining_material": null, "material": "Ductile Iron Concrete Lined", "geo_point_2d": {"lon": -123.11635321033673, "lat": 49.24350086196095}}}, {"type": "Feature", "geometry": {"coordinates": [[-123.11655799433122, 49.24339128261721], [-123.1169556252359, 49.24316289644377]], "type": "LineString"}, "properties": {"diameter_mm": 750, "installation_date": "2010-10-01", "lining_material": null, "material": "Ductile Iron Concrete Lined", "geo_point_2d": {"lon": -123.11675680978357, "lat": 49.243277089530494}}}, {"type": "Feature", "geometry": {"coordinates": [[-123.11587712529628, 49.24102288222303], [-123.11587764797429, 49.24101140377029]], "type": "LineString"}, "properties": {"diameter_mm": 600, "installation_date": "2010-10-01", "lining_material": null, "material": "Ductile Iron Concrete Lined", "geo_point_2d": {"lon": -123.11587738663528, "lat": 49.241017142996654}}}, {"type": "Feature", "geometry": {"coordinates": [[-123.12061985663317, 49.24117128868724], [-123.11957407730726, 49.241131897248685], [-123.11871133933805, 49.241099630528474]], "type": "LineString"}, "properties": {"diameter_mm": 600, "installation_date": "1997-01-28", "lining_material": "blank", "material": "Ductile Iron Concrete Lined", "geo_point_2d": {"lon": -123.11966560034836, "lat": 49.241135396657896}}}, {"type": "Feature", "geometry": {"coordinates": [[-123.12066427770955, 49.24209804896691], [-123.1206840303738, 49.241487710243305]], "type": "LineString"}, "properties": {"diameter_mm": 600, "installation_date": "1977-01-01", "lining_material": "Cement Lined", "material": "Ductile Iron", "geo_point_2d": {"lon": -123.12067415404168, "lat": 49.24179287960511}}}, {"type": "Feature", "geometry": {"coordinates": [[-123.11590129376741, 49.24101229756493], [-123.11814496858295, 49.241097017812265], [-123.11864919346996, 49.2411080959265], [-123.12069437587972, 49.24118346237801]], "type": "LineString"}, "properties": {"diameter_mm": 600, "installation_date": "1997-01-28", "lining_material": "blank", "material": "Ductile Iron Concrete Lined", "geo_point_2d": {"lon": -123.11829781005534, "lat": 49.24109857676926}}}, {"type": "Feature", "geometry": {"coordinates": [[-123.11588073936952, 49.24101151760762], [-123.11590129376741, 49.24101229756493]], "type": "LineString"}, "properties": {"diameter_mm": 450, "installation_date": "1997-01-01", "lining_material": "Cement Lined", "material": "Ductile Iron", "geo_point_2d": {"lon": -123.11589101656848, "lat": 49.24101190758627}}}, {"type": "Feature", "geometry": {"coordinates": [[-123.12046741152753, 49.24793013559254], [-123.12042241750349, 49.24907355722343]], "type": "LineString"}, "properties": {"diameter_mm": 600, "installation_date": "1977-01-01", "lining_material": "Cement Lined", "material": "Ductile Iron", "geo_point_2d": {"lon": -123.12044491451549, "lat": 49.24850184640799}}}, {"type": "Feature", "geometry": {"coordinates": [[-123.11933617607977, 49.24116305088987], [-123.11814224896456, 49.24112605723373]], "type": "LineString"}, "properties": {"diameter_mm": 1200, "installation_date": "1946-01-01", "lining_material": "blank", "material": "Steel", "geo_point_2d": {"lon": -123.11873921252217, "lat": 49.2411445540618}}}, {"type": "Feature", "geometry": {"coordinates": [[-123.11871133933805, 49.241099630528474], [-123.11633247437487, 49.24101919530387]], "type": "LineString"}, "properties": {"diameter_mm": 600, "installation_date": "1997-01-01", "lining_material": "Cement Lined", "material": "Ductile Iron", "geo_point_2d": {"lon": -123.11752190685648, "lat": 49.24105941291617}}}, {"type": "Feature", "geometry": {"coordinates": [[-123.11633247437487, 49.24101919530387], [-123.11632036349921, 49.2410160501687]], "type": "LineString"}, "properties": {"diameter_mm": 600, "installation_date": "1997-01-01", "lining_material": "Cement Lined", "material": "Ductile Iron", "geo_point_2d": {"lon": -123.11632641893705, "lat": 49.24101762273629}}}, {"type": "Feature", "geometry": {"coordinates": [[-123.12047219579638, 49.247806985887884], [-123.12046741152753, 49.24793013559254]], "type": "LineString"}, "properties": {"diameter_mm": 600, "installation_date": "1977-01-01", "lining_material": "Cement Lined", "material": "Ductile Iron", "geo_point_2d": {"lon": -123.12046980366196, "lat": 49.247868560740216}}}, {"type": "Feature", "geometry": {"coordinates": [[-123.11431308930558, 49.24170441767845], [-123.11564348993466, 49.24106367587552]], "type": "LineString"}, "properties": {"diameter_mm": 1200, "installation_date": null, "lining_material": "blank", "material": "<blank>", "geo_point_2d": {"lon": -123.11497828962013, "lat": 49.24138404677699}}}, {"type": "Feature", "geometry": {"coordinates": [[-123.11814224896456, 49.24112605723373], [-123.11755878373937, 49.241104542130614]], "type": "LineString"}, "properties": {"diameter_mm": 1200, "installation_date": "1946-01-01", "lining_material": "blank", "material": "Steel", "geo_point_2d": {"lon": -123.11785051635196, "lat": 49.24111529968217}}}, {"type": "Feature", "geometry": {"coordinates": [[-123.12055273604796, 49.245355583870385], [-123.1205291492613, 49.24610235687618], [-123.12052319054945, 49.24630736447222]], "type": "LineString"}, "properties": {"diameter_mm": 600, "installation_date": "1977-01-01", "lining_material": "Cement Lined", "material": "Ductile Iron", "geo_point_2d": {"lon": -123.12053776088726, "lat": 49.24583146803311}}}, {"type": "Feature", "geometry": {"coordinates": [[-123.11371942881391, 49.241989729917655], [-123.11373932911215, 49.24198071508693]], "type": "LineString"}, "properties": {"diameter_mm": 1200, "installation_date": null, "lining_material": "blank", "material": "<blank>", "geo_point_2d": {"lon": -123.11372937896301, "lat": 49.241985222502294}}}, {"type": "Feature", "geometry": {"coordinates": [[-123.11498011468339, 49.249073749564594], [-123.1150172020106, 49.24907438729058]], "type": "LineString"}, "properties": {"diameter_mm": 650, "installation_date": "2008-01-01", "lining_material": "blank", "material": "Ductile Iron Concrete Lined", "geo_point_2d": {"lon": -123.11499865834699, "lat": 49.24907406842759}}}, {"type": "Feature", "geometry": {"coordinates": [[-123.11362044835325, 49.24904643593846], [-123.11124306688653, 49.24900358448481]], "type": "LineString"}, "properties": {"diameter_mm": 650, "installation_date": "2008-01-01", "lining_material": "blank", "material": "Ductile Iron Concrete Lined", "geo_point_2d": {"lon": -123.11243175761987, "lat": 49.24902501021164}}}, {"type": "Feature", "geometry": {"coordinates": [[-123.11124306688653, 49.24900358448481], [-123.11016599672621, 49.248984152406614]], "type": "LineString"}, "properties": {"diameter_mm": 650, "installation_date": "2008-01-01", "lining_material": "blank", "material": "Ductile Iron Concrete Lined", "geo_point_2d": {"lon": -123.11070453180635, "lat": 49.24899386844571}}}, {"type": "Feature", "geometry": {"coordinates": [[-123.11016599672621, 49.248984152406614], [-123.10976217292276, 49.24897686383935]], "type": "LineString"}, "properties": {"diameter_mm": 650, "installation_date": "2008-01-01", "lining_material": "blank", "material": "Ductile Iron Concrete Lined", "geo_point_2d": {"lon": -123.10996408482447, "lat": 49.24898050812298}}}, {"type": "Feature", "geometry": {"coordinates": [[-123.10976217292276, 49.24897686383935], [-123.10935556201433, 49.248970529993]], "type": "LineString"}, "properties": {"diameter_mm": 650, "installation_date": "2008-01-01", "lining_material": "blank", "material": "Ductile Iron Concrete Lined", "geo_point_2d": {"lon": -123.10955886746854, "lat": 49.24897369691618}}}, {"type": "Feature", "geometry": {"coordinates": [[-123.12023754626885, 49.25416355412762], [-123.12022054344632, 49.254388263452036], [-123.12019346866111, 49.25511151634301], [-123.12019449657792, 49.255314132598535]], "type": "LineString"}, "properties": {"diameter_mm": 600, "installation_date": "2005-12-07", "lining_material": null, "material": "Ductile Iron Concrete Lined", "geo_point_2d": {"lon": -123.12020902708977, "lat": 49.25473859110488}}}, {"type": "Feature", "geometry": {"coordinates": [[-123.12023754626885, 49.25416355412762], [-123.12023786796983, 49.25415455857143]], "type": "LineString"}, "properties": {"diameter_mm": 600, "installation_date": "1998-01-01", "lining_material": null, "material": "Ductile Iron Concrete Lined", "geo_point_2d": {"lon": -123.12023770711934, "lat": 49.25415905634952}}}, {"type": "Feature", "geometry": {"coordinates": [[-123.12350122675734, 49.24279761525772], [-123.12222008102243, 49.24274820858995]], "type": "LineString"}, "properties": {"diameter_mm": 1800, "installation_date": "2008-06-01", "lining_material": "blank", "material": "Steel", "geo_point_2d": {"lon": -123.12286065388989, "lat": 49.242772911923836}}}, {"type": "Feature", "geometry": {"coordinates": [[-123.12222008102243, 49.24274820858995], [-123.12069931029457, 49.24268954833775]], "type": "LineString"}, "properties": {"diameter_mm": 1800, "installation_date": "2008-06-01", "lining_material": "blank", "material": "Steel", "geo_point_2d": {"lon": -123.12145969565849, "lat": 49.24271887846385}}}, {"type": "Feature", "geometry": {"coordinates": [[-123.12069931029457, 49.24268954833775], [-123.12060491814114, 49.242585338120165], [-123.12062214252016, 49.24206472062635]], "type": "LineString"}, "properties": {"diameter_mm": 1800, "installation_date": "2008-06-01", "lining_material": "blank", "material": "Steel", "geo_point_2d": {"lon": -123.12062173141072, "lat": 49.24239143354438}}}, {"type": "Feature", "geometry": {"coordinates": [[-123.12062214252016, 49.24206472062635], [-123.1206472476564, 49.241305271195316]], "type": "LineString"}, "properties": {"diameter_mm": 1800, "installation_date": "2008-06-01", "lining_material": "blank", "material": "Steel", "geo_point_2d": {"lon": -123.12063469508827, "lat": 49.24168499591083}}}, {"type": "Feature", "geometry": {"coordinates": [[-123.1206472476564, 49.241305271195316], [-123.12046794533121, 49.24124230271434], [-123.1183853598517, 49.241164811731146]], "type": "LineString"}, "properties": {"diameter_mm": 1800, "installation_date": "2008-06-01", "lining_material": "blank", "material": "Steel", "geo_point_2d": {"lon": -123.11952116269083, "lat": 49.241209426142454}}}, {"type": "Feature", "geometry": {"coordinates": [[-123.12041788483499, 49.249187261645964], [-123.12041676877527, 49.249214248496706]], "type": "LineString"}, "properties": {"diameter_mm": 600, "installation_date": "1977-01-01", "lining_material": "Cement Lined", "material": "Ductile Iron", "geo_point_2d": {"lon": -123.12041732680512, "lat": 49.249200755071335}}}, {"type": "Feature", "geometry": {"coordinates": [[-123.12023820343451, 49.25414557199611], [-123.1202672276673, 49.25334848415633]], "type": "LineString"}, "properties": {"diameter_mm": 600, "installation_date": "1998-01-01", "lining_material": null, "material": "Ductile Iron Concrete Lined", "geo_point_2d": {"lon": -123.1202527155509, "lat": 49.25374702807622}}}, {"type": "Feature", "geometry": {"coordinates": [[-123.1151326908063, 49.24860129409687], [-123.11515875639176, 49.2486012681183]], "type": "LineString"}, "properties": {"diameter_mm": 300, "installation_date": "2008-01-01", "lining_material": "blank", "material": "Ductile Iron Concrete Lined", "geo_point_2d": {"lon": -123.11514572359904, "lat": 49.24860128110759}}}, {"type": "Feature", "geometry": {"coordinates": [[-123.12521311112943, 49.24281799977745], [-123.12494846769496, 49.24272863075257], [-123.12438603445575, 49.24270949312944], [-123.12379811398279, 49.24268948955412]], "type": "LineString"}, "properties": {"diameter_mm": 1800, "installation_date": "2008-06-01", "lining_material": "blank", "material": "Steel", "geo_point_2d": {"lon": -123.12451145516718, "lat": 49.24272160800147}}}, {"type": "Feature", "geometry": {"coordinates": [[-123.1158680577652, 49.24101104458431], [-123.11563486146316, 49.24098096426938]], "type": "LineString"}, "properties": {"diameter_mm": 600, "installation_date": "2010-10-01", "lining_material": null, "material": "Ductile Iron Concrete Lined", "geo_point_2d": {"lon": -123.11575145961419, "lat": 49.24099600442685}}}, {"type": "Feature", "geometry": {"coordinates": [[-123.11731954616982, 49.241134604554446], [-123.11722119818995, 49.24113096236618]], "type": "LineString"}, "properties": {"diameter_mm": 1500, "installation_date": "2008-01-01", "lining_material": null, "material": "Steel", "geo_point_2d": {"lon": -123.11727037217989, "lat": 49.241132783460316}}}, {"type": "Feature", "geometry": {"coordinates": [[-123.11743612662188, 49.24113892975549], [-123.11731954616982, 49.241134604554446]], "type": "LineString"}, "properties": {"diameter_mm": 1200, "installation_date": "2008-01-01", "lining_material": null, "material": "Steel", "geo_point_2d": {"lon": -123.11737783639586, "lat": 49.24113676715497}}}, {"type": "Feature", "geometry": {"coordinates": [[-123.11758290673014, 49.241144375496646], [-123.11755272085382, 49.24114326382012]], "type": "LineString"}, "properties": {"diameter_mm": 1800, "installation_date": "2008-01-01", "lining_material": null, "material": "Steel", "geo_point_2d": {"lon": -123.11756781379198, "lat": 49.24114381965838}}}, {"type": "Feature", "geometry": {"coordinates": [[-123.11743612662188, 49.24113892975549], [-123.11743735648714, 49.24112456310438]], "type": "LineString"}, "properties": {"diameter_mm": 1200, "installation_date": "2008-01-01", "lining_material": null, "material": "Steel", "geo_point_2d": {"lon": -123.11743674155451, "lat": 49.241131746429936}}}, {"type": "Feature", "geometry": {"coordinates": [[-123.11743944178032, 49.24110014789866], [-123.1174161806556, 49.24109928101363]], "type": "LineString"}, "properties": {"diameter_mm": 900, "installation_date": "2008-01-01", "lining_material": null, "material": "Steel", "geo_point_2d": {"lon": -123.11742781121795, "lat": 49.24109971445615}}}, {"type": "Feature", "geometry": {"coordinates": [[-123.11746277155487, 49.24110099671874], [-123.11743944178032, 49.24110014789866]], "type": "LineString"}, "properties": {"diameter_mm": 900, "installation_date": "2008-01-01", "lining_material": null, "material": "Steel", "geo_point_2d": {"lon": -123.11745110666762, "lat": 49.2411005723087}}}, {"type": "Feature", "geometry": {"coordinates": [[-123.11751352555947, 49.24110287008481], [-123.11746277155487, 49.24110099671874]], "type": "LineString"}, "properties": {"diameter_mm": 900, "installation_date": "2008-01-01", "lining_material": null, "material": "Steel", "geo_point_2d": {"lon": -123.11748814855717, "lat": 49.24110193340178}}}, {"type": "Feature", "geometry": {"coordinates": [[-123.11513925079484, 49.24907648754248], [-123.11515156570736, 49.24877661030324]], "type": "LineString"}, "properties": {"diameter_mm": 600, "installation_date": "2008-01-01", "lining_material": "blank", "material": "Ductile Iron Concrete Lined", "geo_point_2d": {"lon": -123.11514540825108, "lat": 49.24892654892286}}}, {"type": "Feature", "geometry": {"coordinates": [[-123.1157210847839, 49.24418012474329], [-123.11571856800155, 49.244237849698486]], "type": "LineString"}, "properties": {"diameter_mm": 750, "installation_date": "2010-10-01", "lining_material": null, "material": "Ductile Iron Concrete Lined", "geo_point_2d": {"lon": -123.11571982639273, "lat": 49.24420898722089}}}, {"type": "Feature", "geometry": {"coordinates": [[-123.11585505962425, 49.24149779013135], [-123.11587712529628, 49.24102288222303]], "type": "LineString"}, "properties": {"diameter_mm": 600, "installation_date": "2010-10-01", "lining_material": null, "material": "Ductile Iron Concrete Lined", "geo_point_2d": {"lon": -123.11586609246027, "lat": 49.24126033617719}}}, {"type": "Feature", "geometry": {"coordinates": [[-123.11566394719027, 49.24389942262413], [-123.11592119904402, 49.243740938559]], "type": "LineString"}, "properties": {"diameter_mm": 750, "installation_date": "2010-10-01", "lining_material": null, "material": "Ductile Iron Concrete Lined", "geo_point_2d": {"lon": -123.11579257311713, "lat": 49.24382018059157}}}, {"type": "Feature", "geometry": {"coordinates": [[-123.11744501083763, 49.24220880566972], [-123.11725752166483, 49.24188496957589]], "type": "LineString"}, "properties": {"diameter_mm": 750, "installation_date": "2010-10-01", "lining_material": null, "material": "Ductile Iron Concrete Lined", "geo_point_2d": {"lon": -123.11735126625125, "lat": 49.242046887622806}}}, {"type": "Feature", "geometry": {"coordinates": [[-123.1168301806906, 49.2415172003379], [-123.11621374702605, 49.241504931899776]], "type": "LineString"}, "properties": {"diameter_mm": 750, "installation_date": "2010-10-01", "lining_material": null, "material": "Ductile Iron Concrete Lined", "geo_point_2d": {"lon": -123.11652196385833, "lat": 49.24151106611884}}}, {"type": "Feature", "geometry": {"coordinates": [[-123.11632036349921, 49.2410160501687], [-123.1160474432151, 49.24093644689398]], "type": "LineString"}, "properties": {"diameter_mm": 600, "installation_date": "1997-01-01", "lining_material": "Cement Lined", "material": "Ductile Iron", "geo_point_2d": {"lon": -123.11618390335715, "lat": 49.24097624853134}}}, {"type": "Feature", "geometry": {"coordinates": [[-123.11601480614036, 49.2409269357219], [-123.11599346968605, 49.24092071444864]], "type": "LineString"}, "properties": {"diameter_mm": 600, "installation_date": "1997-01-01", "lining_material": "Cement Lined", "material": "Ductile Iron", "geo_point_2d": {"lon": -123.11600413791321, "lat": 49.24092382508528}}}, {"type": "Feature", "geometry": {"coordinates": [[-123.11755272085382, 49.24114326382012], [-123.11743612662188, 49.24113892975549]], "type": "LineString"}, "properties": {"diameter_mm": 1200, "installation_date": "2008-01-01", "lining_material": null, "material": "Steel", "geo_point_2d": {"lon": -123.11749442373785, "lat": 49.24114109678781}}}, {"type": "Feature", "geometry": {"coordinates": [[-123.11765055910695, 49.24113472668807], [-123.11758290673014, 49.241144375496646]], "type": "LineString"}, "properties": {"diameter_mm": 1800, "installation_date": "2008-01-01", "lining_material": null, "material": "Steel", "geo_point_2d": {"lon": -123.11761673291855, "lat": 49.24113955109236}}}, {"type": "Feature", "geometry": {"coordinates": [[-123.1183853598517, 49.241164811731146], [-123.118139771355, 49.241152883578046], [-123.11765055910695, 49.24113472668807]], "type": "LineString"}, "properties": {"diameter_mm": 1800, "installation_date": "2008-01-01", "lining_material": null, "material": "Steel", "geo_point_2d": {"lon": -123.11801799952921, "lat": 49.2411488343538}}}, {"type": "Feature", "geometry": {"coordinates": [[-123.11743735648714, 49.24112456310438], [-123.11743944178032, 49.24110014789866]], "type": "LineString"}, "properties": {"diameter_mm": 900, "installation_date": "2008-01-01", "lining_material": null, "material": "Steel", "geo_point_2d": {"lon": -123.11743839913373, "lat": 49.24111235550152}}}, {"type": "Feature", "geometry": {"coordinates": [[-123.11737636335882, 49.241097810274624], [-123.1173146451881, 49.24109553420157]], "type": "LineString"}, "properties": {"diameter_mm": 1200, "installation_date": "2008-01-01", "lining_material": null, "material": "Steel", "geo_point_2d": {"lon": -123.11734550427346, "lat": 49.2410966722381}}}, {"type": "Feature", "geometry": {"coordinates": [[-123.11571856800155, 49.244237849698486], [-123.11571199532902, 49.24438845453276]], "type": "LineString"}, "properties": {"diameter_mm": 750, "installation_date": "2010-10-01", "lining_material": null, "material": "Ductile Iron Concrete Lined", "geo_point_2d": {"lon": -123.1157152816653, "lat": 49.24431315211562}}}, {"type": "Feature", "geometry": {"coordinates": [[-123.11592119904402, 49.243740938559], [-123.11614842634225, 49.2436104413047]], "type": "LineString"}, "properties": {"diameter_mm": 750, "installation_date": "2010-10-01", "lining_material": null, "material": "Ductile Iron Concrete Lined", "geo_point_2d": {"lon": -123.11603481269313, "lat": 49.24367568993185}}}, {"type": "Feature", "geometry": {"coordinates": [[-123.1169556252359, 49.24316289644377], [-123.11731993128915, 49.24293845566716]], "type": "LineString"}, "properties": {"diameter_mm": 750, "installation_date": "2010-10-01", "lining_material": null, "material": "Concrete", "geo_point_2d": {"lon": -123.11713777826252, "lat": 49.24305067605546}}}, {"type": "Feature", "geometry": {"coordinates": [[-123.11731993128915, 49.24293845566716], [-123.11749681368416, 49.2426812369505]], "type": "LineString"}, "properties": {"diameter_mm": 750, "installation_date": "2010-10-01", "lining_material": null, "material": "Concrete", "geo_point_2d": {"lon": -123.11740837248664, "lat": 49.24280984630883}}}, {"type": "Feature", "geometry": {"coordinates": [[-123.11749681368416, 49.2426812369505], [-123.11750742751681, 49.242452774060084]], "type": "LineString"}, "properties": {"diameter_mm": 750, "installation_date": "2010-10-01", "lining_material": null, "material": "Concrete", "geo_point_2d": {"lon": -123.11750212060048, "lat": 49.24256700550529}}}, {"type": "Feature", "geometry": {"coordinates": [[-123.11750742751681, 49.242452774060084], [-123.11744501083763, 49.24220880566972]], "type": "LineString"}, "properties": {"diameter_mm": 750, "installation_date": "2010-10-01", "lining_material": null, "material": "Concrete", "geo_point_2d": {"lon": -123.11747621917722, "lat": 49.2423307898649}}}, {"type": "Feature", "geometry": {"coordinates": [[-123.11725752166483, 49.24188496957589], [-123.11705726672591, 49.241675205749985]], "type": "LineString"}, "properties": {"diameter_mm": 750, "installation_date": "2010-10-01", "lining_material": null, "material": "Ductile Iron Concrete Lined", "geo_point_2d": {"lon": -123.11715739419536, "lat": 49.24178008766294}}}, {"type": "Feature", "geometry": {"coordinates": [[-123.11705726672591, 49.241675205749985], [-123.1168301806906, 49.2415172003379]], "type": "LineString"}, "properties": {"diameter_mm": 750, "installation_date": "2010-10-01", "lining_material": null, "material": "Ductile Iron Concrete Lined", "geo_point_2d": {"lon": -123.11694372370827, "lat": 49.24159620304394}}}, {"type": "Feature", "geometry": {"coordinates": [[-123.11621374702605, 49.241504931899776], [-123.11585505962425, 49.24149779013135]], "type": "LineString"}, "properties": {"diameter_mm": 600, "installation_date": "2010-10-01", "lining_material": null, "material": "Ductile Iron Concrete Lined", "geo_point_2d": {"lon": -123.11603440332516, "lat": 49.241501361015565}}}, {"type": "Feature", "geometry": {"coordinates": [[-123.11564348993466, 49.24106367587552], [-123.11560109020543, 49.24102701772417]], "type": "LineString"}, "properties": {"diameter_mm": 600, "installation_date": null, "lining_material": "blank", "material": "<blank>", "geo_point_2d": {"lon": -123.11562229007004, "lat": 49.24104534679985}}}, {"type": "Feature", "geometry": {"coordinates": [[-123.12042216106974, 49.249081113483385], [-123.12042164317012, 49.249094157105766]], "type": "LineString"}, "properties": {"diameter_mm": 600, "installation_date": "1977-01-01", "lining_material": "Cement Lined", "material": "Ductile Iron", "geo_point_2d": {"lon": -123.12042190211993, "lat": 49.24908763529457}}}, {"type": "Feature", "geometry": {"coordinates": [[-123.11353641584184, 49.24186353579171], [-123.11363353063007, 49.24197587181744], [-123.11363642109968, 49.24197820773676], [-123.11363958592857, 49.241980363481304], [-123.11364288773075, 49.24198233918624], [-123.1136463269191, 49.241984314755925], [-123.11365004026028, 49.24198602019863], [-123.11365389078115, 49.24198763555384], [-123.11365787806889, 49.24198898091716], [-123.11366200253633, 49.24199023619298], [-123.11366626397695, 49.241991311429075], [-123.11367052500485, 49.241992206760635], [-123.11367506039181, 49.241992921917266], [-123.11367945798004, 49.24199345730452], [-123.11368399254131, 49.241993812652], [-123.11368852668963, 49.24199398809492], [-123.11369306021851, 49.24199389368106], [-123.11369759354085, 49.24199370931482], [-123.11370212624362, 49.241993255091806], [-123.11370652114732, 49.241992621099456], [-123.1137109158444, 49.241991897154726], [-123.11371517253579, 49.24199090348847], [-123.11371942881391, 49.241989729917655]], "type": "LineString"}, "properties": {"diameter_mm": 1200, "installation_date": null, "lining_material": "blank", "material": "<blank>", "geo_point_2d": {"lon": -123.11361911664885, "lat": 49.24194612831999}}}, {"type": "Feature", "geometry": {"coordinates": [[-123.12033357053944, 49.251538396085415], [-123.12034830476661, 49.251132866962706], [-123.12037583739654, 49.25037364114276], [-123.12041131899609, 49.24934635811047]], "type": "LineString"}, "properties": {"diameter_mm": 600, "installation_date": "1998-01-01", "lining_material": null, "material": "Ductile Iron Concrete Lined", "geo_point_2d": {"lon": -123.1203729263576, "lat": 49.25044239415727}}}, {"type": "Feature", "geometry": {"coordinates": [[-123.12066203299955, 49.24216353666034], [-123.12055273604796, 49.245355583870385]], "type": "LineString"}, "properties": {"diameter_mm": 600, "installation_date": "1977-01-01", "lining_material": "Cement Lined", "material": "Ductile Iron", "geo_point_2d": {"lon": -123.12060738452374, "lat": 49.24375956026536}}}, {"type": "Feature", "geometry": {"coordinates": [[-123.12066427770955, 49.24209804896691], [-123.12066203299955, 49.24216353666034]], "type": "LineString"}, "properties": {"diameter_mm": 600, "installation_date": "1977-01-01", "lining_material": "Cement Lined", "material": "Ductile Iron", "geo_point_2d": {"lon": -123.12066315535456, "lat": 49.242130792813626}}}, {"type": "Feature", "geometry": {"coordinates": [[-123.11412417887178, 49.24118334822327], [-123.11460631391924, 49.24089230663985]], "type": "LineString"}, "properties": {"diameter_mm": 600, "installation_date": null, "lining_material": "blank", "material": "<blank>", "geo_point_2d": {"lon": -123.11436524639552, "lat": 49.241037827431555}}}, {"type": "Feature", "geometry": {"coordinates": [[-123.11599346968605, 49.24092071444864], [-123.11578777649495, 49.240913562681904]], "type": "LineString"}, "properties": {"diameter_mm": 750, "installation_date": "1959-01-01", "lining_material": "Coal Tar", "material": "Steel", "geo_point_2d": {"lon": -123.11589062309051, "lat": 49.24091713856528}}}, {"type": "Feature", "geometry": {"coordinates": [[-123.11575236123917, 49.24103792140888], [-123.11570083789415, 49.24103599406816]], "type": "LineString"}, "properties": {"diameter_mm": 1200, "installation_date": "1946-01-01", "lining_material": "blank", "material": "Steel", "geo_point_2d": {"lon": -123.11572659956667, "lat": 49.24103695773852}}}, {"type": "Feature", "geometry": {"coordinates": [[-123.11873133354649, 49.24101570236564], [-123.11599346968605, 49.24092071444864]], "type": "LineString"}, "properties": {"diameter_mm": 750, "installation_date": "1959-01-01", "lining_material": "Coal Tar", "material": "Steel", "geo_point_2d": {"lon": -123.11736240161628, "lat": 49.24096820840714}}}, {"type": "Feature", "geometry": {"coordinates": [[-123.12052319054945, 49.24630736447222], [-123.12049812688714, 49.247175961321354]], "type": "LineString"}, "properties": {"diameter_mm": 600, "installation_date": "1977-01-01", "lining_material": "Cement Lined", "material": "Ductile Iron", "geo_point_2d": {"lon": -123.1205106587183, "lat": 49.24674166289679}}}, {"type": "Feature", "geometry": {"coordinates": [[-123.12049812688714, 49.247175961321354], [-123.12047219579638, 49.247806985887884]], "type": "LineString"}, "properties": {"diameter_mm": 600, "installation_date": "1977-01-01", "lining_material": "Cement Lined", "material": "Ductile Iron", "geo_point_2d": {"lon": -123.12048516134176, "lat": 49.24749147360462}}}, {"type": "Feature", "geometry": {"coordinates": [[-123.11680357581938, 49.24087921274963], [-123.11719211591762, 49.24111434167904]], "type": "LineString"}, "properties": {"diameter_mm": 1500, "installation_date": "1969-01-01", "lining_material": "blank", "material": "Steel", "geo_point_2d": {"lon": -123.1169978458685, "lat": 49.240996777214335}}}, {"type": "Feature", "geometry": {"coordinates": [[-123.1155743868386, 49.240975744577845], [-123.11563486146316, 49.24098096426938]], "type": "LineString"}, "properties": {"diameter_mm": 650, "installation_date": null, "lining_material": "blank", "material": "Steel", "geo_point_2d": {"lon": -123.11560462415088, "lat": 49.24097835442362}}}, {"type": "Feature", "geometry": {"coordinates": [[-123.11578777649495, 49.240913562681904], [-123.11575630686114, 49.240903888352335]], "type": "LineString"}, "properties": {"diameter_mm": 1200, "installation_date": "1967-01-01", "lining_material": "blank", "material": "Steel", "geo_point_2d": {"lon": -123.11577204167804, "lat": 49.240908725517116}}}, {"type": "Feature", "geometry": {"coordinates": [[-123.12078089602261, 49.24121550295879], [-123.11933617607977, 49.24116305088987]], "type": "LineString"}, "properties": {"diameter_mm": 1200, "installation_date": "1946-01-01", "lining_material": "blank", "material": "Steel", "geo_point_2d": {"lon": -123.12005853605119, "lat": 49.241189276924324}}}, {"type": "Feature", "geometry": {"coordinates": [[-123.11644354923587, 49.240896604187604], [-123.11644204481269, 49.24106310763039]], "type": "LineString"}, "properties": {"diameter_mm": 1050, "installation_date": "1953-01-01", "lining_material": "Coal Tar", "material": "Steel", "geo_point_2d": {"lon": -123.11644279702429, "lat": 49.24097985590899}}}, {"type": "Feature", "geometry": {"coordinates": [[-123.11564348993466, 49.24106367587552], [-123.11570083789415, 49.24103599406816]], "type": "LineString"}, "properties": {"diameter_mm": 1200, "installation_date": null, "lining_material": "blank", "material": "<blank>", "geo_point_2d": {"lon": -123.11567216391441, "lat": 49.24104983497185}}}, {"type": "Feature", "geometry": {"coordinates": [[-123.11577268652357, 49.24091717590175], [-123.11578777649495, 49.240913562681904]], "type": "LineString"}, "properties": {"diameter_mm": 750, "installation_date": "1959-01-01", "lining_material": "Coal Tar", "material": "Steel", "geo_point_2d": {"lon": -123.11578023150926, "lat": 49.24091536929183}}}, {"type": "Feature", "geometry": {"coordinates": [[-123.12041676877527, 49.249214248496706], [-123.12041131899609, 49.24934635811047]], "type": "LineString"}, "properties": {"diameter_mm": 600, "installation_date": "1977-01-01", "lining_material": "Cement Lined", "material": "Ductile Iron", "geo_point_2d": {"lon": -123.12041404388567, "lat": 49.24928030330359}}}, {"type": "Feature", "geometry": {"coordinates": [[-123.12023786796983, 49.25415455857143], [-123.12023820343451, 49.25414557199611]], "type": "LineString"}, "properties": {"diameter_mm": 600, "installation_date": "1998-01-01", "lining_material": null, "material": "Ductile Iron Concrete Lined", "geo_point_2d": {"lon": -123.12023803570217, "lat": 49.25415006528377}}}, {"type": "Feature", "geometry": {"coordinates": [[-123.11515875639176, 49.2486012681183], [-123.1151635546222, 49.24848432534614], [-123.11515516116039, 49.2483610900645]], "type": "LineString"}, "properties": {"diameter_mm": 600, "installation_date": "2008-01-01", "lining_material": "blank", "material": "Ductile Iron Concrete Lined", "geo_point_2d": {"lon": -123.11516023248946, "lat": 49.248481134899095}}}]}